{"type": "FeatureCollection", "features": [{"type": "Feature", "properties": {"identifier": "0fa7eb57-9bb0-48ec-b2ac-b2aae38cd20d", "name": "Panorama-S\u00e4li 2"}}, {"type": "Feature", "properties": {"identifier": "157db61d-6c1b-4f45-bea1-5c472fee5756", "name": "Widnau"}}, {"type": "Feature", "properties": {"identifier": "1b66cbd1-d873-476a-bbb0-4d74c9454313", "name": "Park (outdoor)"}}, {"type": "Feature", "properties": {"identifier": "3b5a8353-d4a9-4231-9394-f01691f91454", "name": "Balgach"}}, {"type": "Feature", "properties": {"identifier": "3beb7c1f-9b35-4cae-adbd-82987275e9e1", "name": "Pilgerherberge St.Gallen", "description": "Die Herberge liegt am Rand der Altstadt St.Gallen, direkt am Jakobsweg, dem Kolumbansweg und an der Via Francisca, drei der bedeutendsten Pilgerwege, die durch die Schweiz f\u00fchren. Die Pilgerherberge Sankt Gallen wird von einem engagierten Team ehrenamtlicher Hospitaleras und Hospitaleros gef\u00fchrt \u2013 viele von ihnen sind selbst erfahrene Pilgerinnen und Pilger. Sie sorgen mit viel Engagement und Gastfreundschaft daf\u00fcr, dass sich die Pilger willkommen f\u00fchlen. Die Tradition der Pilgerherbergen geht auf Kl\u00f6ster, Hospit\u00e4ler und Hospize zur\u00fcck, die seit Jahrhunderten Pilgernde auf ihrem Weg unterst\u00fctzen. Die Pilgerherberge St.Gallen setzt diese Tradition fort und bietet eine einfache, aber gem\u00fctliche Unterkunft f\u00fcr alle, die auf Pilgerwegen unterwegs sind.", "url": "https://pilgerherberge-sg.ch/reservation/", "image": "https://sgbtpimtsoch.sos-ch-dk-2.exoscale-cdn.com/catalog/4/1/4/2/41428b5bfc5473fd74a9d488bd9572dce986142e_pilgerherberge_st.gallen.jpg", "openstreetmap_id": "node/11299979042"}, "geometry": {"type": "Point", "coordinates": ["9.3830486", "47.4249312"]}}, {"type": "Feature", "properties": {"identifier": "5096e31e-0983-4d73-b6d9-65259ec30274", "name": "Panorama-S\u00e4li 1"}}, {"type": "Feature", "properties": {"identifier": "553713bf-2f0f-4780-82fe-06c1630345c7", "name": "Weinkeller"}}, {"type": "Feature", "properties": {"identifier": "791dbfb5-d956-4618-9224-983342347404", "name": "Medienraum Talstation Schwebebahn"}}, {"type": "Feature", "properties": {"identifier": "9b01e108-2448-4d0a-a9af-332e2f99f992", "name": "Churfistenblick"}}, {"type": "Feature", "properties": {"identifier": "a9423ee3-8aa9-4781-b862-f7a7f35897b7", "name": "Heerbrugg"}}, {"type": "Feature", "properties": {"identifier": "ea41b459-f172-4927-acdb-4d6e9c008c2e", "name": "Kaminzimmer"}}]}