{"type": "FeatureCollection", "features": [{"type": "Feature", "properties": {"identifier": "0071c72a-ce5e-4c5d-bfde-1ab68af5d039", "name": "Textilmuseum St.Gallen", "description": "Geschichte:\nSeit 1863 erwarb das Kaufm\u00e4nnische Directorium St.Gallen regelm\u00e4ssig Stoffmuster aus aller Welt und legte diese in einem Musterzimmer zur Ansicht auf. 1878 wurde schliesslich das Industrie- und Gewerbemuseum gegr\u00fcndet. Damit entstand das Bed\u00fcrfnis nach einem eigenen Geb\u00e4ude.\n\nArchitektur:\n1886 war das Museum bezugsbereit. Der viergeschossige Backsteinbau ist 40 Meter lang und beginnt mit dem Hochparterre auf einem halbgeschossigen Granitsockel. Die vierte Etage ist hinter dem Dachgesims zur\u00fcckversetzt und betont so die Turmform des Geb\u00e4udes.\n\nHeutige Nutzung:\nAuch heute noch ist das Textilmuseum eine lebendige Plattform f\u00fcr historisches wie auch innovatives Textildesign. Denn Geschmack und Geschmacksbildung stellen in einem Land wie der Schweiz \u2013 ohne Bodensch\u00e4tze oder klimatische Privilegien \u2013 einen zentralen volkswirtschaftlichen Nutzen dar.", "url": "https://www.textilmuseum.ch/", "image": "https://sgbtpimtsoch.sos-ch-dk-2.exoscale-cdn.com/catalog/9/8/6/2/986299a36f540bc91b5bfa8841241517abc17c2f_Textilmuseum_NeueStoffe_2__c_JZuercher.jpg", "openstreetmap_id": "node/373868024"}, "geometry": {"type": "Point", "coordinates": ["9.37364", "47.42334"]}}, {"type": "Feature", "properties": {"identifier": "02b626ec-f4b7-4b1e-930d-14c6a456fba5", "name": "Spielplatz Ermenswil", "description": "<p>Der Spielplatz Ermenswil wurde als Ort der Begegnung geschaffen und bietet Kindern eine ideale M\u00f6glichkeit, sich abseits von allem Verkehr bei Spiel und Sport zu vergn\u00fcgen. Die Feuerstelle l\u00e4dt zum verweilen ein.</p><p></p><p><strong>Ausstattung:</strong></p><ul><li>0\u20135 Jahre</li><li>5\u201312 Jahre</li><li>Barrierefrei</li><li>Feuerstelle</li><li>Picknick-Platz</li><li>Rauchfrei</li></ul>", "image": "https://sgbtpimtsoch.sos-ch-dk-2.exoscale-cdn.com/catalog/e/b/4/0/eb4065ed254cca0072f7dd88ae151e18f052a621_Spielplatz_Ermenswil_2014.JPG", "openstreetmap_id": "way/226947982"}, "geometry": {"type": "Point", "coordinates": ["8.88749957084656", "47.24389347936932"]}}, {"type": "Feature", "properties": {"identifier": "03139e0b-89de-4fc8-b77c-4d091aafbdbf", "name": "Grabenp\u00e4rkli", "description": "Gleich in der N\u00e4he des Bahnhofs St.Gallen befindet sich das kleine aber feine Grabenp\u00e4rkli. Parkb\u00e4nke s\u00e4umen die sch\u00f6nen Blumenbeete und laden zum Verweilen ein. Der eigentliche Hingucker ist die Skulptur des bedeutenden Spreng- und Explosionsk\u00fcnstlers Roman Signer. Aus einem knallroten Fass klatscht ein starker, satter Wasserstrahl auf den Boden. ", "image": "https://sgbtpimtsoch.sos-ch-dk-2.exoscale-cdn.com/catalog/5/5/0/6/5506e09ce0ee7c670552953a61869bb64670ef3d_Photokleinformat_3_2_P__rkli_St.Gallen.jpg", "openstreetmap_id": "way/8080662"}, "geometry": {"type": "Point", "coordinates": ["9.373902082443239", "47.424704688926056"]}}, {"type": "Feature", "properties": {"identifier": "03869b7d-2902-4428-8595-6fbc70442027", "name": "Kulturfabrik Industrie36", "description": "<p>Mitten in Rorschach am Bodensee verbindet die Kulturfabrik Industrie36 authentische Industrieatmosph&auml;re mit professioneller Veranstaltungstechnik und besonderer Clubn&auml;he. Zentral und dennoch &laquo;ab vom Schuss&raquo; gelegen, ist sie mit &Ouml;V und Auto sehr gut erreichbar und bietet grossz&uuml;gige Parkm&ouml;glichkeiten. Das Rorschacher Seeufer mit Hafen, Seepark und W&uuml;rth Haus liegt in der n&auml;heren Umgebung; Schiffsausfl&uuml;ge auf dem Bodensee oder die Zahnradbahn Richtung Heiden bieten attraktive M&ouml;glichkeiten, einen Veranstaltungsbesuch mit einem Ausflug zu verbinden.</p>", "url": "https://www.industrie36.events", "image": "https://sgbtpimtsoch.sos-ch-dk-2.exoscale-cdn.com/catalog/4/c/8/3/4c83e89c0de9e57a72c29d3e3eb0fe3c46957db8_i36_92_konzert_2.JPEG", "openstreetmap_id": "way/329096024"}, "geometry": {"type": "Point", "coordinates": ["9.4823652", "47.4753229"]}}, {"type": "Feature", "properties": {"identifier": "05bc91d7-9d55-41ec-9a7a-b6d4ff85d2d3", "name": "Hof zu Wil", "description": "<p>Der Hof zu Wil mit Sitz in der Wiler Altstadt ist ein Kulturdenkmal von nationaler historischer Bedeutung und blickt auf eine mehr als 800-j&auml;hrige Geschichte zur&uuml;ck.</p><p>Heute ist der Hof zu Wil ein Ort des gesellschaftlichen und kulturellen Lebens. Die Nutzung ist vielseitig:&nbsp;</p><ul><li>Museale Inszenierung in den <a href=\"https://hofzuwil.ch/hofwelten/\" target=\"_blank\" rel=\"noopener\">Hofwelten</a></li><li>Tradition und Genuss in der <a href=\"https://hofzuwil.ch/gastronomie/\" target=\"_blank\" rel=\"noopener\">Gastronomie Hof zu Wil</a></li><li>Schlafen wie ein F&uuml;rstabt in der <a href=\"https://hofzuwil.ch/#stopscroll-4\" target=\"_blank\" rel=\"noopener\">Hofherberge</a> (ab Herbst 2026)</li><li><a href=\"https://hofzuwil.ch/business/\" target=\"_blank\" rel=\"noopener\">Coworking</a> in den F&uuml;rstabtlogen</li></ul><p>Auch das touristische Info-Center sowie die &ouml;rtliche Bibliothek befinden sich im historischen Geb&auml;ude. Weitere Informationen sind&nbsp; <a href=\"https://hofzuwil.ch/\" target=\"_blank\" rel=\"noopener\">hier</a> ersichtlich.&nbsp;</p>", "url": "https://hofzuwil.ch", "image": "https://sgbtpimtsoch.sos-ch-dk-2.exoscale-cdn.com/catalog/4/a/7/2/4a726513d7928c68203c66d5862d6c69cd19c119_4___Hof_zu_Wil_290925__3.jpg", "openstreetmap_id": "way/284581246"}, "geometry": {"type": "Point", "coordinates": ["9.04999", "47.46762"]}}, {"type": "Feature", "properties": {"identifier": "0b6dd180-ecf3-4fd8-9323-65d3044b519e", "name": "Zeppelin Museum Friedrichshafen", "description": "Im denkmalgesch\u00fctzten Geb\u00e4ude des Hafenbahnhofs vereint das Zeppelin Museum Friedrichshafen die weltweit bedeutendste Sammlung zur Luftschifffahrt mit einer Kunstsammlung, die die gro\u00dfen Meister aus S\u00fcddeutschland vom Mittelalter bis zur Neuzeit umfasst. Rund 1.500 Exponate auf \u00fcber 4.000 Quadratmetern Fl\u00e4che umfassen einzigartige Objekte \u2013 nicht nur f\u00fcr Zeppelin-Liebhaber. Zu den Highlights z\u00e4hlen die begehbaren Passagierr\u00e4ume der LZ 129 Hindenburg im originalgetreuen, rund 33 Meter langen Nachbau, eine Wunderkammer zum Kultobjekt Zeppelin sowie Experimentierstationen, die das Prinzip \u201eLeichter als Luft\u201c f\u00fcr Gro\u00df und Klein versteh- und mittels eines Flugsimulators erlebbar machen.\n\nFragmente der Luftschiffe wie Gerippe, Propeller, Gondeln, H\u00f6henmotoren oder Getriebe sind neben historischen Ton-, Film- und Bildaufnahmen, Zeitungsartikeln und der Ausstattung der Luftschiffe zu sehen. Sie lassen multimedial aufleben, wer die Pioniere der Luftschifffahrt waren und erinnern an ihre gr\u00f6\u00dften Erfolge und die schrecklichsten Katastrophen. Au\u00dferdem beantworten sie die Frage, wie es Graf Zeppelin gelang, ein Luftschiff zu bauen, das fast viermal so gro\u00df ist wie ein Airbus, aber dennoch leichter als Luft und wie er die Stadt Friedrichshafen damit als Industriestandort nachhaltig pr\u00e4gte.\n\nEinen besonderen Ausstellungsschwerpunkt bilden zudem Werke von K\u00fcnstler*innen, die sich w\u00e4hrend der Zeit des Nationalsozialismus an den Bodensee in die \u201eInnere Emigration\u201c zur\u00fcckzogen, wie Otto Dix, Max Ackermann oder Willi Baumeister. In akribischer Forschungsarbeit begibt sich das Zeppelin Museum auf Spurensuche und arbeitet die Geschichten der Kunstwerke seiner Sammlung auf. Auf diese Weise macht es Schicksale von Sammler*innen sichtbar, von geraubten oder verlagerten Kunstwerken oder von Hetzaktionen der Nationalsozialist*innen gegen die Moderne Kunst.\n\nDurch Wechselausstellungen zu gesellschaftlich aktuellen Themen spannt das Museum einen Bogen zur zeitgen\u00f6ssischen Kunst und bringt Kunst und Technik immer wieder aufs Neue in Dialog. Jeden Sonntag finden \u00f6ffentliche F\u00fchrungen durch die Ausstellungen statt, donnerstags sind Besucher*innen im OPEN HOUSE! zu kostenlosen Vortr\u00e4gen, Lesungen und anderen Veranstaltungen eingeladen.\n\nZur Vor- und Nachbereitung bietet das Zeppelin Museum zahlreiche kostenlose, digitale Inhalte und Formate an: Die Digitale Sammlung und die Mediathek laden zum St\u00f6bern ein, in der Podcastreihe ZM talks plaudern Mitarbeiter*innen aus dem N\u00e4hk\u00e4stchen oder f\u00fchren Gespr\u00e4che mit Expert*innen zu aktuellen Themen, die ZeppApp bietet umfassende Informationen und Audioguides zu den Ausstellungen, die eigene Diskursplattform debatorial\u00ae l\u00e4dt zum Austausch ein, der Museumsblog zum Lesen und die Profile auf den sozialen Netzwerken zu Interaktion und Storytelling.", "url": "https://www.zeppelin-museum.de/", "image": "https://sgbtpimtsoch.sos-ch-dk-2.exoscale-cdn.com/catalog/4/1/1/d/411d82b525537d967b39234fd270828c9cb2151f_Familie_Highres_49___DBT_Foto_Denger_ohne_Banner.png", "openstreetmap_id": "way/35929714"}, "geometry": {"type": "Point", "coordinates": ["9.4830611", "47.6507925"]}}, {"type": "Feature", "properties": {"identifier": "0bf04eb9-d23c-4b2e-9c8a-2ec1ec63c792", "name": "Festungsmuseum Heldsberg", "description": "Das Artilleriewerk Heldsberg war vom 2. Weltkrieg bis 1993 Teil der Grenzbefestigung im Rheintal. Durch seine Lage kontrollierte es mit seinen vier 7.5 cm Festungs-Gesch\u00fctzen im Norden das S\u00fcdende des Bodensees und im S\u00fcden die Rhein\u00fcberg\u00e4nge im Rheintal bis Montlingen. Mit der Sperre am Stoss bei Altst\u00e4tten wurde der \u00dcbergang ins Appenzellerland gesichert. Zum Angebot des Festungsmuseums Heldsberg geh\u00f6rt auch der eindr\u00fcckliche, unterirdische Kommandobunker der Grenzbrigade 8, Haslen AI, der in \u00fcber 30 R\u00e4umen die Zeit des \u201eKalten Krieges\u201c thematisiert.\n\nIn der Heldsbergstube und in der Soldatenstube \u201eK\u00e4stlis\u201c Haslen, werden die G\u00e4ste mit Getr\u00e4nken und Speisen verw\u00f6hnt. Wechselnde Sonderausstellungen bereichern die milit\u00e4rhistorischen Museen.", "url": "http://www.festung.ch/", "image": "https://sgbtpimtsoch.sos-ch-dk-2.exoscale-cdn.com/catalog/8/f/1/b/8f1b87a0ff4aca7ef0b2b5845039793e8a4a0442_2021_07_31_Heldsberg_Ledermann__8_.JPG", "openstreetmap_id": "way/81759684"}, "geometry": {"type": "Point", "coordinates": ["9.643226599999934", "47.4432905"]}}, {"type": "Feature", "properties": {"identifier": "0c24bdec-9b04-4b12-898c-cc12cbbc8518", "name": "Kommandobunker Grenzbrigade 8", "description": "Die Anlage umfasst \u00fcber 30 B\u00fcro- und Schlafr\u00e4ume, Maschinenraum, Telefonzentrale, K\u00fcche und Soldatenstube sowie weitere Nebenr\u00e4ume.\n\nZusammen mit vielen Angeh\u00f6rigen des letzten aktiven Brigadestabs und weiteren Helfern ist es gelungen, auf dem gesamten unteren Stock der Kaserne die Arbeit eines Brigadestabs w\u00e4hrend des Kalten Krieges nachzustellen und f\u00fcr den Besucher erkl\u00e4r- und erlebbar zu machen. Des weiteren ist der Kalte Krieg selbst Thema der Ausstellung und wird von verschiedenen Seiten beleuchtet.\n\nAusgestattete Mannschaftsunterk\u00fcnfte, Bibliothek, ein aufw\u00e4ndiges Gel\u00e4ndemodell (Rhein\u00fcberquerung der Amerikaner im 2. Weltkrieg), verschiedene Uniformen und nat\u00fcrlich auch der betriebsbereite Maschinenraum runden die vielf\u00e4ltigen Museumsr\u00e4umlichkeiten ab.\n\nNach dem spannenden Rundgang steht die Soldatenstube f\u00fcr einen Ap\u00e9ro oder gar ein komplettes Essen zur Verf\u00fcgung. Das Sekretariat gibt gerne weitere Ausk\u00fcnfte.", "url": "http://www.festung.ch", "image": "https://sgbtpimtsoch.sos-ch-dk-2.exoscale-cdn.com/catalog/e/3/0/e/e30eeef829725349a124c92108d0eaf93b94223e_2022_Eingang_KP_Haslen__1__kompr.jpg", "openstreetmap_id": "way/469977394"}, "geometry": {"type": "Point", "coordinates": ["9.3720583", "47.3577958"]}}, {"type": "Feature", "properties": {"identifier": "100fcc79-3d2e-4f46-8c73-424a95248cfd", "name": "Appenzeller Brauchtumsmuseum", "description": "Das Innere besticht aufgrund des Bauk\u00f6rpers, durch die heimelige Atmosph\u00e4re und durch die verwinkelten, niedrigen R\u00e4ume mit den schr\u00e4gen Holzb\u00f6den. Es bietet Einblick in die b\u00e4uerliche Kultur des Appenzellerlandes, das damit verbundene Handwerk und das im Talkessel von Urn\u00e4sch tief in der Bev\u00f6lkerung verwurzelte und bis heute lebendige Brauchtum. Im Mittelpunkt stehen die Silvesterchl\u00e4use, die Alpfahrt, das Sennenleben, die Bauernmalerei, das Wohnen und die Streichmusik. Auch althergebrachtes Handwerk hat seinen Platz.", "url": "http://www.museum-urnaesch.ch/", "image": "https://sgbtpimtsoch.sos-ch-dk-2.exoscale-cdn.com/catalog/d/9/3/b/d93be5dc2cb8e125c7690904e265c281694e6367_16108_1060_komprimiert.jpg", "openstreetmap_id": "node/299122250"}, "geometry": {"type": "Point", "coordinates": ["9.282804", "47.317324"]}}, {"type": "Feature", "properties": {"identifier": "1939feb9-f820-40c4-a545-b7dff23845d4", "name": "Olma Messen St.Gallen", "description": "Ob f\u00fcr eine Tagung mit 100 Personen, f\u00fcr ein Bankett mit 1000 G\u00e4sten, f\u00fcr einen Kongress mit 1500 oder eine GV mit 4000 Teilnehmern \u2013 Die Olma Messen St.Gallen bieten die passenden R\u00e4ume mit modernster Infrastruktur und Veranstaltungstechnik \u2013 erstklassiges Catering inklusive. Die Hallen sind sehr beliebt als Locations f\u00fcr Events, Konzerte oder Musical-Produktionen. J\u00e4hrlich zieht das Team der Olma Messen St.Gallen bei \u00fcber 100 Veranstaltungen die Strippen hinter den Kulissen und schafft echte Erlebnisse und wertvolle Begegnungen f\u00fcr zehntausende von Menschen.\n\nDas flexible Raumangebot von modularen Tagungsr\u00e4umen bis zu Hallen\nf\u00fcr Grossanl\u00e4sse mit den jeweiligen ad\u00e4quaten Foyers erm\u00f6glicht individuelle Settings von Kongressen und Events. Die zentrale Lage im Herzen der Stadt St.Gallen, die bequeme Anbindung an den \u00d6V, der direkte Autobahnanschluss, ein attraktives Parkplatzangebot und Hotelkapazit\u00e4ten geh\u00f6ren ebenfalls dazu.", "url": "https://www.olma-messen.ch/veranstalten/kongress-und-tagung/", "image": "https://sgbtpimtsoch.sos-ch-dk-2.exoscale-cdn.com/catalog/a/7/3/c/a73ca0a9436603ff413fb8992bb84a83bd1cb8d8_CongressEvents_13.jpg", "openstreetmap_id": "way/268684903"}, "geometry": {"type": "Point", "coordinates": ["9.385859900000014", "47.4335726"]}}, {"type": "Feature", "properties": {"identifier": "19d5863c-c7bd-4505-b550-77680e6a7656", "name": "Napoleonmuseum Arenenberg", "description": "Historisches Herzst\u00fcck des Arenenbergs ist das Napoleonmuseum im Schloss. Hier k\u00f6nnen die sorgf\u00e4ltig restaurierten, original ausgestatteten Wohnr\u00e4ume von K\u00f6nigin Hortense und der kaiserlichen Familie Napoleons III. besichtigt werden. Prachtvolle Zeltsalons, private R\u00fcckzugsr\u00e4ume, Zofenzimmer und kostbare Gem\u00e4lde aber auch ein handbestickter Kinderthron sind hier zu sehen. Umgeben ist das Schlossgut von einem Landschaftspark und vom Arenenberger Schul- und Gutsbetrieb, zu dem auch die Rebh\u00e4nge des eigenen Weinguts geh\u00f6ren.", "url": "https://napoleonmuseum.tg.ch", "image": "https://sgbtpimtsoch.sos-ch-dk-2.exoscale-cdn.com/catalog/b/d/8/2/bd82745f947502bee24b225d7dce3d72bbbde248_20210810_145909_resized.jpg", "openstreetmap_id": "node/1129328125"}, "geometry": {"type": "Point", "coordinates": ["9.0592034", "47.6726822"]}}, {"type": "Feature", "properties": {"identifier": "1a5e29ab-0d20-420b-9dbf-fc0783715fa2", "name": "Schienenerlebnisse", "description": "<p>Wir stellen Ihnen gerne ein Gesamtpaket unter der Ber&uuml;cksichtigung Ihrer W&uuml;nsche zusammen. Ob private oder gesch&auml;ftliche Anl&auml;sse &ndash; mit unserem Fachwissen und unserer Kreativit&auml;t beraten wir Sie ganz individuell und mit Liebe zum Detail.</p><p>Sie haben die M&ouml;glichkeit, aus bereits bestehenden Event-Beispielen auszuw&auml;hlen, diese je nach Wunsch individuell anzupassen oder f&uuml;r sich einen ganz eigenen Event zu gestalten. Mit dem untenstehenden Button gelangen Sie zu auserlesenen Event-Beispielen.</p>", "image": "https://sgbtpimtsoch.sos-ch-dk-2.exoscale-cdn.com/catalog/1/5/4/7/1547d935631eadac006cde3acfc2241be4ca9378_00_Titelbild_edited_1536x863.jpg", "openstreetmap_id": "node/158773000"}, "geometry": {"type": "Point", "coordinates": ["8.894150753920062", "47.55586341460734"]}}, {"type": "Feature", "properties": {"identifier": "26447794-f542-4869-a21b-64d9fa2d947b", "name": "Tr\u00f6ckneturm", "description": "Geschichte:\nDie Geschichte des Tr\u00f6ckneturms ist eng mit der Burg Waldegg verflochten, zu deren L\u00e4ndereien das grosse Areal mit den Burgweihern bis hinunter nach Sch\u00f6nenwegen geh\u00f6rte. Das stattliche Anwesen, fast 300 Jahre im Besitz des Klosters St.Gallen, war nach der Helvetischen Revolution an den Kanton gefallen. 1825 ersteigerte der St.Galler Kaufmann Johann Jakob T\u00e4schler (1786-1830) das Areal und errichtete einen Fabrikanbau an die Burg, in dem er eine Rotf\u00e4rberei betrieb - damals gerade gross in Mode. Er war es auch, der 1828 beim so genannten \u00abAlten Weiher\u00bb ein \u00abTr\u00f6cknehaus\u00bb errichten liess. Es war eine durchdachte Konstruktion, innen beheizbar, so dass die Stoffbahnen je nach Wetter aussen oder innen aufgezogen und getrocknet werden konnten.\n\nHeutige Nutzung:\nDank der neuen Eigent\u00fcmerschaft f\u00fcr das Areal Sittertal, zu dem auch das Burgweiherareal geh\u00f6rte, konnte der Tr\u00f6ckneturm 1997 in eine Stiftung \u00fcberf\u00fchrt werden, welche dieses einzigartige Objekt textile Vergangenheit zu einem Begegnungsort umbaute, museal erg\u00e4nzt mit einer Dauerausstellung zu den Themen \"Wirtschafts- und Sozialgeschichte der Stadt St.Gallen\", \"Die Sitterlandschaft als Wirtschaftslandschaft\" und \"Die Geschichte der St.Galler Textilindustrie\". Der Turm kann heute auch f\u00fcr gesellschaftliche Anl\u00e4sse gemietet werden.", "url": "http://www.troeckneturm.ch", "image": "https://sgbtpimtsoch.sos-ch-dk-2.exoscale-cdn.com/catalog/d/f/0/d/df0d7cc7e6d62e963181dafd2d87ef2f801b89e8_Textilweg_520.jpg", "openstreetmap_id": "way/30264397"}, "geometry": {"type": "Point", "coordinates": ["9.348409400000037", "47.4159719"]}}, {"type": "Feature", "properties": {"identifier": "26931348-f2d5-4550-85ed-f265c8bde9a8", "name": "St.Galler Bauernmarkt", "description": "So abwechslungsreich wie sich jeder Marktstand gestaltet, so vielf\u00e4ltig sind die Bauernbetriebe der Marktfahrerfamilien. Regionales Gem\u00fcse, Obst, Kr\u00e4uter, Milchprodukte oder Blumen - hier gibt es jeweils freitags Neues und Altbew\u00e4hrtes zu entdecken und probieren.  ", "url": "https://bauernmarkt-sg.ch/", "image": "https://sgbtpimtsoch.sos-ch-dk-2.exoscale-cdn.com/catalog/d/8/e/d/d8ed6d3f25137cc616e3a1efa5af841bb2d11825_Photokleinformat_3_2_Bauernmarkt_St.Gallen_5.jpg", "openstreetmap_id": "node/137896218"}, "geometry": {"type": "Point", "coordinates": ["9.3750971", "47.4260286"]}}, {"type": "Feature", "properties": {"identifier": "28893a4d-d5c2-4a90-9d28-a8c68a546887", "name": "Spielplatz Schulhaus B\u00fcrg", "description": "<p>Der neu gebaute Spielplatz beim Kindergartenpavillion und dem Schulhaus B\u00fcrg mit Rutsche, Schaukel und Pingpongtisch bietet allen Kindern etwas. Der angrenzende Pausenplatz mit Basketballkorb l\u00e4dt zu einem Basketballspiel ein. Ben\u00fctzung lediglich ausserhalb der Schulzeiten.</p><p></p><p><strong>Ausstattung:</strong></p><ul><li>0\u20135 Jahre</li><li>5\u201312 Jahre</li><li>Barrierefrei</li><li>Rauchfrei</li></ul>", "image": "https://sgbtpimtsoch.sos-ch-dk-2.exoscale-cdn.com/catalog/c/1/e/8/c1e846088f5f994c945e95f272bd7dcf5ce9818e_Spielplatz_Schulhaus_B__rg_2022.JPG", "openstreetmap_id": "way/273895510"}, "geometry": {"type": "Point", "coordinates": ["8.943375307174732", "47.248785600000005"]}}, {"type": "Feature", "properties": {"identifier": "2b94672a-5722-46c9-91f2-25d3e35d3fb6", "name": "Skatepark Eschenbach", "description": "<p>Der vor kurzem neu gebaute Skatepark bei den Fussballfeldern an der Rapperswilerstrasse ist klein und \u00fcberschaubar, hat aber trotzdem einiges zu bieten. Rampen links sowie rechts, einige Schanzen und andere Hindernisse im Zentrum des Platzes. Auch einige Rails am Rande garantieren f\u00fcr Spass.</p><p></p><p><strong>Ausstattung:</strong></p><ul><li>0\u20135 Jahre</li><li>5\u201312 Jahre</li><li>Barrierefrei</li><li>Rauchfrei</li></ul>", "image": "https://sgbtpimtsoch.sos-ch-dk-2.exoscale-cdn.com/catalog/e/1/5/5/e155a99eb52bd88cce2f7a0bdb59ae87daa0020b_Skateranlage_2021_LarsG__beli_01.jpg", "openstreetmap_id": "node/7126452312"}, "geometry": {"type": "Point", "coordinates": ["8.91793727874756", "47.23658748829896"]}}, {"type": "Feature", "properties": {"identifier": "2f8fa983-f223-48f4-a1d8-4bfed0a5ceef", "name": "Wildpark Peter und Paul", "description": "<p>Der Wildpark Peter und Paul liegt in der Stadt St.Gallen auf einer Kuppe bei Rotmonten. Eingebettet in eine abwechslungsreiche Naturlandschaft l&auml;dt er zur Erholung und zum Spazieren ein. Von verschiedenen Standorten im Park er&ouml;ffnen sich sch&ouml;ne Aussichten auf den Kanton Thurgau, den Bodensee, S&uuml;ddeutschland, Vorarlberg und in den Alpstein. Das Restaurant Peter und Paul rundet das attraktive Freizeit- und Informationsangebot kulinarisch ab. Die Wildtiergehege f&uuml;gen sich nahtlos ins Gel&auml;nde ein. Die Rot-, Sika- und Damhirsche, G&auml;msen, Steinb&ouml;cke, Murmeltiere, Wildschweine, Luchse und Wildkatzen sind in naturnaher Umgebung zu sehen. Wahrzeichen des Wildparks sind die Steinbockfelsen.&nbsp;</p>", "url": "http://www.wildpark-peterundpaul.ch/", "image": "https://sgbtpimtsoch.sos-ch-dk-2.exoscale-cdn.com/catalog/6/0/4/e/604e1f4f5f68c7083d157ed76746889ee690d3a3_Computerformat_4_3_PeterPaul_13.jpg", "openstreetmap_id": "way/25750594"}, "geometry": {"type": "Point", "coordinates": ["9.387323856353762", "47.449690492502604"]}}, {"type": "Feature", "properties": {"identifier": "394a2e9b-ec7a-48a8-8d1c-47a74693d60b", "name": "Begegnungsplatz Kellen", "description": "Der Begegnungsplatz Kellen ist seit seiner Er\u00f6ffnung im Jahr 2011 eine weit \u00fcber die Gemeindegrenzen hinaus bekannte Attraktion f\u00fcr Kinder und Familien.\n\nDer Begegnungsplatz Kellen besteht aus zehn Spielinseln, einer Boccia-Bahn und zwei \u00f6ffentlichen Grillstellen.\n\nDie regionalen Sport- und Erholungsanlagen Kellen mit ihren zus\u00e4tzlichen \u00f6ffentlichen Angeboten liegen in unmittelbarer Nachbarschaft.", "url": "https://www.goldach.ch/begegnungsplatzkellen/2397", "image": "https://sgbtpimtsoch.sos-ch-dk-2.exoscale-cdn.com/catalog/3/a/4/5/3a453b5365c47273bda9117d58265e2b4e0229cb_Begegnungsplatz_Kellen.jpg", "openstreetmap_id": "way/144475168"}, "geometry": {"type": "Point", "coordinates": ["9.458869800000002", "47.4775408"]}}, {"type": "Feature", "properties": {"identifier": "400bc32f-cc8a-4712-a5ca-30c913497620", "name": "Ausstellungssaal im Stiftsbezirk", "description": "<p>Die Ausstellung \"Das Wunder der &Uuml;berlieferung &ndash; Der St.Galler Klosterplan und Europa im fr&uuml;hen Mittelalter\" befasst sich mit der einmaligen &Uuml;berlieferungsdichte von Dokumenten des Fr&uuml;hmittelalters in St.Gallen. Dabei stehen die Rechtsdokumente, die im Stiftsarchiv St.Gallen erhalten geblieben sind, im Vordergrund, darunter auch zwei Verbr&uuml;derungsb&uuml;cher und das einzige &uuml;berlieferte Professbuch der Karolingerzeit. Wechselausstellungen mit thematisch ausgew&auml;hlten Urkunden geben Einblicke in die Lebenswelten des fr&uuml;hen Mittelalters. Der ber&uuml;hmte St.Galler Klosterplan kann nach einer einf&uuml;hrenden Multivision einige Sekunden im Original betrachtet werden. Das wertvolle Dokument muss aus konservatorischen Gr&uuml;nden vor zu starker Lichtexposition gesch&uuml;tzt werden.</p>", "url": "https://www.stiftsbezirk.ch/de/aktuelle-ausstellungen/ausstellungssaal", "image": "https://sgbtpimtsoch.sos-ch-dk-2.exoscale-cdn.com/catalog/1/a/a/d/1aad49794ebb7bab57c9b1f4b68cd940a0449faa_klosterplan__1__klein.jpg", "openstreetmap_id": "way/131608042"}, "geometry": {"type": "Point", "coordinates": ["9.3778712", "47.4240379"]}}, {"type": "Feature", "properties": {"identifier": "49f38306-da59-4b52-91c9-fc68e8cc53c9", "name": "Feuerstelle T\u00f6ssscheide", "description": "<p>Diese Feuerstelle liegt direkt bei der T\u00f6ssscheide. Holz ist vor Ort vorhanden und die Sitzgelegenheit bietet sich an, sich an diesem sch\u00f6nen Ort zu verweilen. Eine Reservation der Feuerstelle ist nicht m\u00f6glich. </p><p></p><p>Wer sich gerne abk\u00fchlen m\u00f6chte, kann dies in der T\u00f6ss machen, bevor es von hier auf verschiedenen Routen weiter gehen kann.</p>", "image": "https://sgbtpimtsoch.sos-ch-dk-2.exoscale-cdn.com/catalog/c/1/9/b/c19bac96ba28f5fc51939d82e8d308b59bcd9eea_01_T__ssscheidi2klein.JPG", "openstreetmap_id": "T\u00f6ssscheide"}, "geometry": {"type": "Point", "coordinates": ["8.960541486740114", "47.31224955346231"]}}, {"type": "Feature", "properties": {"identifier": "4fef06a2-4fa9-4d5d-9599-9a9081cd79c7", "name": "Goldach Lido Beach", "description": "Ein gem\u00fctlicher Ort mit mehreren Grillpl\u00e4tzen l\u00e4dt zum Verweilen ein. Der weite Kiesstrand ist ideal f\u00fcr den Einstieg mit dem SUP. In Gehdistanz befindet sich der Parkplatz Hafen. Auch in der N\u00e4he ist Sepp\u2019s Glace-Stand, der perfekt f\u00fcr eine k\u00fchlende Zwischenverpflegung sorgt.\n", "image": "https://sgbtpimtsoch.sos-ch-dk-2.exoscale-cdn.com/catalog/4/2/4/b/424b3e84f2ea229398bad507d9701bed2b27a61c_ES_Lido_Beach_Goldach_quer_1.jpeg", "openstreetmap_id": "way/120916246"}, "geometry": {"type": "Point", "coordinates": ["9.4767792", "47.4874462"]}}, {"type": "Feature", "properties": {"identifier": "526da8ff-fa3a-4ab7-afc0-1a1b1d78679c", "name": "Spielplatz Schulhaus Goldingen", "description": "<p>Nahe dem Dorfkern von Goldingen befindet sich das Schulhaus Goldingen sowie dessen Spielplatz. Die breite Auswahlm\u00f6glichkeit an Spielger\u00e4ten wie Sandkasten, Tunell, Kletterturm samt Schaukel und Rutschbahn sowie weiteres findet bei den G\u00e4sten grosse Beliebtheit. Auf der anderen Seite des Schulhauses befindet sich dessen Pausenhof mit dem roten Platz und dem Fussballfeld. Ben\u00fctzung lediglich ausserhalb der Schulzeiten.</p><p></p><p><strong>Ausstattung:</strong></p><ul><li>0\u20135 Jahre</li><li>5\u201312 Jahre</li><li>Barrierefrei</li><li>Feuerstelle</li><li>Picknick-Platz</li><li>Rauchfrei</li><li>Sandspielbereich</li></ul>", "image": "https://sgbtpimtsoch.sos-ch-dk-2.exoscale-cdn.com/catalog/1/b/7/b/1b7b3d776a79c554547eca2441abe0301cc16311_Spielplatz_Schulhaus_Goldingen_2022.JPG", "openstreetmap_id": "way/1102384264"}, "geometry": {"type": "Point", "coordinates": ["8.968212604522707", "47.26215772076795"]}}, {"type": "Feature", "properties": {"identifier": "5299bc40-e93e-46b2-af5a-50bbf320b553", "name": "open art museum", "description": "<p>Das <a href=\"https://openartmuseum.ch/\" target=\"_blank\" rel=\"noopener\">open art museum</a> zeigt Ausstellungen im Crossover zwischen Art Brut, naiver Kunst und zeitgen&ouml;ssischen Positionen. Es bringt Menschen &uuml;ber Kunst zusammen und versteht sich als offener Ort f&uuml;r Kunst ohne Grenzen, mit Fokus auf Outsider Art.</p><p>Das open art museum verf&uuml;gt &uuml;ber eine Sammlung von &uuml;ber 30&rsquo;000 Werken von mehr als 180 K&uuml;nstler*innen und steht f&uuml;r die existenzielle Bedeutung k&uuml;nstlerischen Schaffens &ndash; sowohl f&uuml;r den einzelnen Menschen als auch f&uuml;r die Gesellschaft als Ganzes.&nbsp;</p><p>Die wechselnden Ausstellungen zeigen Werke, die durch ihre Vielseitigkeit, ihre ungew&ouml;hnlichen Inhalte und ihren Erfindungsreichtum faszinieren. Zugleich erz&auml;hlen sie von gelebtem Leben, eine Kunst voller Geschichten. Die Ausstellungen zeigen, dass Kunst &uuml;berall entsteht &ndash; oft aus dem Alltag heraus, mit einfachen Mitteln und Materialien. Sie er&ouml;ffnet &uuml;berraschende Perspektiven und l&auml;dt ein, das Eigene und das Fremde neu zu entdecken.</p><p>Ein besonderer Schwerpunkt liegt auf der Vermittlung an Kinder und Jugendliche.</p>", "url": "http://www.openartmuseum.ch", "image": "https://sgbtpimtsoch.sos-ch-dk-2.exoscale-cdn.com/catalog/3/7/0/1/3701aeec89c174064102dbd376033a2c0ff63bab_Lagerhaus_Museum_St_Gallen_May_2011_ShiftN.jpg", "openstreetmap_id": "node/1245467692"}, "geometry": {"type": "Point", "coordinates": ["9.3669498", "47.4196383"]}}, {"type": "Feature", "properties": {"identifier": "57b09d53-c26b-4102-96bc-23dc991f67fc", "name": "Freudenberg", "description": "\u00dcber den Drei Weieren liegt der \"Hausberg\" von St.Gallen. Er ist durch verschiedene Fusswege erreichbar und bietet eine sch\u00f6ne Aussicht auf den Alpstein \u00fcber das F\u00fcrstenland bis \u00fcber den Bodensee hinaus nach Deutschland. Verschiedene Feuerstellen laden zum Verweilen und Geniessen ein. ", "image": "https://sgbtpimtsoch.sos-ch-dk-2.exoscale-cdn.com/catalog/5/c/1/a/5c1a45739a235b4ed830d8b518e9299b641e0312_Computerformat_4_3_Drei_Weieren_Aussicht_3.jpg", "openstreetmap_id": "node/4734212725"}, "geometry": {"type": "Point", "coordinates": ["9.39328", "47.42094"]}}, {"type": "Feature", "properties": {"identifier": "5a97a6d2-bc7a-4e2d-bb46-eecac33eb867", "name": "Aussichtspunkt Walzenhausen", "description": "Inmitten von Walzenhausen und auf der rasanten Abfahrt in Richtung Rheineck tut sich ein wundersch\u00f6ner Aussichtspunkt auf. Hier l\u00e4sst es sich vom St.Galler Rheintal \u00fcber den Bodensee bis hin ins angrenzende Nachbarland \u00d6sterreich blicken. Auf dem B\u00e4nkli k\u00f6nnen einige Minuten verweilt werden.\n\nDer Aussichtspunkt Walzenhausen ist Teil der Velo-Rallye Bodensee. Mehr zur Velo-Sammelchallenge unter www.st.gallen-bodensee.ch/velo-rallye.", "image": "https://sgbtpimtsoch.sos-ch-dk-2.exoscale-cdn.com/catalog/6/3/9/a/639af62c2cb5344aad2f9823ea3f8fb4df6e9686_20210610__DSC2794.jpg", "openstreetmap_id": "way/199117441"}, "geometry": {"type": "Point", "coordinates": ["9.60657835006714", "47.44858057411852"]}}, {"type": "Feature", "properties": {"identifier": "5b63d121-437e-47ae-9057-dbfa23a644d1", "name": "Rhein-Schauen Museum und Rheinb\u00e4hnle", "description": "<p>Rhein-Schauen ist ein Museum der besonderen Art. Den Reiz macht die Kombination von Werkhof, Ausstellung und Dienstbahn aus. Informativ, unterhaltsam und abwechslungsreich. Im Werkhof Lustenau erwartet den Besucher ein interessantes Panoptikum. Technik zum Anfassen, Landschaft zum Erfahren, mehr als 120 Jahre gelebte Geschichte, aber auch Gegenwart und Zukunft spannend und verst&auml;ndlich dargestellt. Die Strecke der Bahn f&uuml;hrt vom Ausgangspunkt, dem Werkhof Lustenau, den Rhein hoch nach Wiesenrain, Sonderfahrten sind individuell auf Ihre Bed&uuml;rfnisse buchbar. Die Fahrt vom Werkhof flussabw&auml;rts f&uuml;hrt direkt ins Naturschutzgebiet zu den Schleienl&ouml;chern. Mit einer der historischen Elektrolokomotiven aus den 1940er- Jahren oder einer Dampflokomotive von 1910 bzw. 1920 erleben grosse und kleine G&auml;ste die wunderbar vielf&auml;ltige Landschaft um den Bodensee und Rhein.</p>", "url": "http://www.rheinschauen.at", "image": "https://sgbtpimtsoch.sos-ch-dk-2.exoscale-cdn.com/catalog/9/f/e/e/9feeca8f1a2d4e185f275bcc56b0ded5193dcbf5_Titelbild_Folder_2.jpg", "openstreetmap_id": "way/91088463"}, "geometry": {"type": "Point", "coordinates": ["9.66099500656128", "47.4473835748098"]}}, {"type": "Feature", "properties": {"identifier": "5cd6dec5-2b83-4ba1-8d5c-5850129ccd52", "name": "Naturschutzgebiet Bannriet-Spitzm\u00e4der", "description": "Die Schollenm\u00fchle ist eine ehemalige Torffabrik. In ihrer Umgebung wurde der Torf abgebaut und in der Schollenm\u00fchle zu Torfmull und Spezialerden weiterverarbeitet. Die Schollenm\u00fchle liegt mitten im Naturschutzgebiet Bannriet-Spitzm\u00e4der. Der Torfabbau hat hier ein abwechslungsreiches Landschaftsrelief hinterlassen. Auch ausserhalb des Schollenm\u00fchle-Areals sind spannende Naturbeobachtungen m\u00f6glich. Das Schutzgebiet ist Pflanzen und Tieren vorbehalten. Ausgetieft, \u00fcberschwemmt, verlandet, abgetorft und melioriert \u2013 verschiedenste Kr\u00e4fte und Akteure haben das heutige Riet geformt. Die Vielfalt an Tieren und Pflanzen im 53 Hektaren grossen Naturschutzgebiet ist \u00fcberw\u00e4ltigend. Blumenwiesen und Buntbrachen bringen Farbe in die Rietlandschaft und sind ein Schlaraffenland f\u00fcr bl\u00fctenbesuchende Insekten. Geb\u00fcschgruppen strukturieren die Landschaft und bieten R\u00fcckzugsraum f\u00fcr Tiere.\n\nAus Anlass des 200-Jahr-Jubil\u00e4ums des Kantons St.Gallen im Jahre 2003 wurde am Rand des Naturschutzgebietes Spitzm\u00e4der auf der Gemeindegrenze zwischen Altst\u00e4tten und Oberriet ein Beobachtungsturm erstellt. Die weitr\u00e4umige Aussicht in die Rheintalebene und das begleitende Bergpanorama sowie vielf\u00e4ltige Beobachtungsm\u00f6glichkeiten der Tierwelt lohnen bei jedem Wetter einen Besuch des architektonisch gelungenen Beobachtungsturms.", "image": "https://sgbtpimtsoch.sos-ch-dk-2.exoscale-cdn.com/catalog/f/8/c/2/f8c2050747d4b86653e48c0017e8383fe57e0d51_997A1472.jpg", "openstreetmap_id": "way/445016261"}, "geometry": {"type": "Point", "coordinates": ["9.566738", "47.357694"]}}, {"type": "Feature", "properties": {"identifier": "660d4da1-21cd-4033-b4de-50ceeb876b3c", "name": "Spielplatz Bildst\u00f6ckli Eschenbach", "description": "<p>Neben dem Weinanbau existiert im Gebiet Bildst\u00f6ckli auch noch ein Kiesplatz mit einem Spielplatz. Man findet einen Sandkasten, einen Kletterturm mit Rutsche, ein Kletterger\u00fcst sowie einige Schaukeln vor. Wenn man die Treppe hinaufsteigt, kommt man zu Tischen mit B\u00e4nken. In der N\u00e4he des Spielplatzes gibt es auch ein \u00f6ffentliches WC.</p><p></p><p><strong>Ausstattung:</strong></p><ul><li>0\u20135 Jahre</li><li>5\u201312 Jahre</li><li>Picknick-Platz</li><li>\u00d6ffentliches WC</li><li>Rauchfrei</li><li>Sandspielbereich</li></ul>", "image": "https://sgbtpimtsoch.sos-ch-dk-2.exoscale-cdn.com/catalog/9/3/4/9/9349e15a49ef4cfe2b44726eff92cda523b68a34_Spielplatz_Bildst__ckli_Eschenbach_2014_2.JPG", "openstreetmap_id": "way/51734094"}, "geometry": {"type": "Point", "coordinates": ["8.92442286014557", "47.24230936812799"]}}, {"type": "Feature", "properties": {"identifier": "69529483-0128-4c67-acde-aeadb7948418", "name": "Eichhof Balgach", "description": "Der Hofladen und das Hofcaf\u00e9 wurden 2011 gebaut. Der Schwerpunkt des Sortiments liegt auf hofeigenem Fleisch sowie dem eigenen Wein. \n\nDas breite Angebot besteht gr\u00f6sstenteils aus eigenen Produkten, dazu geh\u00f6ren Geb\u00e4ck, Konfit\u00fcren, Eingemachtes und vieles mehr. Daneben werden einige Produkte wie frisches Gem\u00fcse und Fr\u00fcchte, Milchprodukte oder Mehl von Bauern und Lieferanten aus der Region zugekauft. \n\nIm Caf\u00e9 werden jede Woche unterschiedliche Kuchen, Torten und weitere s\u00fcsse K\u00f6stlichkeiten angeboten. Das Caf\u00e9, die Sonnenterasse und viele weitere sch\u00f6ne Orte laden zu gem\u00fctliche und erholsame Stunden auf dem Hof ein.\n\nDer Eichhof bietet f\u00fcr Gross und Klein ein Erlebnis. Diverse Tiere wie K\u00fche, Ziegen, Kaninchen, H\u00fchner, Enten, Pfauen lassen sich bestaunen. Nebst der Tierattraktion erwartet die Kinder auch unz\u00e4hlige Spieltraktoren sowie einen grossen Sandkasten.", "url": "http://eichhof-balgach.ch/", "image": "https://sgbtpimtsoch.sos-ch-dk-2.exoscale-cdn.com/catalog/e/e/5/a/ee5ae1ba69a8806e59d30fd1e0c800433e7baede_997A2777.jpg", "openstreetmap_id": "node/3787700303"}, "geometry": {"type": "Point", "coordinates": ["9.6045795", "47.3953162"]}}, {"type": "Feature", "properties": {"identifier": "72832dd3-6a59-41be-95b5-9aaa1701d148", "name": "Slipanlage H\u00f6rnlibuck", "description": "Vor oder nach dem Paddeln l\u00e4dt die kostenlose Badeanlage zum Verweilen ein. Die weitl\u00e4ufige Badi verf\u00fcgt \u00fcber Garderoben, Duschen und Toiletten, die gratis zur Verf\u00fcgung stehen. In unmittelbarer N\u00e4he der Einstiegsstelle befindet sich ein Kiosk und lauschige Verweilpl\u00e4tze.\n\nParkpl\u00e4tze befinden sich ebenfalls in unmittelbarer N\u00e4he, wobei diese w\u00e4hrend der Badesaison stark genutzt sind. Es wird empfohlen, mit dem \u00f6ffentlichen Verkehr anzureisen. Der Bahnhof Staad und Hauptbahnhof Rorschach befinden sich wenige Gehminuten von der Einstiegsstelle entfernt.\n\nIm Hafen H\u00f6rnlibuck gibt es zudem die M\u00f6glichkeit, Lagerungsgestelle f\u00fcr Kanus und Stand Up Paddles zu mieten. ", "image": "https://sgbtpimtsoch.sos-ch-dk-2.exoscale-cdn.com/catalog/9/6/6/b/966b904096bfbcf5609d58bcf9d6f8ac2e1f723c_25_Schlipf_H__rnlibuck.png", "openstreetmap_id": "way/127418873"}, "geometry": {"type": "Point", "coordinates": ["9.528142511844637", "47.48073219364529"]}}, {"type": "Feature", "properties": {"identifier": "731f9c00-4f68-4cb1-a228-f2dd4f2457a5", "name": "Couture-Lehratelier", "description": "Kleidung aus edlen Stoffen pr\u00e4zise auf den Leib geschneidert. Minuti\u00f6s verarbeitete Einzelst\u00fccke, die so individuell sind wie ihre Tr\u00e4gerin. Schweizer Handwerk auf h\u00f6chstem Niveau, dessen Qualit\u00e4t so manche Luxusmarke in den Schatten stellt. Ein unerreichbarer Traum? Nein, dies ist die tag-t\u00e4glich gelebte Realit\u00e4t im Couture-Lehratelier des GBS St. Gallen!\n\nAm Ende des Fertigungsprozesses steht bei uns nicht irgendein St\u00fcck zusammengen\u00e4hter Stoff, sondern \u2013 textile Kultur, die wir be-leben und weiter vermitteln!", "url": "https://www.gbssg.ch/gestaltung/berufliche-grundbildung/bekleidungsgestalterin-efz-im-couture-lehratelier.html", "image": "https://sgbtpimtsoch.sos-ch-dk-2.exoscale-cdn.com/catalog/c/9/4/0/c9400dd6c0a92c3778a207fdc5ea2ef14eab17c9_FB_Post_N__hworkshop2.jpg", "openstreetmap_id": "way/404547815"}, "geometry": {"type": "Point", "coordinates": ["9.3776229", "47.4243962"]}}, {"type": "Feature", "properties": {"identifier": "7380a8fe-cb90-4cf5-b04f-4e7f8f7afe40", "name": "Storchenhof Balgach", "description": "Ein Erlebnis- und Erholungsraum f\u00fcr Natur- und Tierfreunde aus Nah und Fern. Neben K\u00fchen, G\u00e4nsen, Hunden, Katzen, Bienen, Zwergziegen und St\u00f6rchen, werden auch Pferde und Ponys gehalten.", "url": "http://www.pony-riding.ch", "image": "https://sgbtpimtsoch.sos-ch-dk-2.exoscale-cdn.com/catalog/f/5/4/8/f548cbd6ac0f4ef4a276932168b78cd28cfca156_storchenhof_1.jpg", "openstreetmap_id": "way/303881098"}, "geometry": {"type": "Point", "coordinates": ["9.614388942718508", "47.37663971975095"]}}, {"type": "Feature", "properties": {"identifier": "79db15cb-da93-4f43-99be-f01dcf967426", "name": "A.Vogel Heilpflanzen-Schaugarten und Museum", "description": "<p class=\"MsoNormal\">Alfred Vogel (1902 &ndash; 1996) zog in den 1930er-Jahren nach Teufen im Appenzellerland. Hier lebte der Naturheilkunde-Pionier, schrieb seine erfolgreichen Gesundheitsb&uuml;cher und begann, Arzneimittel aus frischen Pflanzen herzustellen.&nbsp;Heute befinden sich hier auf dem H&auml;tschen der A.Vogel Heilpflanzen-Schaugarten, das A.Vogel Museum, die A. Vogel Drogerie und der Verlag A.Vogel.</p><p class=\"MsoNormal\">&Uuml;ber 120 verschiedene Heilheilpflanzen und Kr&auml;uter wachsen im Heilpflanzen-Schaugarten auf fast 1'000 Metern &uuml;.M. umgeben vom herrlichen Panorama des Alpsteins und eingebettet in die sanften gr&uuml;nen H&uuml;gel des Appenzellerlands.</p><p class=\"MsoNormal\">Ein Besuch bei A.Vogel in Teufen eignet sich ideal als Tagesausflug, Club-Event, Firmen- oder Vereinsanlass und vieles mehr. Lass Dich vom Heilpflanzengarten inspirieren!&nbsp;</p><p class=\"MsoNormal\">Spontanbesucherinnen und -besucher k&ouml;nnen den Heilpflanzen-Schaugarten in Teufen t&auml;glich kostenlos besuchen. Das Museum und die Drogerie sind von Montag bis Freitag ge&ouml;ffnet. Gruppen wird die Reservierung einer F&uuml;hrungen inkl. Museumsrundgang empfohlen.&nbsp;</p><p class=\"MsoNormal\">Der A.Vogel Heilpflanzen-Schaugarten tr&auml;gt seit Juli 2021 die &laquo;Natur-im-Garten&raquo;-Plakette.&nbsp;</p>", "url": "https://www.avogel.ch/de/garten/teufen/", "image": "https://sgbtpimtsoch.sos-ch-dk-2.exoscale-cdn.com/catalog/c/f/7/b/cf7b2daa5abffcaa25c7be3a31704d3d35e02f83_Garten_Teufen.jpg", "openstreetmap_id": "way/317444208"}, "geometry": {"type": "Point", "coordinates": ["9.3894761", "47.3955797"]}}, {"type": "Feature", "properties": {"identifier": "7e2f778d-e4eb-4e9e-a340-718136da25e3", "name": "kinder.musical.theater Storchen", "description": "Die kinder.musical.theater Storchen GmbH mietet und betreibt das ehemalige Kino Storchen als Kinder- &amp; Musical-Theater. Prim\u00e4r erfolgt die Auslastung des Kindertheaters durch Eigenproduktionen, sekund\u00e4r durch Fremdproduktionen oder spezielle Events.\n\nDie Verantwortlichen der KinderTheater Storchen GmbH verf\u00fcgen \u00fcber 25 Jahre Erfahrung in der professionellen Produktion von Kindertheater und Musicals. Dazu geh\u00f6ren Produktionen wie Pippi Langstrumpf, Pippi im Takatukaland, Pippi ausser Rand und Band, Dschungelbuch, Lion King, Jim Knopf, La cage aux folles, Peter Pan, Frau Holle, Prinzessin auf der Erbse, Cinderella und viele mehr.", "url": "http://www.storchen.theater", "image": "https://sgbtpimtsoch.sos-ch-dk-2.exoscale-cdn.com/catalog/7/3/1/5/7315ef2b548dad32850a9d493d67ee310b253c82_IMG_8477.jpg", "openstreetmap_id": "way/311107326"}, "geometry": {"type": "Point", "coordinates": ["9.3760763", "47.4271362"]}}, {"type": "Feature", "properties": {"identifier": "81b63521-c153-4a48-9a01-df2203cbe53a", "name": "Aussichtspunkt R\u00fcti", "description": "Oberhalb von Roggwil bei Watt befindet sich der Aussichtspunkt R\u00fcti. Von hier aus haben Velofahrer und Spazierg\u00e4nger einen fantastischen Ausblick auf die umliegende Region und den Bodensee. Und ein B\u00e4nkli l\u00e4dt f\u00fcr eine gem\u00fctliche Verschnaufpause ein.\n\nDer Aussichtspunkt R\u00fcti ist Teil der Velo-Rallye Bodensee. Mehr zur Velo-Sammelchallenge unter www.st.gallen-bodensee.ch/velo-rallye.", "image": "https://sgbtpimtsoch.sos-ch-dk-2.exoscale-cdn.com/catalog/b/9/c/a/b9caadd9b55a32831517d779742d90d8fb5ba974_20210611__DSC3429.jpg", "openstreetmap_id": "way/107235596"}, "geometry": {"type": "Point", "coordinates": ["9.376659393310549", "47.49453108244489"]}}, {"type": "Feature", "properties": {"identifier": "8404883d-a9e7-4902-9c27-fce6f8932c30", "name": "Kathedrale St.Gallen", "description": "<p>Die Kathedrale St.Gallen ist gleichzeitig Pfarrkirche der Dompfarrei und Bistumskirche des 1847 gegr&uuml;ndeten Bistums St.Gallen. Sie steht dort, wo 612 der irische Wanderm&ouml;nch Gallus eine Einsiedelei errichtete. Die Kathedrale und die barocke Klosteranlage wurden in der Mitte des 18. Jahrhunderts erbaut. 1805 hob der neu gegr&uuml;ndete Kanton St.Gallen das Kloster auf und &uuml;bertrug die Verwaltung der kirchlichen G&uuml;ter dem Katholischen Konfessionsteil. Die Kathedrale bildet mit dem Stiftsbezirk, insbesondere mit der Stiftsbibliothek und dem Stiftsarchiv, den Kern des Unesco-Weltkulturerbes.</p>", "url": "https://www.stiftsbezirk.ch/de/kathedrale-informationen", "image": "https://sgbtpimtsoch.sos-ch-dk-2.exoscale-cdn.com/catalog/b/f/3/8/bf382d778f8e020f7c9e5b03a44a6832eac4ed48_Photokleinformat_3_2_Stadtf__hrung_St.Gallen.jpg", "openstreetmap_id": "way/131605938"}, "geometry": {"type": "Point", "coordinates": ["9.3766812", "47.4232113"]}}, {"type": "Feature", "properties": {"identifier": "85f83e1e-19a7-44b4-a95c-8f45e2d4f2a2", "name": "M\u00e4rliwelt am Kronberg", "description": "9 Erlebnisstationen mit R\u00e4tsel und viel Wissenswertem \u00fcber Pflanzen und Tiere wollen entdeckt werden. Eine Kletterkrone, eine Wasserwelt mit Floss, Wasserspielen und Feenteich laden ein zu neuen Abenteuern. Im Kugelpark wird eine Krafttier-Kugel auf die Reise durch die vier Elemente geschickt. Auf einem Riesen-Trampolin sind ungeahnte H\u00f6henfl\u00fcge zu erleben. \n \nBen\u00f6tigte Zeit: 2-4 Stunden \ngeeignet ab 2-12 Jahren \nEmpfehlung: Badetuch einpacken", "url": "http://www.kronberg.ch/m\u00e4rliwelt", "image": "https://sgbtpimtsoch.sos-ch-dk-2.exoscale-cdn.com/catalog/8/1/5/5/81550103921d007cc0d9e654a1a0ef7f6a0f28bf__S2A4235.jpg", "openstreetmap_id": "way/1161445173"}, "geometry": {"type": "Point", "coordinates": ["9.32816505432129", "47.319021794663854"]}}, {"type": "Feature", "properties": {"identifier": "89456f3e-bc2b-4821-997e-d83ed117d01a", "name": "Brandenfelsh\u00f6hle mit Feuerstelle", "description": "<p>Die Brandenfelsh\u00f6hle ist auf verschiedenen Wegen zu erreichen. Ob vom Oberholz oder vom T\u00f6sstal her, die Wege durch Wald und Natur sind wundersch\u00f6n.</p><p></p><p>Erreicht man die Nagelfluh-H\u00f6hle gibt es einen grossen Tisch mit B\u00e4nken und eine sch\u00f6ne Feuerstelle mit einem Holzvorrat. Hier l\u00e4sst es sich gut erholen f\u00fcr den bevorstehenden R\u00fcckweg oder f\u00fcr die weitere Wanderung.</p><p></p><p>Unterhalb der Aufenthaltsh\u00f6le gibt es noch eine kleinere H\u00f6hle, welche gerne von den Kindern entdeckt wird. </p><p></p><p>Reservationen der Feuerstelle k\u00f6nnen nicht gemacht werden. </p>", "image": "https://sgbtpimtsoch.sos-ch-dk-2.exoscale-cdn.com/catalog/a/a/6/e/aa6efcebeffa929942e0ff29c099036780ba5fc0_03_Brandenfels.JPG", "openstreetmap_id": "node/581815125"}, "geometry": {"type": "Point", "coordinates": ["8.9508456", "47.3070837"]}}, {"type": "Feature", "properties": {"identifier": "89957d43-4ab2-486c-9fa1-a3c8fae30676", "name": "Aussichtspunkt Rehetobel", "description": "Velofahrer aufgepasst: auf dem Veloweg in Rehetobel erwartet einen eine rasante Abfahrt mit traumhaften Ausblicken. Die Lobenschwendistrasse hinab tut sich die Aussicht auf St.Galler und Appenzeller Berg- und Waldgebiete auf. Ein B\u00e4nkli l\u00e4dt ein, die Momente w\u00e4hrend einer Verschnaufpause zu geniesse.\n\nDer Aussichtspunkt Rehetobel ist Teil der Velo-Rallye Bodensee. Mehr zur Velo-Sammelchallenge unter www.st.gallen-bodensee.ch/velo-rallye.", "image": "https://sgbtpimtsoch.sos-ch-dk-2.exoscale-cdn.com/catalog/b/a/2/c/ba2cb9da64f285613d5125576c44d592b4b4b176_20210610__DSC2662.jpg", "openstreetmap_id": "way/99424249"}, "geometry": {"type": "Point", "coordinates": ["9.464936256408693", "47.42317882549432"]}}, {"type": "Feature", "properties": {"identifier": "8e6741fa-952d-42e8-96bf-139281ef6fc1", "name": "Ortsmuseum Flawil", "description": "<p>Die Villa &laquo;Lindengut&raquo; des einstigen Textilindustriellen Huldreich Ottiker ist seit 1989 Wohn- und ortsgeschichtliches Museum zugleich. Mit dem umgebenden Park mit Wasserbecken und Tuffsteingrotte ist sie Zeugin der textilen Vergangenheit von Flawil. W&auml;hrend mehr als 200 Jahren transportierten Flawiler Fuhrleute Waren f&uuml;r Ostschweizer Textilherren innerhalb der Schweiz, nach Frankfurt am Main, nach Lyon, ja bis nach Marseille und dar&uuml;ber hinaus. Mit dem Bau der Eisenbahn verloren sie ihre Erwerbsgrundlage. Es entstanden Textilbetriebe wie Webereien, Bleicherei, F&auml;rberei, Stickereifabriken, und Stickerh&auml;user pr&auml;gten w&auml;hrend Jahrzehnten Dorfbild und Erwerbsleben in der Untertoggenburger Gemeinde Flawil. Das Museum verf&uuml;gt &uuml;ber einen beachtlichen Bestand an historischem Filmmaterial, z.B. den &auml;ltesten Film des Kantons St.Gallen aus der Zeit um 1905.</p>", "url": "http://www.ortsmuseumflawil.ch/", "image": "https://sgbtpimtsoch.sos-ch-dk-2.exoscale-cdn.com/catalog/2/1/0/c/210cb48de29a100b46fd58881e129aeb828f546f_Lindengut_1_webgr__1_.jpg", "openstreetmap_id": "way/196720659"}, "geometry": {"type": "Point", "coordinates": ["9.1927776", "47.412636"]}}, {"type": "Feature", "properties": {"identifier": "8e8c4eb6-2efe-40fe-8e08-fb76c80afb14", "name": "Stiftsbezirk St.Gallen", "description": "<p>Der Grundstein der Abtei legte 612 der irische Wanderm&ouml;nch Gallus. 719 wurde die F&uuml;rstabtei St.Gallen gegr&uuml;ndet und 1805 aufgehoben. In dieser &uuml;ber 1000-j&auml;hrigen Geschichte z&auml;hlte das Kloster mit dem Stiftsbezirk zum geistigen Zentrum Europas und wurde 1983 in die Liste des UNESCO-Weltkulturerbes aufgenommen. Noch heute ist der Stiftsbezirk ein geschichtstr&auml;chtiger Ort, der nebst einer der sch&ouml;nsten barocken Bibliotheken der Welt auch den &auml;ltesten Klosterplan seiner Art der &Ouml;ffentlichkeit zug&auml;nglich macht. Attraktive Ausstellungen in der Stiftsbibliothek, im Gew&ouml;lbekeller und im Ausstellungssaal pr&auml;sentieren den einzigartigen Schatz an Handschriften, Urkunden und Drucken. &Ouml;ffentliche und private F&uuml;hrungen durch Fachpersonen vermitteln die Geschichte auf einer pers&ouml;nlichen Ebene. Und f&uuml;r Familien erm&ouml;glicht der R&auml;tselspass einen spielerischen Zugang in die Welt des Klosters.</p>", "url": "https://www.stiftsbezirk.ch/de/veranstaltungen", "image": "https://sgbtpimtsoch.sos-ch-dk-2.exoscale-cdn.com/catalog/4/1/6/e/416eb3784813ceaf7f4f87989bd4e455ff7d0a4a_Photokleinformat_3_2_Luftaufnahme_Stiftsbezirk_.jpg", "openstreetmap_id": "way/8081312"}, "geometry": {"type": "Point", "coordinates": ["9.37864", "47.42329"]}}, {"type": "Feature", "properties": {"identifier": "901a4bb7-45a5-474e-a0b7-df91ee91610e", "name": "Maz Diepoldsau", "description": "Hier kommt Ferienstimmung auf: Zwei Feuerstellen laden zum Grillieren ein und Steinbl\u00f6cke dienen hier als Tisch und Bank. An einem sch\u00f6nen Sommertag ist der Sprung ins k\u00fchle Nass ein Muss. Es gibt unz\u00e4hlige weitere gem\u00fctliche Sitzm\u00f6glichkeiten am Wasser.  ", "url": "https://www.agglomeration-rheintal.org/", "image": "https://sgbtpimtsoch.sos-ch-dk-2.exoscale-cdn.com/catalog/e/0/e/2/e0e2a0b935804635a064ca9b99897561b60ec3b1_997A7245.jpg", "openstreetmap_id": "relation/1683873"}, "geometry": {"type": "Point", "coordinates": ["9.673333168029787", "47.388851558583"]}}, {"type": "Feature", "properties": {"identifier": "90fb2247-91e2-4b53-a997-086b7051e5e9", "name": "Rock- und Pop-Museum", "description": "<p><span style=\"font-size: 12.0pt; line-height: 107%; font-family: 'Calibri',sans-serif; mso-ascii-theme-font: minor-latin; mso-fareast-font-family: 'Times New Roman'; mso-hansi-theme-font: minor-latin; mso-bidi-theme-font: minor-latin; mso-ansi-language: DE-CH; mso-fareast-language: DE-CH; mso-bidi-language: AR-SA;\">Erlebe die Entwicklung der popul&auml;ren Musik von den Anf&auml;ngen des 20. Jahrhunderts bis in die 2000-er-Jahre. Begegne W.C. Handy, dem &laquo;Father of the Blues&raquo;, den vier grossen britischen Band und vielen anderen Stars. Sieh viele Auszeichnungen (Gold- und Platinscheiben), Memorabilien, Fotos und Autogrammen sowie Film- und Audiodateien. Die Guides erz&auml;hlen bei einer gef&uuml;hrten Zeitreise Storys zu Musikgeschichte, K&uuml;nstlern und Bands oder einzelnen Songs. Erlebe Musikgeschichte in Wort, Bild und Ton.<br><br><br></span></p>", "url": "http://www.rockpopmuseum.ch/", "image": "https://sgbtpimtsoch.sos-ch-dk-2.exoscale-cdn.com/catalog/3/9/6/e/396ec115c25c26dbf5acde0ea578dd55daaf374a_62.JPG", "openstreetmap_id": "way/195819244"}, "geometry": {"type": "Point", "coordinates": ["9.2356921", "47.473747"]}}, {"type": "Feature", "properties": {"identifier": "91cfbc87-7fcb-4d0e-acb0-f8c965e3b0cc", "name": "Markthalle Altenrhein - Hundertwasser Architektur", "description": "<p>Vergoldete Zwiebelt&uuml;rme, leuchtende Farben, geschwungene Linien, ungleiche Fenster, unebene B&ouml;den, bunte Keramiks&auml;ulen, schattige Wandelg&auml;nge. Ein M&auml;rchenschloss mitten im Industriegebiet. Ausflugsziel, Museum, Galerie, Shop und Eventlokal unter einem Dach, auf dem vier leuchtende Goldkuppeln thronen. Die Markthalle Altenrhein ist ein Architekturprojekt nach Idee und Konzept des &ouml;sterreichischen K&uuml;nstlers Friedensreich Hundertwasser. Das Einzige, das in der ganzen Schweiz gebaut wurde. Sie liegt in unmittelbarer N&auml;he zum Bodensee, der Stadt St. Gallen, dem Appenzellerland und direkt am internationalen Bodensee-Radweg.</p>\n<p><span style=\"font-size: 12.0pt; font-family: 'Aptos',sans-serif; mso-fareast-font-family: Aptos; mso-fareast-theme-font: minor-latin; mso-bidi-font-family: Aptos; mso-ansi-language: DE-CH; mso-fareast-language: DE-CH; mso-bidi-language: AR-SA;\">Die ganze Halle und das Bistro sind rollstuhlg&auml;ngig.</span></p>", "url": "http://www.markthalle-altenrhein.ch", "image": "https://sgbtpimtsoch.sos-ch-dk-2.exoscale-cdn.com/catalog/5/1/1/0/51100ff9b826b17eea804dba6980c18415941925_Markthalle_GW_CMYK.jpg", "openstreetmap_id": "way/103450475"}, "geometry": {"type": "Point", "coordinates": ["9.54854", "47.48515"]}}, {"type": "Feature", "properties": {"identifier": "97aca84c-fb9f-4ff8-bde4-8374f5578c7e", "name": "W\u00e4bch\u00e4ller von Helen Niederer", "description": "Im W\u00e4bch\u00e4ller des bald 300 Jahre alten Hauses Oberdorf 9, mitten in B\u00fchler, stehen seit 25 Jahren zwei Handwebst\u00fchle. Im 18. und im 19. Jahrhundert wurde in diesem Haus gewoben, wie in 236 anderen H\u00e4usern in B\u00fchler. Heute fliegt das Weberschiffli wieder fleissig hin und her und es \u00abchlepft\u00bb wie fr\u00fcher. Es entstehen Textilien wie Handt\u00fccher, Tischw\u00e4sche und Einkaufstasche mit verschiedenen Mustern und Farben aus nat\u00fcrlichem Material. \n\nIm gem\u00fctlichen Haus mit viel Charme stehen zudem zwei Doppelzimmer, lauschige Pl\u00e4tzchen im Garten und ein Aufenthaltsraum mit TV f\u00fcr G\u00e4ste zur Verf\u00fcgung. Das BnB steht mitten im Appenzellerland und ist Ausgangspunkt f\u00fcr Touren in den Alpstein oder f\u00fcr Ausfl\u00fcge an den Bodensee und in die Textilstadt St. Gallen", "url": "https://www.waebchaeller.ch/angebot/", "image": "https://sgbtpimtsoch.sos-ch-dk-2.exoscale-cdn.com/catalog/7/8/b/0/78b055f6145e8e65272aa167d925e6abdf99b007_IMGP0771.JPG", "openstreetmap_id": "node/11158904513"}, "geometry": {"type": "Point", "coordinates": ["9.426107369486177", "47.37377327880496"]}}, {"type": "Feature", "properties": {"identifier": "9b185fce-bf5c-4a72-bdcf-f20a39e058c0", "name": "Spielwiese Hintergoldingen", "description": "<p>F\u00fcr die Kleinen aus Hintergoldingen gibt es eine Spielwiese zum Austoben. Mit den beiden grossen Toren und der Abdeckung Richtung der Strasse kann dort ideal Fussball gespielt werden.</p><p></p><p><strong>Ausstattung:</strong></p><ul><li>0\u20135 Jahre</li><li>5\u201312 Jahre</li><li>Barrierefrei</li><li>Feuerstelle</li><li>Picknick-Platz</li><li>Rauchfrei</li><li>Sandspielbereich</li></ul>", "image": "https://sgbtpimtsoch.sos-ch-dk-2.exoscale-cdn.com/catalog/2/b/6/2/2b62c8b238cedf37f033a0819a12b0de0a101c65_Sportplatz_Hintergoldingen_GoogleMaps_2014_01.jpeg", "openstreetmap_id": "way/633083020"}, "geometry": {"type": "Point", "coordinates": ["8.981966972351076", "47.28510974872067"]}}, {"type": "Feature", "properties": {"identifier": "a5071b23-3e0e-47af-9841-0c753562df02", "name": "Klostergarten St.Gallen", "description": "<p>Klosterg&auml;rten dienten einst der Selbstversorgung der M&ouml;nche mit Obst, Gem&uuml;se, Kr&auml;utern und Heilpflanzen. Das erste Wissen f&uuml;r den Gartenbau im Kloster St.Gallen lieferten Mitbr&uuml;der von der Insel Reichenau. Der dort um 825 entstandene St.Galler Klosterplan der Stiftsbibliothek enth&auml;lt erste Hinweise auf Inhalt und Positionierung von G&auml;rten. Der Klostergarten befindet sich am Ort des ehemaligen Hofgartens. Er ist nicht nur ein wichtiger Teil des kulturellen Erbes der einstigen F&uuml;rstabtei St.Gallen, sondern er unterstreicht auch die Biodiversit&auml;t mitten in der Stadt.</p>", "url": "https://www.klostergarten-sg.ch/", "image": "https://sgbtpimtsoch.sos-ch-dk-2.exoscale-cdn.com/catalog/8/6/2/0/86200051e904d2e6ff1f919361424167fb636117_Klostergarten_Bild_4.JPG", "openstreetmap_id": "way/920698079"}, "geometry": {"type": "Point", "coordinates": ["9.378792318002592", "47.4239606"]}}, {"type": "Feature", "properties": {"identifier": "a8919e91-4c76-4d77-a2f9-6a629337b9d7", "name": "HDS St.Gallen", "description": "<p>Dank langj\u00e4hriger Erfahrung kann HDS auf einen grossen Pool ausgew\u00e4hlter \u00dcbersetzerinnen und \u00dcbersetzer zur\u00fcckgreifen, um eine thematisch optimale \u00dcbersetzerauswahl f\u00fcr die Kundendokumente zu gew\u00e4hrleisten. Zudem bietet HDS einen Dolmetscherservice f\u00fcr verschiedenste Veranstaltungen an und begleitet auf Kundenwunsch auch Delegationen ausl\u00e4ndischer Gesch\u00e4ftspartner oder fremdsprachige G\u00e4ste.<br></p>", "url": "https://www.hds.ch/dienstleistungen/uebersetzerdienst/", "image": "https://sgbtpimtsoch.sos-ch-dk-2.exoscale-cdn.com/catalog/c/3/f/b/c3fb549137430adda29a7a57b6dfa25b19d8a140_hds_stgallen.png", "openstreetmap_id": "node/9847057249"}, "geometry": {"type": "Point", "coordinates": ["9.3950338", "47.4374541"]}}, {"type": "Feature", "properties": {"identifier": "a8ba947a-cf5e-4270-a9e2-0e8c3c87b1cc", "name": "Naturbeobachtungsturm Weitsicht am Alten Rhein", "description": "Einzigartige Bilder sind f\u00fcr jeden Fotografen ein Highlight \u2013 und mit dem Naturbeobachtungsturm \u201eTurm Weitsicht\u201c im Naturschutzgebiet \u201eBisew\u00e4ldli\u201c des Alten Rheins ist es heute m\u00f6glich, ungest\u00f6rt und unentdeckt einmalige Momente zu erleben. Ein seltener Wintergast, quakende Fr\u00f6sche, die Stille und die Natur, jeder Tag ist einzigartig, f\u00fcr Fussg\u00e4nger, Ornithologe oder Fotografen.\n\n", "image": "https://sgbtpimtsoch.sos-ch-dk-2.exoscale-cdn.com/catalog/1/0/7/1/107103c502abb0ebd0207296e4d06cfc4c1410c9_Altenrhein_Vogelbeobachtung.jpg", "openstreetmap_id": "node/6314582762"}, "geometry": {"type": "Point", "coordinates": ["9.57098", "47.48879"]}}, {"type": "Feature", "properties": {"identifier": "aa6ee3cd-f1b1-4c30-b763-978f20f3e55e", "name": "Feuerwehrmuseum DEPOT61", "description": "Zu sehen sind historische Pferdezug-Pumpen, Oldtimer Fahrzeuge wie der Kettenwagen \"Autopumpe Helene\", zudem seltene Ger\u00e4tschaften und viele Ausr\u00fcstungsgegenst\u00e4nde aus mehreren Generationen. All diese Exponate sind Zeugen einer vergangenen Zeit und haben Jahrzehnte f\u00fcr den Schutz der Bev\u00f6lkerung rund um die Uhr zur Verf\u00fcgung gestanden. Das Feuerwehrmuseum wird ausschliesslich von Freiwilligen des Nostalgievereins betrieben.", "url": "https://nfsg.ch/", "image": "https://sgbtpimtsoch.sos-ch-dk-2.exoscale-cdn.com/catalog/2/e/1/1/2e113634f2595dfd24b8d164560a4e318e45bd31_Blechspielzeug.jpg", "openstreetmap_id": "node/7193109515"}, "geometry": {"type": "Point", "coordinates": ["9.3586331", "47.4172672"]}}, {"type": "Feature", "properties": {"identifier": "ab18ee0c-e250-4873-a020-f96d2046fdfd", "name": "Spielplatz Schulhaus Kirchacker", "description": "<p>Die grosse Spielburg des Schulhauses Kirchacker bietet mit seiner Vielfalt an Spielger\u00e4ten jedem etwas. Ob die grosse Rutschbahn, die vier T\u00fcrme, die Schaukel oder auch die Seilbahn: Spass ist hier f\u00fcr viele Kinder garantiert. Ein Durchgang f\u00fchrt zum angrenzenden Kindergartenspielplatz, dieser sollte jedoch nur von Kleinkindern benutzt werden. Ben\u00fctzung lediglich ausserhalb der Schulzeiten.</p><p></p><p><strong>Ausstattung:</strong></p><ul><li>0\u20135 Jahre</li><li>5\u201312 Jahre</li><li>Rauchfrei</li></ul>", "image": "https://sgbtpimtsoch.sos-ch-dk-2.exoscale-cdn.com/catalog/9/2/3/8/9238c52204835d66bbb29e29c95c4d4e36083a63_Spielplatz_Schulhaus_Kirchacker_Eschenbach_2014_02.JPG", "openstreetmap_id": "way/203796394"}, "geometry": {"type": "Point", "coordinates": ["8.918001651763918", "47.23864228395238"]}}, {"type": "Feature", "properties": {"identifier": "ad406ce9-3cee-46fc-b628-8edc6770442f", "name": "Automuseum L\u00f6mmenschwil", "description": "<p>Seit &uuml;ber 40 Jahren befassen sich die Museumsbetreiber mit dem Sammeln und Restaurieren von historischen Fahrzeugen. Was mit Oldtimer-Autos begann, entwickelte sich mit der Zeit immer weiter. Mit dem Einbezug der anderen Elemente kamen Oldtimer-Flugzeuge und Rennboote dazu. Diese Fahrzeuge sind Zeugen einer fast vergessenen Geschichte von zahlreichen ber&uuml;hmten Schweizer Fahrern. Rennwagen von 1924 bis 2004 bringen den Besuchern die technische Entwicklung im Rennsport n&auml;her. Zahlreiche Exponate bieten Einblicke in die Technik von fr&uuml;her. Die Sammlung wird erg&auml;nzt durch &uuml;ber 5000 Modelle. Es werden auch spannende F&uuml;hrungen durch die Sammlung angeboten. Das Museum eignet sich auch hervorragend als Event-Location. F&uuml;r Firmenanl&auml;sse, Familienfeiern, Clubausfl&uuml;ge oder Oldtimertreffen bietet das Museum ein einmaliges Umfeld. Das Bistro bietet Platz f&uuml;r 50 Personen.</p>", "url": "https://automuseum.ch/STARTSEITE/", "image": "https://sgbtpimtsoch.sos-ch-dk-2.exoscale-cdn.com/catalog/a/0/c/f/a0cf4f900cd4143fb3b996f0aabc18a8c2a05201_Automuseum_6179.jpg", "openstreetmap_id": "node/2564787547"}, "geometry": {"type": "Point", "coordinates": ["9.35713291168213", "47.50266751158526"]}}, {"type": "Feature", "properties": {"identifier": "ad8998c7-5814-4d92-9ca7-ff2fca145ad3", "name": "Spielplatz Schulhaus Walde", "description": "<p>Der kleine aber feine Spielplatz mit Schaukel, Rutschbahn und Wippe sowie einem kleinen Fussballplatz nebenan bietet neben den Sch\u00fclern und Kinder des Dorfes auch Besuchern einen Platz zum verweilen. Damit bietet auch das \u00fcberschaubare Walde mit seinem l\u00e4ndlichen Charme einen Platz der Begegnung. Ben\u00fctzung lediglich ausserhalb der Schulzeiten.</p><p></p><p><strong>Ausstattung:</strong></p><ul><li>0\u20135 Jahre</li><li>5\u201312 Jahre</li><li>Barrierefrei</li><li>Rauchfrei</li><li>Sandspielbereich</li></ul>", "image": "https://sgbtpimtsoch.sos-ch-dk-2.exoscale-cdn.com/catalog/a/f/b/e/afbee7413bb794fb611d9caff1e2b7e6218e3402_Spielplatz_SchulhausWalde_2022_1.jpg", "openstreetmap_id": "Oberrickenstrasse 10"}, "geometry": {"type": "Point", "coordinates": ["9.009153842926027", "47.269481579302536"]}}, {"type": "Feature", "properties": {"identifier": "af387790-c33a-431c-a439-367e00105369", "name": "Kobesenm\u00fchle", "description": "<p>Die Kobesenm&uuml;hle ist ein stiller, idyllischer Ort mit Weiher, rauschendem Bach und einer vielf&auml;ltigen Natur. Von 1917 bis 1974 wirkte in der alten M&uuml;hle der eigenwillige K&uuml;nstler und Denker Wilhelm Lehmann. Seine ausdrucksstarken Bildhauerarbeiten, Holzschnitte und Zeichnungen und sein tiefgr&uuml;ndiges Denken haben eine zeitlose Bedeutung. Die Ausstellung in der Kobesenm&uuml;hle bietet einen interessanten Einblick ins Schaffen von Wilhelm Lehmann. Sie wird jedes Jahr neu zusammengestellt und zum Teil mit Werken anderer K&uuml;nstler erg&auml;nzt. Im Naturgarten des Museums wird w&auml;hrend den &Ouml;ffnungszeiten Kaffee und Kuchen serviert.</p>", "url": "https://kobesenmuehle.ch/", "image": "https://sgbtpimtsoch.sos-ch-dk-2.exoscale-cdn.com/catalog/b/5/2/7/b527a10b5bc5fefdf6d15f92b863a05514870a4c_Kobesen1.jpg", "openstreetmap_id": "way/195794050"}, "geometry": {"type": "Point", "coordinates": ["9.194747", "47.473206"]}}, {"type": "Feature", "properties": {"identifier": "b0d7fb38-b8b2-4084-b479-89f29401b936", "name": "Baumwipfelpfad Neckertal", "description": "Der einzigartige Baumwipfelpfad Neckertal verbindet Nachhaltigkeit und Naturerlebnis und ist eine Bereicherung f\u00fcr die G\u00e4ste und die Region. Die sch\u00f6ne Natur- und Kulturlandschaft wurde erhalten und macht es m\u00f6glich, den Wald mit anderen Augen zu sehen. Entdecken Sie diese kleine Perle und geniessen Sie bei uns einmalige Einblicke in die Natur und Ausblicke \u00fcber das ganze Neckertal.\n\nMit aussergew\u00f6hnlichen Perspektiven bietet der etwas andere Freizeitpark mit seinem dazugeh\u00f6rigen Walderlebnisweg einen unvergesslichen und spannenden Naturaufenthalt. An den vielen Erlebnisstationen wird zudem einiges an Wissen \u00fcber den Wald und dessen Bewohner vermittelt.\n\nGeniessen Sie die Stunden im Wald, offline und entschleunigt. Ganz gem\u00fctlich zu zweit, mit Kindern auf dem Spielplatz, beim selber \u00abbr\u00f6tl\u00e4\u00bb an der Grillstelle oder einfach ganz entspannt an der Sonne. Hier ist willkommen, wer gerne im Wald die Seele baumeln l\u00e4sst. Die kleine Oase im Wald l\u00e4dt dazu ein, etwas zu verweilen, dem Rauschen der Bl\u00e4tter und dem Zwitschern der V\u00f6gel zu lauschen und Zeit mit Familie und Freunden zu verbringen.", "url": "http://www.baumwipfelpfad.ch", "image": "https://sgbtpimtsoch.sos-ch-dk-2.exoscale-cdn.com/catalog/e/d/9/4/ed940ef743f23e3ca17fc3c045ac087f4107912d_Baumwipfelpfad_Neckertal_Vogelperspektive_Fr__hling_1_.jpg", "openstreetmap_id": "way/562472397"}, "geometry": {"type": "Point", "coordinates": ["9.195284", "47.307197"]}}, {"type": "Feature", "properties": {"identifier": "b37b8f1a-2975-4f04-a29d-fbd1be226577", "name": "Spielplatz Atzm\u00e4nnig", "description": "<p>Auf dem \u00f6ffentlich kostenlos zug\u00e4nglichen Spielplatz inmitten des Freizeitparks Atzm\u00e4nnig k\u00f6nnen sich auch die kleinsten G\u00e4ste wohl f\u00fchlen und eine Menge Spass haben. Der grosse Spielplatz mit Kletterturm, Rutschbahn und Schaukel ist kindgerecht angelegt und zentral gelegen. So haben Eltern immer alles im Blick und die perfekte Kontrolle. Das ist auch gut so, denn mit den zwei Karussellen geht es drunter und dr\u00fcber.</p><p></p><p><strong>Ausstattung:</strong></p><ul><li>0\u20135 Jahre</li><li>5\u201312 Jahre</li><li>Barrierefrei</li><li>Feuerstelle</li><li>\u00d6ffentliches WC</li><li>Picknick-Platz</li><li>Rauchfrei</li><li>Sandspielbereich</li></ul>", "url": "https://www.atzmaennig.ch/de/suchergebnis/?search=spielplatz", "image": "https://sgbtpimtsoch.sos-ch-dk-2.exoscale-cdn.com/catalog/2/8/a/a/28aa93b1b940ad4a35c6e84cdbb8740617a8b14a_Spielplatz_Atzm__nnig_FotoChristofSonderegger_2012.jpg", "openstreetmap_id": "node/726611392"}, "geometry": {"type": "Point", "coordinates": ["8.99657964706421", "47.285219135907326"]}}, {"type": "Feature", "properties": {"identifier": "b42cceca-48e9-4d01-a617-be6031905f17", "name": "Figurentheater-Museum & Figurentheater", "description": "<p class=\"MsoNormal\">Im Dorfkern von Herisau, in einem typischen alten Appenzellerhaus l&auml;sst das Figurentheatermuseum Besucherinnen und Besucher eintauchen in die fantasievolle, bunte Welt des Figurentheaters. Auf insgesamt drei Stockwerken gibt es verschiedene Marionetten, Handpuppen und andere Figuren zu entdecken und allerlei Spannendes zu erfahren. Jedes Jahr wird eine andere spannende Schweizer B&uuml;hne portr&auml;tiert. Die Jahresausstellung wird jeweils durch thematische Pr&auml;sentationen aus der hauseigenen Sammlung erg&auml;nzt &ndash; so lassen sich immer wieder neue Facetten des Figurenspiels entdecken und beleuchten. <span style=\"mso-spacerun: yes;\">&nbsp;</span>Das Museum kann auf Anfrage exklusiv reserviert werden; zudem sind F&uuml;hrungen f&uuml;r Gruppen mit oder ohne Ap&eacute;ro buchbar.</p><p class=\"MsoNormal\"><strong>Strolchi erwartet die kleinen Besucherinnen und Besucher</strong><br>Die Katze Strolchi begleitet Kinder auf einem liebevoll gestalteten Spiel- und Erlebnisweg mit interaktiven Stationen durch das Haus und l&auml;sst sie selbst zu Puppenspielerinnen und Puppenspielern werden.&nbsp;</p><p class=\"MsoNormal\">Die Ausstellungen sind auch auf Franz&ouml;sisch und Englisch zug&auml;nglich.<br><br>Eintrittspreise:<br>Erwachsene CHF 8.00, Kinder CHF 5.00, Familien CHF 20.00<br>F&uuml;r Kinder aus den Kantonen AR und SG ist der Eintritt gratis.<br><br>Die Theatersaison dauert jeweils von Oktober bis Mai, Auff&uuml;hrungen finden immer am Sonntag um 11 Uhr statt</p><p class=\"MsoNormal\">Spielplan: www.figurentheatermuseum.ch</p>", "url": "https://www.figurentheatermuseum.ch", "image": "https://sgbtpimtsoch.sos-ch-dk-2.exoscale-cdn.com/catalog/c/1/2/a/c12a524654e6b46b90e3667398db77ee1969f1df_appenzellerhaus_figurentheater__2.jpg", "openstreetmap_id": "way/318077106"}, "geometry": {"type": "Point", "coordinates": ["9.27979840461888", "47.3851375"]}}, {"type": "Feature", "properties": {"identifier": "b72adce2-8ca3-4c15-a6e4-5b92b41dea29", "name": "Aussichtspunkt Ruggisberg", "description": "Auf dem Ruggisberg breitet sich die umliegende Region mit einem Tuch voller Obstb\u00e4ume und leuchtenden Blumenfeldern aus. Besonders sch\u00f6n ist es hier im Fr\u00fchling, wenn sich die Knospen der Apfelb\u00e4ume \u00f6ffnen und ein prachtvolles Bl\u00fctenmeer um Vorschein kommt. Und der Bodensee l\u00e4sst sich nat\u00fcrlich auch noch erblicken.\n\nDer Aussichtspunkt Ruggisberg ist Teil der Velo-Rallye Bodensee. Mehr zur Velo-Sammelchallenge unter www.st.gallen-bodensee.ch/velo-rallye.", "image": "https://sgbtpimtsoch.sos-ch-dk-2.exoscale-cdn.com/catalog/4/7/8/7/4787b142d6bab18ccf6ffcb0a7426b3137f9afe1_20210611__DSC3421.jpg", "openstreetmap_id": "way/171263990"}, "geometry": {"type": "Point", "coordinates": ["9.371262788772585", "47.48867308651914"]}}, {"type": "Feature", "properties": {"identifier": "b86cafd6-9aec-43e9-8d54-e9a9625fecf8", "name": "Appenzeller Volkskunde-Museum Stein AR", "description": "<p>Eine trockene Materie? Keineswegs! Im Appenzeller Volkskundemuseum gibt es neben der Dauerausstellung auch spannende Live-Aktionen zu erleben: K\u00e4sen in der Alph\u00fctte, Weben am Plattstichwebstuhl, Sticken an der Handstickmaschine und vieles mehr.</p>", "url": "https://www.appenzeller-museum.ch/", "image": "https://sgbtpimtsoch.sos-ch-dk-2.exoscale-cdn.com/catalog/6/4/d/3/64d32830ec080dcd92b4ed3e20344ff4e50d9a96_Aussenaufnahme_AVM_ASK.jpg", "openstreetmap_id": "1124886695.0"}, "geometry": {"type": "Point", "coordinates": ["9.3444626", "47.3730472"]}}, {"type": "Feature", "properties": {"identifier": "b934ca5e-9dc1-40fc-949d-8459f2dea0ba", "name": "Spielplatz Schulhaus St. Gallenkappel", "description": "<p>Der frisch restaurierte Spielplatz beim Schulhaus St. Gallenkappel bietet neu einen Kletterturm mit Rutsche, einen Sandkasten, einen Picknick-Tisch sowie eine Schaukel. Oberhalb dessen befindet sich gleich die grosse Fussballwiese. Ben\u00fctzung lediglich ausserhalb der Schulzeiten.</p><p></p><p><strong>Ausstattung:</strong></p><ul><li>0\u20135 Jahre</li><li>5\u201312 Jahre</li><li>Picknick-Platz</li><li>Rauchfrei</li><li>Sandspielbereich</li></ul>", "image": "https://sgbtpimtsoch.sos-ch-dk-2.exoscale-cdn.com/catalog/0/8/3/d/083df20487d1b53c941ab8adfc665613eec89d18_Spielplatz_Schulhaus_StGallenkappel_2021_2.JPG", "openstreetmap_id": "way/479811621"}, "geometry": {"type": "Point", "coordinates": ["8.971071839332582", "47.24646829301755"]}}, {"type": "Feature", "properties": {"identifier": "bc4b7661-91c7-49cb-9327-804708c99076", "name": "Breitenmoser Gustarium", "description": "Ein Ort der Vielfalt mit einer in der Schweiz einzigartigen, interaktiven Ausstellung \"rund um den Genuss\", Grill- und Wurstseminaren, Genussladen und einem Gastrobereich mit Chemin\u00e9e und Bar und Blick auf den Alpstein.\n\nBreitenmoser Appenzeller Fleischspezialit\u00e4ten AG ist einer der f\u00fchrenden Fleischveredelungsbetriebe mit Fachgesch\u00e4ften in Appenzell, Gais, Teufen und Rorschacherberg. Die Traditionsmetzgerei mit einzigartigen Appenzeller Spezialit\u00e4ten geht auf das Gr\u00fcndungsjahr 1896 zur\u00fcck. Seit Mai 2023 gibt es zudem die vielf\u00e4ltige Erlebniswelt \"Breitenmoser Gustarium\" die Interessantes und Unterhaltsames rund um Fleisch und Wurst bietet. Hier lassen sich nach Voranmeldung Feste feiern und Seminare abhalten. Auch spontan kann man die Ausstellung besuchen und in der lichtdurchfluteten Metzgerstube \u00abmeet &amp; (m)eat\u00bb ein frisch aufgeschnittenes Appenzeller Pl\u00e4ttli mit einem Getr\u00e4nk geniessen. Im Genussladen kann man st\u00f6bern, sich an der Rezeptwand inspirieren lassen und Appenzeller Spezialit\u00e4ten und Delikatessen mit nach Hause nehmen.  \n", "url": "https://www.gustarium.ch/", "image": "https://sgbtpimtsoch.sos-ch-dk-2.exoscale-cdn.com/catalog/8/2/1/8/8218aacac4a7c8901b60cd254e91ca8e85892f9e__S4_0085.jpg", "openstreetmap_id": "node/11240658635"}, "geometry": {"type": "Point", "coordinates": ["9.4281642", "47.3203495"]}}, {"type": "Feature", "properties": {"identifier": "bf93a7a6-3fb1-484e-b8ef-2ad44243e337", "name": "Feuerstelle Bachscheide", "description": "<p>Die Feuerstelle Bachscheide liegt eingebettet in der wundersch\u00f6nen Natur. Bei heissen Temperaturen im Sommer ist es ein idealer Ort zum verweilen. Am Bach kann man sich ausserdem wunderbar abk\u00fchlen lassen.</p><p></p><p>Der praktische Unterstand l\u00e4dt bei Wind und Wetter zum ausruhen ein. Eine Reservation der Feuerstelle ist nicht m\u00f6glich. </p>", "image": "https://sgbtpimtsoch.sos-ch-dk-2.exoscale-cdn.com/catalog/6/9/5/b/695b15944c26d753ba1a05d9f8f70ab278f3ec01_00_Bachscheidi1.JPG", "openstreetmap_id": "Bachscheide"}, "geometry": {"type": "Point", "coordinates": ["8.96362066268921", "47.31232956211427"]}}, {"type": "Feature", "properties": {"identifier": "c0d07da1-7875-4053-b129-2820385dade7", "name": "Stiftsbibliothek St.Gallen", "description": "<p>Der heutige Bibliotheksraum entstand zwischen 1758 und 1767 unter der Leitung des Bregenzerw&auml;lder Baumeisters Peter Thumb. Die wechselnden Ausstellungen wertvoller Manuskripte und Unikate geben einen nachhaltigen Eindruck der St.Galler Klosterkultur. Der Barocksaal der Stiftsbibliothek &uuml;berrascht durch seine reiche Rokoko-Ausstattung und gilt als einer der sch&ouml;nsten des Landes. Der Bestand der heute noch aktiven Bibliothek betr&auml;gt rund 170'000 B&uuml;cher. Die beeindruckende Sammlung fr&uuml;hmittelalterlicher Original-Handschriften macht diese Institution weltber&uuml;hmt. &Uuml;ber 400 B&auml;nde sind mehr als 1'000 Jahre alt.</p>", "url": "https://www.stiftsbezirk.ch/de/stiftsbibliothek/", "image": "https://sgbtpimtsoch.sos-ch-dk-2.exoscale-cdn.com/catalog/2/9/2/0/29206321680f359254c3d1158e1862ebaadeb0a1_Stiftsbibliothek_Keystory_2020_2.jpg", "openstreetmap_id": "way/131605934"}, "geometry": {"type": "Point", "coordinates": ["9.376703", "47.423152"]}}, {"type": "Feature", "properties": {"identifier": "ce7bd415-1deb-4198-994b-81bf477b6f10", "name": "Forum W\u00fcrth Rorschach", "description": "<p>Direkt am sch&ouml;nen Bodenseeufer k&ouml;nnen G&auml;ste bei freiem Eintritt regelm&auml;ssig wechselnde Kunstausstellungen besuchen. Das Forum W&uuml;rth Rorschach ist der museale Bereich des W&uuml;rth Haus Rorschach und zeigt regelm&auml;ssig wechselnde Kunstausstellungen zu unterschiedlichen Themen. Mit den Foyer\u2012Pr&auml;sentationen bietet das Forum W&uuml;rth Rorschach neben der Hauptausstellung immer wieder neue Ausstellungen und gibt einen weiteren spannenden Einblick in die moderne und zeitgen&ouml;ssische eigene Sammlung W&uuml;rth, die mittlerweile &uuml;ber 21'000 Werke umfasst. Der Skulpturengarten l&auml;dt ganzj&auml;hrig zum Verweilen ein und bildet einen fliessenden &Uuml;bergang der Kunst aus dem Inneren des Hauses bis zum Bodenseeufer. Hier findet man z.B. Exponate von Niki de Saint Phalle, Horst Antes und Henry Moore. Vor allem f&uuml;r Familien bietet der Skulpturengarten eine besondere Abwechslung mit zum Teil bespielbaren Mosaik-Skulpturen wie der &laquo;B&auml;r&raquo; oder &laquo;Nikigator&raquo; von Niki de Saint Phalle.</p>", "url": "https://www.wuerth-haus-rorschach.ch", "image": "https://sgbtpimtsoch.sos-ch-dk-2.exoscale-cdn.com/catalog/9/0/9/7/9097cb0aaa3144b8f5bd0dd3958b9647f432b019_230466_us_1122_web.jpg", "openstreetmap_id": "node/3357502595"}, "geometry": {"type": "Point", "coordinates": ["9.50669", "47.47842"]}}, {"type": "Feature", "properties": {"identifier": "d35a4d6d-a842-49a3-b8d7-202230e2e5c5", "name": "Palace", "description": "<p>Das jahrzehntelang als Kino betriebene Palace wurde 2006 als Konzertlokal von einer Gruppe regionaler Kulturschaffenden ero\u0308ffnet. Mit einem fu\u0308r die Ostschweiz einzigartigen Programm entwickelte sich das Palace rasch zu einem Konzertlokal, das u\u0308ber die Stadt- und Landesgrenzen hinaus Beachtung fand. Im vielseitigen Musikprogramm werden popkulturelle Stro\u0308mungen, interessante Nischen und u\u0308berraschende Kla\u0308nge verfolgt. Die Vortragsreihe &laquo;Erfreuliche Universita\u0308t&raquo; behandelt aktuelle gesellschaftliche, politische und kulturelle Fragen und hat sich zu einem wichtigen sta\u0308dtischen Diskussionstreffpunkt entwickelt.</p>", "url": "http://www.palace.sg/", "image": "https://sgbtpimtsoch.sos-ch-dk-2.exoscale-cdn.com/catalog/4/3/c/7/43c7dfa42425813b84564875d2bb812360a4309d_Cinema_Palace__St._Gallen__1Y7A2155_.jpg", "openstreetmap_id": "way/424712634"}, "geometry": {"type": "Point", "coordinates": ["9.3731219", "47.4266283"]}}, {"type": "Feature", "properties": {"identifier": "d974fff3-c771-4c5f-a205-1277463d955e", "name": "Spielplatz St. Gallenkappel Unterdorf", "description": "<p>Der zentrumsgelegene Spielplatz in Unterdorf, St. Gallenkappel besitzt viele kreative Spielger\u00e4te, um sich sch\u00f6n auszutoben. Die \u00fcberdachten Sitzpl\u00e4tze in Kombination mit den \u00f6ffentlichen Toiletten nebenan bieten eine ideale Picknickgelegenheit, bei der Eltern jederzeit die \u00dcbersicht auf das ganze Areal haben.</p><p></p><p><strong>Ausstattung:</strong></p><ul><li>0\u20135 Jahre</li><li>5\u201312 Jahre</li><li>Barrierefrei</li><li>\u00d6ffentliches WC</li><li>Picknick-Platz</li><li>Rauchfrei</li></ul>", "image": "https://sgbtpimtsoch.sos-ch-dk-2.exoscale-cdn.com/catalog/b/5/5/1/b5513a0df071aeb0c1a13af113a6aa57412fb8a9_Spielplatz_Unterdorf_StGallenkappel_2014_02.JPG", "openstreetmap_id": "node/984733268"}, "geometry": {"type": "Point", "coordinates": ["8.96662473678589", "47.245048017555035"]}}, {"type": "Feature", "properties": {"identifier": "da17da8e-fc7c-4b1d-a719-7d1c8b913f8e", "name": "Seifenmuseum", "description": "Das schmucke Seifenmuseum in St.Gallen entf\u00fchrt die Besucherinnen und Besucher in duftender Umgebung in die Welt der Seife, ihrer Produktion und Vermarktung. Anhand einer alten Maschine aus der Seifenproduktion wird die Herstellung von Seife auf anschauliche Weise gezeigt. Alte Reklamen vermitteln ein Bild der Seifenwerbung von fr\u00fcher und Werkzeuge, die noch vor zwei Generationen in jedem Haushalt zu finden waren, geben einen Einblick in die Kulturgeschichte des Waschens.", "url": "http://www.seifenmuseum.ch", "image": "https://sgbtpimtsoch.sos-ch-dk-2.exoscale-cdn.com/catalog/3/0/e/8/30e898fbaa36c5a7c4b984ab931ec0f0e780381d_Seifenmuseum_4.jpg", "openstreetmap_id": "node/7193107395"}, "geometry": {"type": "Point", "coordinates": ["9.3921067", "47.4304028"]}}, {"type": "Feature", "properties": {"identifier": "dbe07a1b-d05b-4e0e-929d-b3e2e2b35cb3", "name": "Tarifverbund OSTWIND", "description": "Seit dem 1. Juni 2009 ist auf dem ganzen Gebiet des Tarifverbunds der sogenannte Zonentarif g\u00fcltig. Reisende kaufen seither nicht mehr Billette von Ort zu Ort, sondern die zwischen und einschliesslich Abfahrts- und Zielort durchfahrenen Zonen. Innerhalb der Zonen ist das Billett auf Bahn und Bus g\u00fcltig. Mit einem OSTWIND-Fahrausweis reisen die Kundin:innen innerhalb der gew\u00e4hlten Zonen und der zeitlichen G\u00fcltigkeit mit allen \u00f6ffentlichen Verkehrsmitteln \u2013 wohin und so oft sie wollen.", "url": "https://www.ostwind.ch", "image": "https://sgbtpimtsoch.sos-ch-dk-2.exoscale-cdn.com/catalog/d/5/0/a/d50a65dd30b6b985b4cfdac1678129905b782b8a_160097_us_0043317.jpg", "openstreetmap_id": "way/117850184"}, "geometry": {"type": "Point", "coordinates": ["9.372061190585772", "47.4232959"]}}, {"type": "Feature", "properties": {"identifier": "dfcc5a75-11d1-4478-9ec9-674ba307e3cc", "name": "Drei Weieren", "description": "<p>Im 17. Jahrhundert k&uuml;nstlich angelegt, um die Wasserversorgung der Textil-Bleichen und Feuerwehren zu gew&auml;hrleisten, nutzten die Bewohner die Weieren schon bald zum Baden und Erholen. Damals wurde streng nach Geschlechtern getrennt &ndash; darum auch die Namen &laquo;Manne- und Buebeweiher&raquo; und &laquo;Frauen- und Familienbadi&raquo;. Die Drei Weieren z&auml;hlen heute zu den <strong>sch&ouml;nsten Naturschwimmb&auml;dern</strong> der Schweiz. Die schmucken historischen <strong>Jugendstil-Holzbauten </strong>erinnern an St.Gallens Vergangenheit als Textil-Weltstadt. Heute l&auml;dt das Naherholungsgebiet nebst dem <strong>Baden </strong>auch zum <strong>Flanieren </strong>und <strong>Picknicken </strong>ein.</p><p><strong>Anreise Drei Weieren: </strong></p><ul><li>Die Weiherlandschaft ist sehr gut an das Stadtzentrum angebunden. So fahren die <strong>M&uuml;hleggbahn </strong>oder der <strong>Stadtbus 6 (Richtung St. Georgen Bach)</strong> bis zur Station &laquo;St. Gallen, M&uuml;hlegg&raquo;.</li><li>Von dort erreicht man die Weiher in gut <strong>f&uuml;nf Minuten zu Fuss</strong>.</li><li>In den Sommermonaten f&auml;hrt gar ein <strong><a href=\"https://www.sport.stadt.sg.ch/home/baeder-sauna/familienbad-dreilinden.html\" target=\"_blank\" rel=\"noopener\">B&auml;derbus </a>direkt und gratis zu den Weihern</strong>.</li><li>Anreisende mit dem Auto finden kostenpflichtige Parkpl&auml;tze unter anderem beim Frauenbad.</li></ul><p><strong>&Ouml;ffnungszeiten Naturschwimmb&auml;der:&nbsp;</strong></p><ul><li>Das Badehaus vom&nbsp;<a href=\"https://www.sport.stadt.sg.ch/home/baeder-sauna/gemeinschaftsbad-dreilinden.html\" target=\"_blank\" rel=\"noopener\">Gemeinschaftsbad Dreilinden</a> (Mannenweier)&nbsp;ist w&auml;hrend der Saison in der Regel von 09.00 bis 19.00 Uhr frei und kostenlos zug&auml;nglich. Das Schwimmen im Mannenweier ist jederzeit m&ouml;glich.</li><li>&Ouml;ffnungszeiten vom&nbsp;<a href=\"https://www.sport.stadt.sg.ch/home/baeder-sauna/familienbad-dreilinden.html\">Familienbad Dreilinden</a> sind <a href=\"https://www.sport.stadt.sg.ch/home/baeder-sauna/familienbad-dreilinden.html\" target=\"_blank\" rel=\"noopener\">hier </a>zu finden.&nbsp;</li></ul><p><strong>Preisinformationen:&nbsp;</strong></p><ul><li>Der <a href=\"https://st.gallen-bodensee.ch/de/entdecken/sport-freizeit/erlebnisraum-3weieren.html\">Erlebnisraum 3Weieren</a> ist im Grundsatz kostenfrei zug&auml;nglich.</li><li>Das <a href=\"https://www.sport.stadt.sg.ch/home/baeder-sauna/gemeinschaftsbad-dreilinden.html\" target=\"_blank\" rel=\"noopener\">Gemeinschaftsbad Dreilinden</a> (Mannenweier) ist kostenlos.</li><li>Das <a href=\"https://www.sport.stadt.sg.ch/home/baeder-sauna/familienbad-dreilinden.html\">Familienbad Dreilinden</a> ist nicht kostenlos.&nbsp;</li></ul><p>&nbsp;</p>", "image": "https://sgbtpimtsoch.sos-ch-dk-2.exoscale-cdn.com/catalog/f/9/7/2/f972d6878d21acc5fa258e5aafb6c27a2afb9a30_Computerformat_4_3_Drei_Weieren.jpg", "openstreetmap_id": "way/424743187"}, "geometry": {"type": "Point", "coordinates": ["9.38322979999998", "47.4200042"]}}, {"type": "Feature", "properties": {"identifier": "e3cce468-3d0d-4a74-868f-31849e1eb8c3", "name": "Bahnticket S\u00e4ntis \u2013 der Berg", "description": "<p data-v-20c93902=\"\" class=\"rich-text-paragraph\" piano-view-event=\"false\" style=\"margin-bottom: 1rem;\"><span class=\"text-space-pre-line rich-text-text\" data-abstract-init=\"body text\" style=\"\">Vom Gipfel reicht der Blick \u00fcber sechs L\u00e4nder. So grenzenlos wie die Rundsicht sind auch die M\u00f6glichkeiten rund um S\u00e4ntis und der Schw\u00e4galp. Erlebnisse in einer der sch\u00f6nsten Naturkulissen Europas, Veranstaltungen und Sonderfahrten das ganze Jahr, gelebtes Appenzeller Brauchtum und kulturelle H\u00f6hepunkte \u2013 dies und vieles mehr wird den Besuchern geboten. Das passende kulinarische Angebot findet sich im gem\u00fctlichen Gasthaus Passh\u00f6he, im 3-Sterne-Berghotel Schw\u00e4galp oder in den Panorama-Restaurants auf dem S\u00e4ntisgipfel.</span></p><p data-v-20c93902=\"\" class=\"rich-text-paragraph\" piano-view-event=\"false\" style=\"margin-bottom: 1rem;\"><span class=\"text-space-pre-line font-weight-bold rich-text-text\" data-abstract-init=\"body text\" style=\"\">Ticket g\u00fcltig f\u00fcr:</span></p><ul><li style=\"margin-bottom: 1rem;\">10-min\u00fctige Schwebebahnfahrt auf und/oder runter vom S\u00e4ntisgipfel</li></ul>", "url": "https://saentisbahn.ch/", "image": "https://sgbtpimtsoch.sos-ch-dk-2.exoscale-cdn.com/catalog/0/4/4/f/044f8c3ade2fd86b718c8d9c5f76d38ce2885fb8_S__ntis1.jpg", "openstreetmap_id": "node/560155201"}, "geometry": {"type": "Point", "coordinates": ["9.317264556884767", "47.256397812373805"]}}, {"type": "Feature", "properties": {"identifier": "fcfafb16-b2c6-4a56-9302-28b01451789b", "name": "Sperre Stoss", "description": "Diverse grosse Festungsbauten in der Schweiz, so etwa am Gotthard, bei Gondo im Tessin, und bei Saint Maurice VS wurden bereits im sp\u00e4ten 19. Jahrhundert realisiert. An der Ostgrenze war jedoch bis kurz vor dem Zweiten Weltkrieg die veraltete Sperre auf der Luziensteig das einzige Festungswerk. Die Machtergreifung durch die Nationalsozialisten in Deutschland und der Anschluss \u00d6sterreichs an das Deutsche Reich machten unsere Politiker hellh\u00f6rig und f\u00fchrten Bundesrat und Parlament die Notwendigkeit eines verst\u00e4rkten Grenzschutzes im Osten drastisch vor Augen. Das im Februar 1935 genehmigte \u00abBauprogramm f\u00fcr Grenzbefestigungen\u00bb gab endlich \u00abgr\u00fcnes Licht\u00bb f\u00fcr die Projektierung von Festungswerken im Rheintal. Doch zuvor waren umfangreiche Rekognoszierungen notwendig. Erst kurz vor Kriegsbeginn begannen die Bauarbeiten. Unter anderem auch am Stoss, dem als wichtigster \u00dcbergang vom Rheintal ins Appenzellerland, eine bedeutende strategische Bedeutung zukam.", "url": "https://www.festung.ch", "image": "https://sgbtpimtsoch.sos-ch-dk-2.exoscale-cdn.com/catalog/2/5/a/7/25a78c7287a09566c53a7f56e09c2e767f45b245_Stoss_Infanteriebunker_Rain_kompr.jpg", "openstreetmap_id": "node/310819649"}, "geometry": {"type": "Point", "coordinates": ["9.505451031788997", "47.365691490027"]}}, {"type": "Feature", "properties": {"identifier": "fd819b2a-2ab2-43e1-a285-4283f454fb11", "name": "Walter Zoo AG Gossau", "description": "<p>Rund 1'000 Tiere aus rund 100 verschiedenen Tierarten machen den Besuch zu einem bleibenden Erlebnis. Sei es der majest\u00e4tische Berberl\u00f6we, die faszinierenden Sibirischen Tiger, das Treiben der Schimpansen, die schillernden Rosaflamingos, die Kleinen Pandas und Zwergotter, die spannende Tier- und Pflanzenwelt im Savannenhaus oder im Tropenhaus.\n\nInmitten grossz\u00fcgiger Anlagen sind Zebras, Vikunjas, Trampeltiere, Ponys und Esel zu beobachten. Bei kommentierten Tierbesch\u00e4ftigungen und F\u00fctterungen, beim Flugtraining und in der Zooschule erfahren die G\u00e4ste Spannendes und Wissenswertes aus dem Tierreich. \n\nWeitere Attraktionen f\u00fcr die kleinen Besucherinnen und Besucher sind die Abenteuerspielp\u00e4tze, die F\u00fctterungsvoliere, Kamel- und Ponyreiten oder die Streichelwiese. Das Zoorestaurant mit Blick ins Tropenhaus, verschiedene Verpflegungsst\u00e4nde und Grillstellen runden das vielf\u00e4ltige Angebot ab. Ein Highlight sind die t\u00e4glichen Auff\u00fchrungen im Zootheater (w\u00e4hrend der Haupsaison).\n\nDer Walter Zoo ist aber auch ein spannender Ort f\u00fcr Veranstaltungen. Ob Apero, Bankett oder Brunch: Die Eventr\u00e4umlichkeiten bieten das geeignete Ambiente f\u00fcr jedes Fest. Aber auch f\u00fcr Kundenanl\u00e4sse, Teambildung, Kaderschulung, Seminar, Hauptversammlung oder Workshop \u2013 hier erfahren die Teilnehmenden Begeisterung und Emotionen. F\u00fchrungen, Vortr\u00e4ge oder Tierbegegnungen machen den Event zum besonderen Event!</p><p>F\u00fcr Schulklassen und Gruppen bis maximal 36 Personen besteht von Fr\u00fchjahr bis Herbst die M\u00f6glichkeit, im Zoo an frei w\u00e4hlbaren Daten zu \u00fcbernachten.&nbsp;&nbsp;</p>", "url": "https://www.walterzoo.ch/", "image": "https://sgbtpimtsoch.sos-ch-dk-2.exoscale-cdn.com/catalog/a/f/0/8/af08719023b04df846a4f81788f729b15c9afb4a_loewen_fg_2020_36__2.jpg", "openstreetmap_id": "94381932"}, "geometry": {"type": "Point", "coordinates": ["9.28499954084611", "47.4200682"]}}, {"type": "Feature", "properties": {"identifier": "fec41767-4000-474b-8139-b21903e0b6a5", "name": "Gew\u00f6lbekeller im Stiftsbezirk", "description": "<p>Die Ausstellung \"Gallus und sein Kloster\" f&uuml;hrt anhand von Originalhandschriften und Objekten durch 1400 Jahre Kulturgeschichte, von der Einsiedlerzelle des Gallus bis zum UNESCO-Weltkulturerbe Stiftsbezirk. Sie stellt den Beitrag der Kl&ouml;ster an die kulturelle Entwicklung Europas dar, in Schrift, Sprache, Musik, Bau, Kunst und Spiritualit&auml;t. Einen H&ouml;hepunkt bildet das Evangelium Longum, dessen Prunkeinband um 895 vom St.Galler M&ouml;nch und K&uuml;nstler Tuotilo geschaffen wurde. Eine Multivision folgt dem Weg, der Gallus von Irland an den Bodensee und hierher ins Steinachtal f&uuml;hrte. In einem eigenen Bereich werden die sp&auml;tere Entwicklung der F&uuml;rstabtei und ihre Beziehung zur Stadt St.Gallen dargestellt.</p>", "url": "https://www.stiftsbezirk.ch", "image": "https://sgbtpimtsoch.sos-ch-dk-2.exoscale-cdn.com/catalog/c/a/d/1/cad162f91b2484f5764e6c259f55123cc5d3402f_50221123_2239627749401139_5000902560450609152_o.jpg", "openstreetmap_id": "node/1929726463"}, "geometry": {"type": "Point", "coordinates": ["9.37644", "47.42276"]}}]}