{"type": "FeatureCollection", "features": [{"type": "Feature", "properties": {"identifier": "066edb37-1c57-45e1-96b2-8cfb33579d97", "name": "Erlebnis-T\u00f6fflitour: St.Gallen\u2013Bodensee mit Beachbar-Genuss", "description": "<p class=\"MsoNormal\">Starten Sie Ihr Abenteuer direkt in St.\u202fGallen und erleben Sie die Ostschweiz auf zwei R&auml;dern! Unsere gef&uuml;hrte T&ouml;fflitour f&uuml;hrt Ihre Gruppe durch idyllische Landschaften, charmante D&ouml;rfer und entlang dem traumhaften Bodenseeufer.</p><p class=\"MsoNormal\">Nach einem unvergesslichen Tag auf dem T&ouml;ffli erwartet Sie ein Abendessen in einer stilvollen Beachbar &ndash; entspannte Stimmung, feines Essen und Loungemusik sind der perfekte Ausklang Ihres Ausflugs. Selbstverst&auml;ndlich darf ein Schwumm im erfrischenden Nass nicht fehlen. Ideal f&uuml;r Firmen, Vereine oder Freundesgruppen, die Aktion, Genuss und Natur verbinden m&ouml;chten.</p>", "image": "https://sgbtpimtsoch.sos-ch-dk-2.exoscale-cdn.com/catalog/d/d/3/b/dd3bdde8e7c958b96972e00a3a66d369cecae0b0_Seepromenade_Rorschach.jpg"}, "geometry": {"type": "Point", "coordinates": ["9.3755605", "47.4232672"]}}, {"type": "Feature", "properties": {"identifier": "0c0fd088-1717-4b5b-bb3a-05fe89516047", "name": "Wein im Rheintal ", "description": "<p>Starten Sie Ihren Tag mit dem Besuch eines K&uuml;fers und erleben Sie hautnah, wie sich dieses jahrhundertealte Handwerk bis heute kaum ver&auml;ndert hat. Anschliessend geht es ins Haus des Weines, ein genussvoller Treffpunkt f&uuml;r Weinliebhaber und Neugierige. In stilvollem Ambiente entdecken G&auml;ste regionale Weine und erfahren Wissenswertes &uuml;ber Anbau und Tradition. Verkostungen laden dazu ein, verschiedene Sorten mit allen Sinnen zu erleben. Die fachkundige Beratung macht den Besuch auch f&uuml;r Einsteiger besonders angenehm.</p><p>Ein idealer Ort f&uuml;r genussvolle Pausen.</p>", "image": "https://sgbtpimtsoch.sos-ch-dk-2.exoscale-cdn.com/catalog/e/d/9/8/ed9856e046c66ac52b60e90ef5b7ab821bba7ca5_SG_Haus_des_Weins_.jpg"}, "geometry": {"type": "Point", "coordinates": ["9.6090914", "47.4256158"]}}, {"type": "Feature", "properties": {"identifier": "162e063e-bc0d-4d07-8713-ea901f8b2c4c", "name": "Besichtigung The Square \u2013 Universit\u00e4t St.\u202fGallen", "description": "<p>Erleben Sie die moderne Lern- und Begegnungswelt der HSG: The Square verbindet Innovation, Wirtschaft und Architektur auf einzigartige Weise.Die Besichtigung ist ideal f&uuml;r Gruppen, die Inspiration, Wissen und spannende Einblicke in die Universit&auml;t suchen.</p>", "image": "https://sgbtpimtsoch.sos-ch-dk-2.exoscale-cdn.com/catalog/a/4/2/0/a4204b713a4c0e4299e26455aa199db3fb6bb425_Keystory_2023_Square_Uni_St.Gallen_3__1_.jpg"}, "geometry": {"type": "Point", "coordinates": ["9.3748118", "47.4333248"]}}, {"type": "Feature", "properties": {"identifier": "20c3ffdc-6ea0-4a68-ac14-f220f3b4cf8e", "name": "Augschta-Markt", "description": "<p>Der wohl beliebteste Markt mit den meisten St&auml;nden ist der August-Jahrmarkt. Am \"Augschta-Markt\" gibt es auch eine Kilbi mit Bahnen sowie musikalische Unterhaltung bis in die Abendstunden.</p>", "url": "https://www.altstaetten.ch/marktstadt", "image": "https://sgbtpimtsoch.sos-ch-dk-2.exoscale-cdn.com/catalog/3/6/f/8/36f890af417582e4c9b0e6e47674f88d5eb1e7e6_medium__Augschta_Markt_Altst__tten_7.jpg"}, "geometry": {"type": "Point", "coordinates": ["9.5400518", "47.378043"]}}, {"type": "Feature", "properties": {"identifier": "2187a364-faed-4b93-983a-6c8bf2cde3ca", "name": "Stadtf\u00fchrungen Gossau", "description": "<p class=\"icmsPContent icms-wysiwyg-first\">Die Stadtf&uuml;hrungen vermitteln viel Interessantes aus der Geschichte von Gossau. Die orts- und geschichtskundigen Guides berichten von &laquo;unsichtbaren&raquo; B&auml;chen, pr&auml;genden Geb&auml;uden oder von der besonderen Bedeutung von Wandmalereien in Gossau .&nbsp;</p><p class=\"icmsPContent\">Angeboten werden zwei verschiedene F&uuml;hrungen von rund zwei Stunden Dauer:</p><ul><li><em>F&uuml;hrung zu Fuss:</em>&nbsp;Ausgehend vom Andreaspark werden auf einem Spaziergang verschiedene Stationen&nbsp;im Zentrum von Gossau aufgesucht.&nbsp;</li></ul><ul><li><em>F&uuml;hrung mit dem Velo:</em> Von den Sportanlagen Buechenwald f&uuml;hrt die Tour&nbsp;im Gegenuhrzeigersinn&nbsp;um Gossau und endet am Standort des ersten&nbsp;Freibades . Geeignet f&uuml;r sportliche Bio-Velofahrer und f&uuml;r Personen mit E-Bike.</li></ul>", "url": "https://www.stadtgossau.ch/fuehrungen", "image": "https://sgbtpimtsoch.sos-ch-dk-2.exoscale-cdn.com/catalog/a/0/2/9/a029abb89c437e3753c1b4a7faf67e4056902e00_Stadtf__hrungen_Imagebilder_01.png", "openstreetmap_id": "relation/1683889"}, "geometry": {"type": "Point", "coordinates": ["9.249359", "47.4155906"]}}, {"type": "Feature", "properties": {"identifier": "3614d6c1-c20d-4651-a252-707886dc4ae8", "name": "\u00d6ffentliche Stadtf\u00fchrungen in Rorschach", "description": "Kommen Sie mit auf einem Rundgang durch die Hafenstadt an der s\u00fcdlichsten Bucht des Bodensees! Wir f\u00fchren Sie zu pr\u00e4chtigen Herrschaftsh\u00e4usern, in abgelegene Hinterh\u00f6fe, zu alten Fabrikgeb\u00e4uden, zu Waschpl\u00e4tzen und Badeanstalten an der Seeuferpromenade und erz\u00e4hlen Ihnen Geschichten von weitgereisten Handelsherren, \u00e4btischen Kornhausverwaltern, italienischen Fabrikarbeiterinnen und k\u00f6niglichen Sommerg\u00e4sten in \"Rorschach-les-Bains\". \n", "url": "https://st.gallen-bodensee.ch/de/", "image": "https://sgbtpimtsoch.sos-ch-dk-2.exoscale-cdn.com/catalog/0/e/e/5/0ee5bfe544880c189212d995e834eafb3fdadb7f_SF_Rorschach_0_Seepromenade.jpg", "openstreetmap_id": "way/179748654"}, "geometry": {"type": "Point", "coordinates": ["9.492734", "47.478602"]}}, {"type": "Feature", "properties": {"identifier": "390452d5-969e-414e-849c-fe08f7298283", "name": "Feierliche Vernissage Weihnachtsbaum auf dem Klosterplatz", "description": "<p class=\"MsoNormal\">Matthias Fl\u00fcckiger erz\u00e4hlt eine stimmungsvolle\nWeihnachtsgeschichte. Die Chlausbl\u00e4ser der Polizeimusik St.Gallen und der Chor\nVoice Up umrahmen die Vernissage musikalisch.<o:p></o:p></p>", "image": "https://sgbtpimtsoch.sos-ch-dk-2.exoscale-cdn.com/catalog/2/9/4/f/294f1b5fc56f48ca4c2f1cc16c8d0c1cef3d3abb_medium__Christbaum_Weihnachten_10__1_.jpg"}, "geometry": {"type": "Point", "coordinates": ["9.3771709", "47.4235488"]}}, {"type": "Feature", "properties": {"identifier": "4f0fe72a-e6f3-4c45-a953-757a32111f2e", "name": "Einblicke ins Rega-Zentrum St.Gallen", "description": "<p>Beim Besuch des Rega-Zentrums in St.Gallen erhalten Sie spannende Einblicke in Rettungseins&auml;tze, Technik und Organisation.</p><p>Von modernen Helikoptern bis zu lebensrettenden Strategien - dieses Erlebnis kombiniert Bildung, Action, und Inspiration und ist perfekt f&uuml;r Firmen, Vereine oder Schulgruppen.</p><p>Nach dem Rundgang k&ouml;nnen sie den Tag mit einem gemeinsamen Snack oder einem Ap&eacute;ro ausklingen lassen. - individuell buchbar.</p><p>&nbsp;</p><p><strong>Hinweis zur Verf&uuml;gbarkeit</strong></p><p>F&uuml;r F&uuml;hrungen auf der Rega-Basis St.Gallen sind im Jahr 2026 nur noch limitierte Termine verf&uuml;gbar.</p><p>F&uuml;hrungen im Rega-Zentrum Kloten sind ab 2027 wieder m&ouml;glich.</p><p>Termine k&ouml;nnen auf Anfrage gepr&uuml;ft werden.</p><p style=\"margin: 0in; font-family: Calibri; font-size: 11.0pt;\">&nbsp;</p><p>&nbsp;</p>", "image": "https://sgbtpimtsoch.sos-ch-dk-2.exoscale-cdn.com/catalog/b/0/5/1/b0512f5c65586b38af867e9ca233e1dc4620506b_Rega_AW109_Landung_Wiese_Sommer.jpg"}, "geometry": {"type": "Point", "coordinates": ["9.2900891", "47.4055948"]}}, {"type": "Feature", "properties": {"identifier": "5b5bfed0-a80c-4c47-90b3-8c6fa3854ef0", "name": "Baggerplausch im Hofstadl Gossau", "description": "<p>Entdecken Sie ein einzigartiges Gruppenprogramm, das l&auml;ndlichen Charme mit richtig viel Action verbindet!<br>Starten Sie gem&uuml;tlich im Hofstadl: regionale Spezialit&auml;ten, herzliche Atmosph&auml;re und der perfekte Ort, um gemeinsam anzukommen und zu geniessen. Danach heisst es: Baggern wie die Profis! Beim Baggerplausch d&uuml;rfen Ihre G&auml;ste selbst ans Steuer &ndash; ein Highlight, das garantiert f&uuml;r Staunen, Lachen und starke Team-Momente sorgt. Wer nicht baggern will, kann sich beim Bubble Soccer, Rasenm&auml;her rennen oder ferngesteuerte Autorennen austoben.</p><p>Wer sein Team richtig challengen will, kann auf dem weitl&auml;ufigen Areal alternativ eine spannende Alpolympiade veranstalten &ndash; ein actionreiches Erlebnis, das den Teamgeist st&auml;rkt.</p><p>Dieses Programm ist ideal f&uuml;r Firmen, Vereine oder Freunde, die ein unvergessliches Erlebnis suchen, das es so nicht &uuml;berall gibt &ndash; authentisch, originell und absolut unvergessen.</p>", "image": "https://sgbtpimtsoch.sos-ch-dk-2.exoscale-cdn.com/catalog/d/7/6/7/d76778ccbbfd780af24d0e79d2efbd3798325865_IMG_5189.JPG"}, "geometry": {"type": "Point", "coordinates": ["9.2419824", "47.4317173"]}}, {"type": "Feature", "properties": {"identifier": "6dd2e64a-a07a-4ee8-9128-e2d865bb70c7", "name": "Offene Weinkeller 2025", "description": "<p>Entdecken Sie die beeindruckende Vielfalt des Weinkantons St. Gallen an einem einzigartigen Ort: dem stilvollen \u00abHaus des Weins\u00bb in Berneck.<br style=\"line-height: 1rem; height: 1rem;\"><br style=\"line-height: 1rem; height: 1rem;\">Am Donnerstag, den 1. Mai 2025, sowie am Wochenende, den 3. und 4. Mai, laden wir Sie herzlich zu den \u00abOffenen Weinkellern 2025\u00bb ein.<br style=\"line-height: 1rem; height: 1rem;\">Erleben Sie eine exquisite Auswahl an St. Galler Weinen, die zur Degustation und zum Kauf bereitstehen. Lassen Sie sich von einer F\u00fchrung durch den Sortengarten und das Haus des Weins mit einem spannenden Sensorik-Parcours begeistern, der Ihre Sinne auf eine besondere Art und Weise anregt.<br style=\"line-height: 1rem; height: 1rem;\">Unsere Gastgeber:Innen freuen sich darauf, Ihnen ein feines, regionales kulinarisches Angebot zu pr\u00e4sentieren, welches ihre Geschmacksknospen verw\u00f6hnt. Auch f\u00fcr etwas S\u00fcsses zum Kaffee ist selbstverst\u00e4ndlich gesorgt. Am Samstag, den 3. Mai 2025, erwartet Sie zudem nachmittags musikalische Unterhaltung.<br style=\"line-height: 1rem; height: 1rem;\">Seien Sie dabei - wir freuen uns auf Ihren Besuch!</p>", "url": "https://hausdesweins-sg.ch/veranstaltungskalender/", "image": "https://sgbtpimtsoch.sos-ch-dk-2.exoscale-cdn.com/catalog/4/5/e/5/45e592212871b5d4b3c34f592c0ef30a2b3e4714_medium__RheinWelten_Haus_des_Weins_5.jpg"}, "geometry": {"type": "Point", "coordinates": ["9.6090914", "47.4256158"]}}, {"type": "Feature", "properties": {"identifier": "75eea95d-6144-4e3a-b9a6-dc906a1956aa", "name": "Japanische Teezeremonie", "description": "Die G\u00e4ste erleben eine japanische Teezeremonie durchgef\u00fchrt von der zertifizierten Teemeisterin Tomomi Sutter Kimura. Dabei erhalten sie zus\u00e4tzlich Informationen zum Tee (Matcha), zur Geschichte und Philosophie. In der Stille und Harmonie der etwa einst\u00fcndigen Zeremonie finden die G\u00e4ste pure Entspannung. Reservierungen sind f\u00fcr Gruppen von ca. 5 - 9 Personen m\u00f6glich. \n\nDie Teezeremonie findet \u00fcblicherweise im Square an der Universit\u00e4t St. Gallen (HSG) im Teehaus (2. OG) statt. F\u00fcr Events k\u00f6nnen auch individuelle Anpassungen get\u00e4tigt werden. Tomomi Sutter Kimura freut sich auf die Kontaktaufnahme und das Interesse. ", "url": "https://www.japanischeteezeremonie.ch/", "image": "https://sgbtpimtsoch.sos-ch-dk-2.exoscale-cdn.com/catalog/e/9/9/b/e99bba054b0803eb9597f5476bbfdb619b0a0a29_224__2.jpg", "openstreetmap_id": "way/4087314"}, "geometry": {"type": "Point", "coordinates": ["9.374803304672243", "47.433279497653"]}}, {"type": "Feature", "properties": {"identifier": "8fd23180-e7cf-4fb3-b833-d2a56a90978b", "name": "Altstadtf\u00fchrung St.Gallen", "description": "<p>Entdecke die charmante Altstadt St.Gallens! Begib dich mit unseren Guides auf eine spannende Entdeckungsreise durch verwinkelte Gassen mit ihren Erkern und erfahre dabei Wissenswertes zur Stadtgeschichte.</p>", "url": "https://shop.st.gallen-bodensee.ch/de/products/altstadtfuehrung-stgallen", "image": "https://sgbtpimtsoch.sos-ch-dk-2.exoscale-cdn.com/catalog/4/c/8/3/4c83a5e111d688b4503ff68391f96cff565fe0ca_medium__Stadtf__hrungen__8_.jpg"}, "geometry": {"type": "Point", "coordinates": ["9.3757393", "47.4231724"]}}, {"type": "Feature", "properties": {"identifier": "9430a7f3-837b-4ac9-8a55-d89a5475c2cd", "name": "Sommerb\u00fchne Kulturverein Schloss Wartegg", "description": "Vom 2. Juni bis am 28. Juli steht auch dieses Jahr das m\u00e4rchenhafte Zelt im Warteggpark und l\u00e4dt zu unvergesslichen, vertr\u00e4umten Sommerabenden. F\u00fcr kleine und feine H\u00e4ppchen und Getr\u00e4nke sorgt die Park-Caf\u00e9-Bar von Luzia Hebel-Kappenthuler von der Badi Speck, Staad (speck-catering.ch) mit Ueli Vogt.", "url": "https://wartegg.ch/", "image": "https://sgbtpimtsoch.sos-ch-dk-2.exoscale-cdn.com/catalog/d/2/2/2/d22255fa3c1ec8d3c5f84d1f1615a739fe81a52e_small__Schloss_Wartegg_Aussenansicht_3.jpg"}}, {"type": "Feature", "properties": {"identifier": "95ecec91-f6c2-4107-845f-26d1c589a1f9", "name": "Gl\u00fccklichmacher - by TOPAZ", "description": "Wollten Sie schon immer mal einen etwas anderen Teamanlass organisieren? Dann ist dieser Event mehr als nur eine Gl\u00fcckssache! Sie erleben einen Tag als Team, fernab von der allt\u00e4glichen Arbeit. \n\nTOPAZ schneidert ein auf Ihre W\u00fcnsche abgestimmtes Angebot und bringt Sie an einen Ort, wo Sie etwas Nachhaltiges und Positives bewirken k\u00f6nnen. Ein Event mit Ausstrahlung, bei dem Sie auf Ihre Gruppenleistung besonders stolz sein k\u00f6nnen!", "url": "https://zeitreisen.ch", "image": "https://sgbtpimtsoch.sos-ch-dk-2.exoscale-cdn.com/catalog/3/5/e/5/35e592767586aff5b64a6a27efa4a890b3355ad9_Bild_04.jpg", "openstreetmap_id": "relation/1683947"}, "geometry": {"type": "Point", "coordinates": ["9.373580217361452", "47.3895765279229"]}}, {"type": "Feature", "properties": {"identifier": "988853dc-d06d-44b0-ac46-2679d5b22b99", "name": "\u00f6ffentliche Bratwurst-Degustation ", "description": "<p style=\"-webkit-font-smoothing: antialiased; margin-right: 0px; margin-left: 0px;\">Sie gilt als die ber\u00fchmteste Ostschweizerin: Die St.Galler Bratwurst! Bereits 1438 wurde das Rezept f\u00fcr die Wurst erstmals erw\u00e4hnt. Doch was wissen wir eigentlich \u00fcber das kulinarische Kulturgut? Welche Zutaten sind in der Wurst enthalten und warum geniesst man sie ohne Senf? Und die Frage aller Fragen ist: Wer produziert die beste St.Galler Bratwurst?</p><p style=\"-webkit-font-smoothing: antialiased; margin-right: 0px; margin-left: 0px;\">Beim Degustationsseminar geht es also wortw\u00f6rtlich um die Wurst. Wir f\u00fchren dich spielerisch an die emotionale Thematik heran und l\u00fcften ihr Geheimnis. Du hast die einmalige Gelegenheit, Bratw\u00fcrste verschiedener Produzenten nebeneinander zu degustieren und zu entscheiden, welche Bratwurst dein Favorit ist.</p><p style=\"-webkit-font-smoothing: antialiased; margin-right: 0px; margin-left: 0px;\">Unsere Degustationsleiter Josef Niedermann &amp; Andreas Koller der Sortenorganisation St.Galler Bratwurst erkl\u00e4ren dir dabei die feinen Unterschiede. Passend dazu geniesset du ein Bier der Brauerei Sch\u00fctzengarten, welches hervorragend mit der Bratwurst harmoniert und ein krosses B\u00fcrli, dass deinen Gaumen zum Tanzen bringt.</p><p style=\"-webkit-font-smoothing: antialiased; margin-right: 0px; margin-left: 0px;\">Im Preis von CHF 49.00 sind enthalten: 1 Getr\u00e4nk / Person, B\u00fcrli, Bratwurst-Degustation.</p><p style=\"-webkit-font-smoothing: antialiased; margin-right: 0px; margin-left: 0px;\">Das Angebot ist bis 2 Tage im Voraus online buchbar.</p><p style=\"-webkit-font-smoothing: antialiased; margin-right: 0px; margin-left: 0px;\">Hinweis: Die Mindestteilnehmerzahl betr\u00e4gt 10 Personen. Die maximale Teilnehmerzahl betr\u00e4gt 20 Personen. Bitte buche ab 6 Personen eine&nbsp;<a href=\"https://st.gallen-bodensee.ch/de/erlebnisse/fuehrungen/private-fuehrungen/bratwurst-degustation.html\" target=\"_blank\" rel=\"nofollow\" style=\"-webkit-font-smoothing: antialiased; background-image: initial; background-position: initial; background-size: initial; background-repeat: initial; background-attachment: initial; background-origin: initial; background-clip: initial; outline: 0px; cursor: pointer; -webkit-tap-highlight-color: transparent; line-height: inherit;\">Privatf\u00fchrung</a>.</p>", "url": "https://shop.st.gallen-bodensee.ch/de/products/bratwurstdegustation", "image": "https://sgbtpimtsoch.sos-ch-dk-2.exoscale-cdn.com/catalog/d/8/8/f/d88fd45cc1542f765d6cf0d82636469532184a0a_medium__Bratwurst_Degustation_06__2_.jpg"}, "geometry": {"type": "Point", "coordinates": ["9.3749759", "47.4255301"]}}, {"type": "Feature", "properties": {"identifier": "a34166fe-20bb-47bc-81bc-57aea26158f6", "name": "St.Gallen \u00e0 la Carte \u2013  Ihr ganz individueller Ausflug oder Teamevent ", "description": "<p class=\"MsoNormal\">Ein unvergesslicher Tag in St.Gallen &ndash; Starten Sie Ihr Teamevent oder Firmenerlebnis mit einem reichhaltigen Brunch &ndash; der perfekte Auftakt f&uuml;r einen spannenden Tag voller individueller Erlebnisse. Nach dem Brunch k&ouml;nnen die Teilnehmer ihr bevorzugtes Programm nach ihren Interessen w&auml;hlen:</p><ul><li class=\"MsoNormal\">&laquo;Kultur&raquo;: Eine spannende Stadtf&uuml;hrung durch St.Gallen, die Geschichte und Geschichten der Stadt lebendig werden l&auml;sst.</li><li class=\"MsoNormal\">&nbsp;&laquo;Genuss&raquo;: Biberli backen in einer der &auml;ltesten B&auml;ckereien der Stadt &ndash; ein s&uuml;sses Highlight f&uuml;r alle.</li><li class=\"MsoNormal\">&laquo;Outdoor Escape Room&raquo;: Teamgeist, R&auml;tselspass und Spannung pur f&uuml;r Ihr Teamerlebnis.</li><li>&laquo;Wissenschaft&raquo;: Faszinierende Einblicke bei der Empa &uuml;ber die Entwicklung innovativer Materialien und Technologien.</li><li>&laquo;Textil&raquo;: Ein Blick auf Stoffe und Textilkunst vergangener Jahrhunderte &ndash; Inspiration&nbsp;inklusive.</li></ul><p>Den Abschluss bildet ein gem&uuml;tlicher Grillap&eacute;ro mit den &laquo;famous 4 B&raquo; Bier, Bratwurst, B&uuml;rli und Biberli &ndash; der perfekte Ausklang f&uuml;r Ihr Teamevent, Firmen- oder Vereinsausflug.</p>", "image": "https://sgbtpimtsoch.sos-ch-dk-2.exoscale-cdn.com/catalog/4/b/b/f/4bbf0af12f830beff2c3e549fcb265b578523346_Stadtf__hrungen_Gallusplatz_2.jpg"}, "geometry": {"type": "Point", "coordinates": ["9.3755977", "47.4232683"]}}, {"type": "Feature", "properties": {"identifier": "a6edd5f8-7611-4214-8de5-01758025c0a7", "name": "Innovation hautnah \u2013 Besuch in der EMPA", "description": "<p class=\"MsoNormal\">Tauchen Sie mit Ihrer Gruppe ein in die Welt der Forschung, Technologie und Innovation! Bei einem exklusiven Besuch der EMPA in St.\u202fGallen erleben Sie modernste Materialien, spannende Experimente und zukunftsweisende Technologien hautnah.<br>Ein Erlebnis, das Neugier weckt, Inspiration liefert und gleichzeitig Wissen vermittelt &ndash; ideal f&uuml;r Firmen, Vereine oder Schulgruppen, die mehr als nur einen gew&ouml;hnlichen Ausflug suchen.</p><p class=\"MsoNormal\">Abgerundet wird der Tag auf Wunsch mit einem gemeinsamen Ap&eacute;ro oder Mittagessen, das individuell buchbar ist.</p>", "image": "https://sgbtpimtsoch.sos-ch-dk-2.exoscale-cdn.com/catalog/5/7/6/0/5760b3792a53f4490358b726100594901c29ea0e_Keystory_2023_Empa_2.jpg"}, "geometry": {"type": "Point", "coordinates": ["9.3407034", "47.4125922"]}}, {"type": "Feature", "properties": {"identifier": "ae36d1a2-2da6-47bb-92ee-65c1df8c74bb", "name": "Schweizer Statistiktage 2026", "description": "<p>Die Schweizer Statistiktage sind das j&auml;hrliche Treffen der Statistikerinnen und Statistiker in der Schweiz. Sie dienen dem fachlichen Austausch sowie der Diskussion aktueller Entwicklungen aus Forschung, Methodik und Praxis. Die Veranstaltung richtet sich an Fachleute aus Bildung und Forschung, Privatwirtschaft und &ouml;ffentlicher Statistik und steht allen offen.</p>", "image": "https://sgbtpimtsoch.sos-ch-dk-2.exoscale-cdn.com/catalog/1/a/e/f/1aef86a0ed9a575b3357b15b994f9cf8fe786863_W__rth_Haus_Rorschach_Skulpturengarten_1.jpg"}, "geometry": {"type": "Point", "coordinates": ["9.5063374", "47.4785163"]}}, {"type": "Feature", "properties": {"identifier": "baf9496b-a6d5-44ac-b124-8064b78d7e2b", "name": "Die Weihnachtstanne kommt geflogen", "description": "<p class=\"MsoNormal\">W\u00e4hrend der Adventszeit tr\u00e4gt der Christbaum auf dem\nKlosterplatz zur weihnachtlichen Stimmung in St.Gallen bei. Die Tanne wird wie\njedes Jahr per Helikopter in den Stiftsbezirk geflogen - dieses Jahr stammt der\nBaum aus dem Rieth\u00fcsli.&nbsp;<o:p></o:p></p><p class=\"MsoNormal\">Geplant ist der Transport von 12.-14. November.&nbsp;Der\nFlug ist wetterabh\u00e4ngig. Allf\u00e4llige \u00c4nderungen zum Anflug werden kurzfristig\nkommuniziert.<o:p></o:p></p><p>\n\n\n\n<span style=\"line-height: 107%;\">Geschm\u00fcckt wird die Tanne am 25. November - der\nSchmuck stammt dieses Jahr von der HPV Uzwil-Flawil.&nbsp;</span><br></p>", "image": "https://sgbtpimtsoch.sos-ch-dk-2.exoscale-cdn.com/catalog/8/8/6/6/8866156d36d8689c979e7d92854beb388cb43d1a_medium__Christbaum_Weihnachten_10.jpg"}, "geometry": {"type": "Point", "coordinates": ["9.3771709", "47.4235488"]}}, {"type": "Feature", "properties": {"identifier": "c6842904-1a1f-45bd-8c1a-0d7156679434", "name": "Escape Game Outdoor St. Gallen ", "description": "<p>Mitten in der historischen Altstadt von St. Gallen taucht Ihr Team in ein packendes Outdoor-Escape-Abenteuer ein.<br>Ausgestattet mit Tablets, Hinweisen und kniffligen Missionen l&ouml;st die Gruppe R&auml;tsel an realen Schaupl&auml;tzen.<br>Teamwork, Logik und Kreativit&auml;t entscheiden dar&uuml;ber, ob Sie den Fall rechtzeitig knacken. Die Route f&uuml;hrt vorbei an versteckten Gassen, Pl&auml;tzen und &uuml;berraschenden Spots der Stadt.<br>Ein Erlebnis, das verbindet, fordert und jede Gruppe in Bewegung bringt.</p>", "image": "https://sgbtpimtsoch.sos-ch-dk-2.exoscale-cdn.com/catalog/4/e/4/7/4e4718fe42b8a7fd0639ba82f783851b8424df9a_Jpg_Blackout_5.jpg"}, "geometry": {"type": "Point", "coordinates": ["9.3755977", "47.4232683"]}}, {"type": "Feature", "properties": {"identifier": "d1cfd28d-d1b5-4f21-891b-94ad1a358712", "name": "Altstadtf\u00fchrung St.Gallen mit Kathedrale & Stiftsbibliothek", "description": "<p>Der St.Galler Stiftsbezirk geh&ouml;rt seit 1983 zum UNESCO-Weltkulturerbe. Das &uuml;ppige Barockensemble samt Bibliothek und Kathedrale lassen selbst Kulturmuffel in atemloses Staunen verfallen. W&auml;hrend der F&uuml;hrung erf&auml;hrst du Interessantes &uuml;ber die barocke Kathedrale mit ihrer imposanten Doppelturmfassade &ndash; das Wahrzeichen der Stadt und eine der letzten monumentalen Klosterbauten des Barocks. Das Herzst&uuml;ck des Stiftsbezirks bildet die Stiftsbibliothek, die zu den &auml;ltesten und sch&ouml;nsten Bibliotheken der Welt z&auml;hlt. Dieser Rundgang f&uuml;hrt auch durch einen Teil der Altstadt.</p>", "url": "https://shop.st.gallen-bodensee.ch/de/products/altstadtrundgang-mit-kathedrale-und-stiftsbibliothek", "image": "https://sgbtpimtsoch.sos-ch-dk-2.exoscale-cdn.com/catalog/b/e/0/c/be0c21b9a42dd3ef943738a664f1e91943ed1157_SF_Altstadt_Stibi_0_Stadtfuehrung_Stiftsbibliothek.jpg"}, "geometry": {"type": "Point", "coordinates": ["9.3755977", "47.4232683"]}}, {"type": "Feature", "properties": {"identifier": "d60c4d83-ed67-464d-95ad-e93e088c7091", "name": "Sternenstadt St.Gallen", "description": "<p>Jedes Jahr zur Adventszeit verwandelt sich die Stadt St.Gallen in ein Meer aus &uuml;ber 600 Sternen. Sie funkeln und tanzen in einer eigens f&uuml;r die Sternenstadt erdachten Lichtchoreografie und tauchen die St.Galler Altstadt mit dem UNESCO-Weltkulturerbe Stiftsbezirk in ein magisches Licht. Der stimmungsvolle Weihnachtsmarkt auf dem Gallusplatz sowie die speziell geschm&uuml;ckte Weihnachtstanne auf dem Klosterplatz, &ndash; mitten im Stiftsbezirk &ndash; bescheren der Sternenstadt einen zus&auml;tzlichen festlichen Weihnachtsglanz.</p><p>Eine &Uuml;bersicht der Advents-Events der Sternenstadt ist <a href=\"https://www.sternenstadt.ch/adventsevents\" target=\"_blank\" rel=\"noopener\">hier</a> ersichtlich.&nbsp;</p>", "url": "https://www.sternenstadt.ch/", "image": "https://sgbtpimtsoch.sos-ch-dk-2.exoscale-cdn.com/catalog/8/4/6/b/846b431d1010b2cf8e52792d0ea7bd152b5d4c11_medium__Sternenstadt_2023_Kathedrale.jpg"}, "geometry": {"type": "Point", "coordinates": ["9.3762397", "47.425618"]}}, {"type": "Feature", "properties": {"identifier": "e9d10421-3124-4e96-912f-8271c664c7f7", "name": "Schweizer Mehrkampf-Meisterschaften 2026 ", "description": "<p>Am 27. und 28. Juni 2026 gastiert die nationale Mehrkampf-Elite in Teufen: An den Schweizer Mehrkampf-Meisterschaften messen sich Athletinnen und Athleten im Zehnkampf und Siebenkampf sowie weiteren Mehrkampfformaten. Der Mehrkampf gilt als K&ouml;nigsdisziplin der Leichtathletik und bietet w&auml;hrend zwei Tagen spannenden Sport auf h&ouml;chstem Niveau. Es werden rund 400 Teilnehmende (Aktive bis U16) erwartet.</p>", "url": "https://www.swiss-athletics.ch/sm-mehrkampf/", "image": "https://sgbtpimtsoch.sos-ch-dk-2.exoscale-cdn.com/catalog/e/3/2/4/e3244ba87073cacaa9ae4ab657a0b9e8965d2a3e_Swiss_Athletics__SM_Mehrkamp.png"}, "geometry": {"type": "Point", "coordinates": ["9.3927314", "47.3894911"]}}]}