{"type": "FeatureCollection", "features": [{"type": "Feature", "properties": {"identifier": "02a8cc26-2113-4996-9cfa-f056b46c1893", "name": "B&B Niederer", "description": "<p>Das heimelige Dorf B&uuml;hler im Appenzeller Mittelland ist idealer Ausgangspunkt f&uuml;r Wanderungen in den sanften H&uuml;geln oder im Alpstein mit S&auml;ntis, Hohem Kasten, Ebenalp und Kronberg. In der N&auml;he liegen das malerische Dorf Appenzell, das Rheintal oder St.Gallen. Im heimeligen Weberhaus mit viel Charme kann der Gastgeberin beim Handweben &uuml;ber die Schultern geschaut werden.</p>", "url": "https://bnb.ch/de/bnb/1662", "image": "https://sgbtpimtsoch.sos-ch-dk-2.exoscale-cdn.com/catalog/7/2/2/1/72214f74d2335e4b30016446745eb17245bc46f4_BnB_Niederer_3.jpg", "openstreetmap_id": "320022404.0"}, "geometry": {"type": "Point", "coordinates": ["9.4261223", "47.3737219"]}}, {"type": "Feature", "properties": {"identifier": "035d1c45-c0ce-4873-a959-2c45b292925a", "name": "S\u00e4ntis Lodge", "description": "Die S\u00e4ntis Lodge liegt inmitten vom Toggenburg, genauer gesagt in Unterwasser. Als Ferienort zeichnet sich Unterwasser besonders durch die charakteristische Berglandschaft aus. Neben der wundersch\u00f6nen Landschaft bietet Unterwasser alles, was G\u00e4ste f\u00fcr gelungene Ferien brauchen. In der S\u00e4ntis Lodge, dem Kernst\u00fcck von Berg & Bett, werden Ferien zu dem, wof\u00fcr sie gemacht sind.\n\nWerden die G\u00e4ste gefragt, was ein Aufenthalt im Berg & Bett im Toggenburg einzigartig macht, so sind die Antworten unterschiedlich. F\u00fcr die einen ist es die grossz\u00fcgige und zugleich kuschelige Atmosph\u00e4re. F\u00fcr die anderen ist es die Toggenburger Bergwelt. Wieder andere haben sich in das breitgef\u00e4cherte und familienfreundliche Aktivit\u00e4ten-Angebot der Region und der S\u00e4ntis Lodge verliebt. Aber trotz der unterschiedlichen R\u00fcckmeldungen ist es vor allem eines, weswegen die G\u00e4ste gerne wiederkommen: das Team von Berg & Bett.\n\nZum Angebot der S\u00e4ntis Lodge geh\u00f6ren: \n- Zwei Kinovorstellungen pro Tag um 16.00 Uhr (Kinderfilm) und 20.00 Uhr\n- Entertainment (Ping-Pong, Billard, Tischfussball)\n- Indoor-Lounge/Co-Workspace mit Highspeed-WIFI (Erwachsene)\n- Kinderspielzimmer mit B\u00e4llebad\n- Outdoor-Lounge (Sommer)\n- Kinderspielplatz aussen (Sommer)\n- G\u00e4stekarte f\u00fcr Ihr exklusives Erlebnis\n- 1 Eintritt ins Hallenbad f\u00fcr das Reka Feriendorf\n", "url": "https://bergundbett.ch/", "image": "https://sgbtpimtsoch.sos-ch-dk-2.exoscale-cdn.com/catalog/2/a/d/8/2ad83df301e1dab12c5becdfbf24f0eb13f02aa6_TT_2023_S__ntisLodge_04.jpg", "openstreetmap_id": "way/222237524"}, "geometry": {"type": "Point", "coordinates": ["9.313316573154678", "47.1963286"]}}, {"type": "Feature", "properties": {"identifier": "0a975f26-5d2b-4e65-8140-15f6063dbb29", "name": "Sunehus - Ferienwohnung und Hot Pot", "description": "Das luftige Studio im ikonischen Bio-Holz-Designhaus ist f\u00fcr zwei Personen buchbar. Per Bahn oder Bus dauert es weniger als zehn Minuten ins Zentrum von St.Gallen und etwas \u00fcber eine Stunde nach Z\u00fcrich. Der Wohnort ist eindr\u00fccklich mit toller Aussicht in die Berge. \n\nDas Studio ist frisch und komfortabel umgebaut. Es besteht aus:\n- zwei Einzelbetten, die als Doppelbett hergerichtet werden k\u00f6nnen\n- Dusche und kleines WC \n- kleine eingerichtete K\u00fcche \n- Essbereich \n- Wohnbereich mit sch\u00f6ner Aussicht \n- Arbeitsplatz \n- eigener Eingang durch Garage (Autoabstellplatz verf\u00fcgbar wenn gew\u00fcnscht). \n- Garten mit traumhafter Aussicht zur Mitben\u00fctzung \n\nDie Vermieter wohnen im oberen Stock. Zwei Elektrofahrr\u00e4der stehen Ihnen kostenlos zur Verf\u00fcgung, um die Umgebung zu erkunden.\n\nWer ausspannen und sich etwas Gutes tun m\u00f6chte, verbringt wohlige Stunden im Hot Pot und geniesst dabei die freie Sicht auf den Alpstein. Das Sprudelvergn\u00fcgen l\u00e4sst sich perfekt mit einer \u00dcbernachtung im Studio Sunehus kombinieren. Und f\u00fcr Sprudel ist nicht nur im Bad gesorgt, eine Flasche Prosecco verw\u00f6hnt auch noch prickelnd den Gaumen.", "url": "https://sunehus.ch", "image": "https://sgbtpimtsoch.sos-ch-dk-2.exoscale-cdn.com/catalog/4/6/1/2/4612dba0bc62b907b772cf0354d1a11ff580181b_Sternenlodge_im_Appenzellerland__3_Tage___1___1_.jpg", "openstreetmap_id": "node/274610294"}, "geometry": {"type": "Point", "coordinates": ["9.355609416961672", "47.396521235591536"]}}, {"type": "Feature", "properties": {"identifier": "1008ed9f-e2c7-4d49-ba1e-cf755f8a7e0c", "name": "Purehomes", "description": "<p>Willkommen in unserer charmanten 45 m&sup2; Wohnung in St. Gallen Sankt Georgen &ndash; der perfekte R&uuml;ckzugsort f&uuml;r Ihren Aufenthalt! Diese liebevoll eingerichtete Unterkunft bietet Ihnen alles, was Sie f&uuml;r einen komfortablen Aufenthalt ben&ouml;tigen. Die voll ausgestattete K&uuml;che l&auml;dt dazu ein, Ihre Lieblingsgerichte zuzubereiten, w&auml;hrend das moderne Badezimmer mit frischen Handt&uuml;chern, Seife und Shampoo ausgestattet ist. Im gem&uuml;tlichen Schlafzimmer finden Sie erholsame N&auml;chte, und die ausziehbare Couch im Wohnbereich bietet zus&auml;tzlichen Platz f&uuml;r bis zu zwei G&auml;ste. Genie&szlig;en Sie Ihre Morgenkaffee oder entspannen Sie nach einem ereignisreichen Tag auf dem Balkon mit Blick auf die Umgebung. Der Parkplatz direkt vor der T&uuml;r macht das Ankommen und Abfahren besonders bequem. In der N&auml;he erwartet Sie ein wundersch&ouml;ner See, ideal f&uuml;r entspannte Spazierg&auml;nge oder sportliche Aktivit&auml;ten. Zudem profitieren Sie von Highspeed-Internet und einem Netflix-Zugang, sodass Sie auch w&auml;hrend Ihres Aufenthalts unterhalten werden. F&uuml;r zus&auml;tzlichen Komfort bieten wir optionale Reinigungsdienste an. Bei uns finden Sie alles, was Sie f&uuml;r einen unvergesslichen Aufenthalt ben&ouml;tigen &ndash; wir freuen uns auf Ihren Besuch!</p>", "url": "https://www.airbnb.ch/rooms/1506305295211640543?guests=1&adults=1&s=67&unique_share_id=81599b66-d425-4744-b8e2-9d38ab7ffa07", "image": "https://sgbtpimtsoch.sos-ch-dk-2.exoscale-cdn.com/catalog/0/f/c/d/0fcd47cda63cfc63761650047309ab660add7016_St._Gallen_web__40_von_101_.jpg", "openstreetmap_id": "way/309829866"}, "geometry": {"type": "Point", "coordinates": ["9.3979202", "47.4147397"]}}, {"type": "Feature", "properties": {"identifier": "14837aff-3b6c-4bf7-83b1-f7985e72c61a", "name": "Apartment Dufour", "description": "Wo sich die H\u00fcgel des Appenzellerlandes, die Rheintalebene und die Bodenseelandschaft begegnen, liegt das historische St\u00e4dtchen Rheineck. Und hier, zwischen dem \u00e4ltesten Siedlungsteil, dem Fahr und den dichtgef\u00fcgten Gassen der fr\u00fcheren Stadtmauern, begr\u00fcsst das Hotel Hecht seine G\u00e4ste. \n\nIm Hotel Hecht steht ein h\u00fcbsches 3-Zimmer-Apartment (klimatisiert) zur Verf\u00fcgung, welches f\u00fcr einen k\u00fcrzeren oder l\u00e4ngeren Urlaub in der Gegend vermietet wird. Zum Hotel Hecht mit 14 Zimmern (klimatisiert) geh\u00f6ren im Erdgeschoss ein Restaurant mit 60 Pl\u00e4tzen und eine Sonnenterrasse f\u00fcr 60 Personen. Das Restaurant mit Terrasse und die Smokers-Lounge sind \u00f6ffentlich. \n\nDie Unterkunft: Das 3-Zimmer-Apartment befindet sich im 1. Stock des Hotel Hecht und hat zwei Schlafzimmer, ein kleines Wohnzimmer, eine kleine K\u00fcche und ein Bad mit WC. Alle drei Zimmer sind klimatisiert und mit grossem TV ausgestattet. Zudem haben die G\u00e4ste alle Annehmlichkeiten eines Hotels und Restaurants im Haus. \n\nZugang f\u00fcr G\u00e4ste: Die G\u00e4ste ben\u00fctzen den Hoteleingang. Das Apartment im 1. Stock (kein Lift) ist privat. Am Sonntag und Montag ist das Restaurant geschlossen. Die Rezeption ist t\u00e4glich besetzt. \n\nWeitere wichtige Hinweise: Bei Aufenthalten ab 4 Tagen gibt es w\u00f6chentlich einen W\u00e4schewechsel und f\u00fcr Fr. 12.00 (anstatt Fr. 18.00) darf im Hotel gefr\u00fchst\u00fcckt werden.", "url": "https://hotelhecht-rheineck.ch/", "image": "https://sgbtpimtsoch.sos-ch-dk-2.exoscale-cdn.com/catalog/9/6/9/6/96966dedb360f8f4a5216816dc992d225d9546c6_TDS00020013459833615_sized_800_0.jpg", "openstreetmap_id": "6515922667"}, "geometry": {"type": "Point", "coordinates": ["9.5918208", "47.4647847"]}}, {"type": "Feature", "properties": {"identifier": "14c71dd5-60b0-4821-8e63-a20f039b382b", "name": "Hotel Balga", "description": "Das Natur- und Bikehotel Balga, ein kleines aber schickes Pl\u00e4tzchen, mitten im Dorfkern von Balgach. Abseits urbaner Hektik. Hier, auf dem Land, ist die Natur unser Lebenselixier. Die Weinberge sind unser Zuhause. Unsere Passion f\u00fcrs Biken echt. Deshalb sind wir auch ein zertifiziertes 3-Sterne Bikehotel und setzen alles daran, dass ihr euch bei uns wohlf\u00fchlt. Ganz nah an der Natur \u2013 und zwar das ganze Jahr hindurch.\n\nUnsere Zimmer sind modern und gem\u00fctlich zugleich. Zeitlos und schlicht \u2013 mit dem h\u00f6chsten Schlafkomfort f\u00fcr unsere G\u00e4ste. Eine umfangreiche Bike-Infrastruktur mit Fahrrad-Waschanlage, E-Bikeladestation, Ersatzteile-Shop, Waschmaschine und Tumbler sowie ein 24-Stunden-Check-in und kostenlose Parkpl\u00e4tze machen den Aufenthalt bei uns im\nBalga bequem und einfach. Und dank verschiedenster Zimmerkategorien seid ihr als Paar, Familie, allein oder mit Freunden bestens versorgt.\n\nIm hoteleigenen Restaurant Hedwig servieren wir zum Fr\u00fchst\u00fcck ein Buffet aus regionalen Leckereien, mittags gibt es hausgemachte Men\u00fc's und abends naturnahe Gerichte zum Teilen \u2013 passend zur Saison und zum gemeinsamen Geniessen.", "url": "https://hotel-balga.ch/", "image": "https://sgbtpimtsoch.sos-ch-dk-2.exoscale-cdn.com/catalog/d/1/f/e/d1fe9726f53ac4f664e30f65d3d4aebbfbc79ddc_Hotel_Balga_9140_web__2.jpg", "openstreetmap_id": "node/10805137528"}, "geometry": {"type": "Point", "coordinates": ["9.607920000000036", "47.40694"]}}, {"type": "Feature", "properties": {"identifier": "1b95a540-fa27-4257-bf34-4040d34532a5", "name": "Restaurant - Hotel de Charme R\u00f6merhof", "description": "Das Boutiquehotel R\u00f6merhof in Arbon verbindet historischen Charme mit modernem Komfort. Elf individuell eingerichtete Zimmer, ein von Gault Millau ausgezeichnetes Gourmetrestaurant und zwei historische Banketts\u00e4le schaffen den idealen Rahmen f\u00fcr besondere Anl\u00e4sse, Tagungen und genussvolle Aufenthalte.\n\nDie sonnige Terrasse \u00fcber den alten Stadtmauern sowie die exklusive Davidoff Cigar Lounge bieten Raum f\u00fcr Entspannung. Dank der zentralen Lage im historischen Dorfkern von Arbon und der unmittelbaren N\u00e4he zum Bodensee ist der R\u00f6merhof sowohl f\u00fcr private Aufenthalte als auch f\u00fcr gesch\u00e4ftliche Anl\u00e4sse bestens geeignet.\n\nDer R\u00f6merhof steht f\u00fcr Geschichte, Eleganz, kulinarische H\u00f6hepunkte und herzliche Gastfreundschaft.", "url": "https://www.roemerhof-arbon.ch/", "image": "https://sgbtpimtsoch.sos-ch-dk-2.exoscale-cdn.com/catalog/5/d/1/7/5d17659dbbd2c3a3db90db9e2cd7f4a0a0fe2f63_Aussenansicht.jpg", "openstreetmap_id": "way/191210237"}, "geometry": {"type": "Point", "coordinates": ["9.43359", "47.51638"]}}, {"type": "Feature", "properties": {"identifier": "20147f3c-0fc4-4749-80ac-778e64c0f09f", "name": "Villa Donkey - Ferien- und Erlebnisdorf in Degersheim (SG)", "description": "Dieses \"Glamping\"-Village bietet Familien, Abenteuerlustigen, Goldgr\u00e4bern, Geniessern, Wanderern, Schulen, Jungwacht, Blauring und Pfadfindern alles, was ihren Aufenthalt zu einem einmaligen Erlebnis macht. \n\nOb in der Welt der Indianer inklusive \u00dcbernachtung im Tipi, die spezielle farbenfrohe Atmosph\u00e4re einer mongolischen Jurte oder das heimelige Ambiente eines Alpenchalets \u2013 es bietet f\u00fcr jede und jeden das passende Abenteuer. Die Villa Donkey bietet auch Einzel- und Doppelzimmer sowie verschiedene Ferienwohnungen an.\n", "url": "http://www.villadonkey.ch/", "image": "https://sgbtpimtsoch.sos-ch-dk-2.exoscale-cdn.com/catalog/f/3/c/9/f3c9271b8af13b99f8efe62b0276d50e905bb76e_Villa_Donkey_Village.jpg", "openstreetmap_id": "way/308584207"}, "geometry": {"type": "Point", "coordinates": ["9.1930596", "47.3704296"]}}, {"type": "Feature", "properties": {"identifier": "2195c246-9561-480f-8bb6-eb20d302bddf", "name": "Gasthaus Traube Buchs", "description": "Hier dreht sich alles um die G\u00e4ste. Um ihn, es, sie, euch, dich. Die G\u00e4ste werden mit Genuss auf dem Teller und aus dem Weinglas verw\u00f6hnt, mit Einfachem und Sch\u00f6nem, mit herzlichen Begegnungen und allerhand K\u00f6stlichem, serviert in den denkmalgesch\u00fctzten R\u00e4umlichkeiten. . Im angrenzenden neuen Boutique-Hotel trifft ein vergn\u00fcgtes Spiel mit Materialien auf Schlichtheit und Design. Hier sitzt jedes Detail. Der Garten als verbindendes Element mit mehreren kleinen, lauschigen Pl\u00e4tzen ist ein Ort zum Entdecken mitten in der Stadt. Hier verschmelzen die Tradition des Gasthauses mit dem modernen Hotel zu einer Oase der entspannten Begegnung und des ungetr\u00fcbten Genusses f\u00fcr alle Sinne.", "url": "https://gasthaus-traube.ch/de/", "image": "https://sgbtpimtsoch.sos-ch-dk-2.exoscale-cdn.com/catalog/4/1/0/8/4108a3325353eb91f5dd42cc9a9f489d3626663d_GasthausTraube_Hotelzimmer_23_06_05.jpg", "openstreetmap_id": "node/11160283450"}, "geometry": {"type": "Point", "coordinates": ["9.4694649", "47.1654743"]}}, {"type": "Feature", "properties": {"identifier": "238aec76-22c6-4c60-b36e-e7a8efd723af", "name": "Hotel Flawil", "description": "<p>12 Zimmer mit total 22 Betten und eine Suite bieten den Gesch&auml;fts- und Privatreisenden 3 Sterne Komfort auf h&ouml;chstem Niveau. Die Zimmer sind gem&uuml;tlich-funktional eingerichtet und erf&uuml;llen die W&uuml;nsche von Gesch&auml;ftsreisenden von heute. Daneben verf&uuml;gen das Hotel &uuml;ber sieben Appartements / Studios zur Langzeitvermietung. Eine Offerte kann hier angefragt werden.&nbsp;</p>", "url": "http://www.hotelflawil.ch/", "image": "https://sgbtpimtsoch.sos-ch-dk-2.exoscale-cdn.com/catalog/c/7/2/e/c72e71c3c3d59c6e500432f3282699caa20708a4_Hotel_Fasse__2_.jpg", "openstreetmap_id": "way/503331913"}, "geometry": {"type": "Point", "coordinates": ["9.187135", "47.4139972"]}}, {"type": "Feature", "properties": {"identifier": "23d5aa4b-d45a-43aa-8326-c8c119cf85d4", "name": "Hotel Sch\u00e4fli", "description": "Ob Gesch\u00e4ftsreise, Urlaub oder Wochenendtrip \u2013 die G\u00e4ste geniessen hier alle Annehmlichkeiten f\u00fcr einen gelungenen Aufenthalt zu einem hervorragenden Preis-Leistungs-Verh\u00e4ltnis.\n\nDie geschmackvollen, modern designten Zimmer bieten eine warme, freundliche Atmosph\u00e4re und stilvolle Behaglichkeit. Ganz im Sinne eines zukunftsweisenden Hotelkonzepts wurde zugunsten tieferer Preise bewusst auf Rezeption und Restaurant verzichtet. So verl\u00e4uft der Check-in-Prozess unkompliziert \u00fcber einen Automaten, und f\u00fcr eine kleine St\u00e4rkung zwischendurch stehen Snacks sowie warme und kalte Getr\u00e4nke in der gem\u00fctlichen Lounge bereit. Auch spontane G\u00e4ste sind jederzeit ohne Reservation herzlich willkommen.", "url": "https://www.schaefli-uzwil.ch/", "image": "https://sgbtpimtsoch.sos-ch-dk-2.exoscale-cdn.com/catalog/a/6/0/8/a608320709ba4cfaadb59231a8b655791034357d_180723_UZE1803_20413.jpg", "openstreetmap_id": "way/195805902"}, "geometry": {"type": "Point", "coordinates": ["9.136344194412233", "47.44038851073989"]}}, {"type": "Feature", "properties": {"identifier": "24283f41-f13d-4d58-ab05-cfa1bd1958ca", "name": "Hotel Caf\u00e9 Mozart", "description": "<p data-start=\"0\" data-end=\"231\">Das Hotel Caf&eacute; Mozart liegt direkt am Bodensee.&nbsp;</p><p data-start=\"233\" data-end=\"629\">Neben feinen Kaffeespezialit&auml;ten und hausgemachten Kuchen erwartet die G&auml;ste eine erlesene Auswahl an Weinen im Offenausschank sowie kleine, salzige Alternativen f&uuml;r den genussvollen Ap&eacute;ro. Ob f&uuml;r den entspannten Nachmittagskaffee, ein Gesch&auml;ftstreffen oder einen stilvollen Sonntagsbrunch &ndash; das Caf&eacute; im Hotel Mozart bietet den passenden Rahmen mit pers&ouml;nlichem Service und hoher Qualit&auml;t.</p>", "url": "https://mozart-rorschach.ch", "image": "https://sgbtpimtsoch.sos-ch-dk-2.exoscale-cdn.com/catalog/1/9/5/b/195b9ce8394d1ccc333aab772802901855092616_001_Hotel_Mozart_Rorschach___Allgemein.jpg", "openstreetmap_id": "way/327977307"}, "geometry": {"type": "Point", "coordinates": ["9.4910594", "47.479093"]}}, {"type": "Feature", "properties": {"identifier": "2e5d1a4e-7bc2-4eeb-be0b-679833412f2c", "name": "Hirschen Wald - Gasthaus & B\u00e4ckerei", "description": "<p>Etwas mehr als tausend Meter &uuml;ber Meer, umgeben von Wiesen und W&auml;ldern, hier steht der Hirschen Wald. Ein stattliches Gasthaus im freundlichen Appenzellerland. Eine selbstverst&auml;ndliche fr&ouml;hliche Gastlichkeit, eine gepflegte K&uuml;che, um die sich die Besitzer selber k&uuml;mmern. Das alles geh&ouml;rt im Hirschen Wald zur Tradition. Die zwei gem&uuml;tlichen Gaststuben, das 250 Jahre alte Wandbuffet, der alte Holzbackofen, sie wissen davon zu berichten. Hier lassen sich die Feste feiern, wie sie fallen. Die Hotelzimmer im Hirschen, geschmackvoll eingerichtet, sind hell und komfortabel. Jedes hat Dusche/WC, TV und Wifi. In jedem ist es l&auml;ndlich still. Und aus den Fenstern sieht jeder Gast sein eigenes St&uuml;ckchen Appenzell. Im alten Backofen wird auch heute noch fast t&auml;glich gebacken. Seit drei Generationen duftet es im Hirschen nach frischem Brot und nach den kleinen, weit herum bekannten Geb&auml;cken. Sie werden nach sorgsam geh&uuml;teten Familienrezepten hergestellt. Buchst&auml;blich an der Haust&uuml;re des Hirschen ziehen Wanderwege vorbei. Sie f&uuml;hren &uuml;ber H&uuml;gel, durch W&auml;lder, querfeldein. Und mehr als das, sie f&uuml;hren unmerklich aus der Hetze, dem Stress heraus, an einem schattigen Baum, an einem abgelegenen Geh&ouml;ft vorbei, immer weiter in die Stille. Es ist nicht weit zum Bodensee, zum St&auml;dtchen Appenzell, oder hinauf in den Alpstein. Auch St. Gallen, mit seinen Museen, seinen Kinos, seinem Theater, ist leicht zu erreichen. Die Familie Mettler freut sich, die G&auml;ste in ihrem Haus zu begr&uuml;ssen.</p>", "url": "https://www.hirschenwald.ch", "image": "https://sgbtpimtsoch.sos-ch-dk-2.exoscale-cdn.com/catalog/6/3/6/d/636d93c04553dc6e4f6c68aea2fbba8cff0a605b_Key_HirschenWald_2022_FullHD.jpg", "openstreetmap_id": "node/10743463642"}, "geometry": {"type": "Point", "coordinates": ["9.504600763320925", "47.41903548921606"]}}, {"type": "Feature", "properties": {"identifier": "2f36417e-6a42-43b9-bdea-13c9f018bfcc", "name": "Hotel NewStar", "description": "Das Hotel NewStar verbindet Qualit\u00e4t und professionellen Service mit einem attraktiven Preis. Die 57 Zimmer bieten mit angemessenen Wohn- und Arbeitsbereichen eine stilvolle Atmosph\u00e4re f\u00fcr G\u00e4ste auf Gesch\u00e4ftsreise.\n\nMit modernen Sitzungs- und Konferenzr\u00e4umen ist das Hotel Newstar auch f\u00fcr Business-Meetings, Tagungen oder Workshops f\u00fcr bis zu 80 Personen geeignet. Die G\u00e4ste profitieren von einem idealen Standort mit optimaler Verkehrsanbindung und Parkm\u00f6glichkeiten direkt vor dem Haus.", "url": "http://newstar.ch", "image": "https://sgbtpimtsoch.sos-ch-dk-2.exoscale-cdn.com/catalog/4/0/b/5/40b526975463037adb03e1a21db0cd23196650c2_NewStar_aussen.jpg", "openstreetmap_id": "node/4231981291"}, "geometry": {"type": "Point", "coordinates": ["9.311135899999954", "47.4077003"]}}, {"type": "Feature", "properties": {"identifier": "32a2d570-784c-42cd-9a6b-d7616e3bd1e5", "name": "Schloss Wartegg", "description": "<p>Das Schloss Wartegg vereint historische Architektur, moderne Hotellerie und gelebte Regionalit&auml;t. Als erstes Swiss Historic Hotel der Ostschweiz empf&auml;ngt es G&auml;ste mit herzlicher Gastfreundschaft und einem Sinn f&uuml;r Qualit&auml;t &ndash; sichtbar etwa in der biologischen K&uuml;che, der bewussten Materialwahl oder der Zusammenarbeit mit regionalen Partnern.</p><p>Die 25 individuell gestalteten Zimmer bieten Ruhe und Charakter. Im Textilzimmer (Romantikzimmer) verweisen edle Stoffe aus der Kollektion von <a href=\"https://fischbacher1819.com/\" target=\"_blank\" rel=\"noopener\">Christian Fischbacher</a> auf die textile Kompetenz der Ostschweiz. Der Blick &uuml;ber den Englischen Park zum Bodensee oder in die Appenzeller H&uuml;gel unterstreicht die besondere Lage. Ob f&uuml;r einen erholsamen Aufenthalt oder ein kreatives Seminar: Das Schloss Wartegg ist ein Ort, an dem Sorgfalt sp&uuml;rbar wird.</p>", "url": "http://www.wartegg.ch/", "image": "https://sgbtpimtsoch.sos-ch-dk-2.exoscale-cdn.com/catalog/0/b/1/6/0b16bf7e84d3bf3d16c1f8250eb0f5d3d6a237cf_Luftaufnahme_mit_See__4_.jpg", "openstreetmap_id": "way/186554885"}, "geometry": {"type": "Point", "coordinates": ["9.5301308", "47.4784585"]}}, {"type": "Feature", "properties": {"identifier": "33741721-55e5-4770-9722-b3565e2eb019", "name": "Landgasthaus B\u00e4ren Grub", "description": "Fein, klein und pers\u00f6nlich, unter diesem Motto werden die G\u00e4ste im Landgasthaus B\u00e4ren empfangen und verw\u00f6hnt. Sei es mit erlesenen Gerichten aus der mit Hauben und von Michelin gelobten K\u00fcche, ein feines Gl\u00e4schen Wein aus dem mit \u00fcber 160 Sorten best\u00fccktem Weinkeller, oder als Hotelgast in einem der konventionell eingerichteten Hotelzimmer. Gut gelegen an der Hauptstrasse St.Gallen - Heiden und mit Aussicht auf den Bodensee ist das Landgasthaus B\u00e4ren mit dem Postauto und KFZ gut erreichbar. S\u00f6nd Willkomm im B\u00e4ren Grub AR!", "url": "http://www.baeren-grub.ch", "image": "https://sgbtpimtsoch.sos-ch-dk-2.exoscale-cdn.com/catalog/4/b/e/b/4beb7bf6cdf58da018f229aaf320b98e5fa64ad4_restaurant_baeren_17.jpg", "openstreetmap_id": "node/7254716693"}, "geometry": {"type": "Point", "coordinates": ["9.4973513", "47.442959"]}}, {"type": "Feature", "properties": {"identifier": "337c9aca-1396-4e7c-a2ba-e50a9e6921b0", "name": "Hotel Dom", "description": "Rund 55 Menschen mit einer Beeintr\u00e4chtigung finden im Hotel Dom einen Ausbildungs- oder Arbeitsplatz und sind in allen Bereichen t\u00e4tig. Das in der Region einzigartige Konzept geniesst hohe Beachtung von G\u00e4sten und Einheimischen gleichermassen. Das Hotel ist aussen eher n\u00fcchtern gestaltet, besticht aber mit seinem farbigen Innern. Es liegt mitten in der Altstadt, unmittelbar beim Stiftsbezirk St.Gallen. \n\nDas Hotel Dom verf\u00fcgt \u00fcber helle Einzel-, Doppel- und Dreibettzimmer und bietet auch einen Tagungsraum sowie ein Besprechungszimmer. Zudem bieten das Hotel f\u00fcnf frisch renovierte Studios an. Diese befinden sich in unmittelbarer N\u00e4he des Hauptbahnhofs St.Gallen. Die Studios sind ausgestattet mit Kochnische, Klimaanlage und  Bad mit Dusche/WC. \n\nF\u00fcr Langzeit-Aufenthalte werden Wochen- und Monatspreise angeboten.", "url": "http://www.hoteldom.ch/", "image": "https://sgbtpimtsoch.sos-ch-dk-2.exoscale-cdn.com/catalog/2/0/4/5/2045ab284c5ed9774226add4029ad5afcf129af8_hotel_dom_zimmer_2019_255_R.jpg", "openstreetmap_id": "way/242696325"}, "geometry": {"type": "Point", "coordinates": ["9.3751", "47.42282"]}}, {"type": "Feature", "properties": {"identifier": "34168062-f20f-47d3-b1f9-cada8dd6dae0", "name": "Gastwirtschaft zum Dornhof", "description": "<p>Seit vielen Jahren geh&ouml;rt die Gastwirtschaft Dornhof als beliebter Treffpunkt f&uuml;r Einheimische und G&auml;ste aus nah und fern zu einem festen Bestandteil von Steinebrunn. Die G&auml;ste geniessen hier ein kleines aber feines Angebot aus der saisonalen K&uuml;che mit frischen Produkten aus der Region - mit Blick auf Romanshorn und den Bodensee. In der gem&uuml;tlich eingerichteten Gaststube und bei sch&ouml;nem Wetter im Garten l&auml;sst es sich herrlich entspannen. Ein in die Gaststube integrierter Geschenkladen sorgt immer f&uuml;r eine gem&uuml;tliche Atmosph&auml;re und f&uuml;r die passende saisonale Dekoration. Auch die kleinen G&auml;ste kommen nicht zu kurz: Die Kinder k&ouml;nnen im Segelboot-Sandkasten spielen oder sich an den Tieren erfreuen! F&uuml;r Durchreisende oder f&uuml;r einen Kurzurlaub am nahen Bodensee bietet der Dornhof zwei gem&uuml;tliche G&auml;stezimmer im famili&auml;ren Rahmen an.</p>", "url": "https://www.dornhof-tg.ch/", "image": "https://sgbtpimtsoch.sos-ch-dk-2.exoscale-cdn.com/catalog/4/b/a/5/4ba54ba934109fabb5d7193fa308dc399a1ddc6b_P9200007.JPG", "openstreetmap_id": "way/424081691"}, "geometry": {"type": "Point", "coordinates": ["9.342720997314753", "47.53592705"]}}, {"type": "Feature", "properties": {"identifier": "3489056f-1185-4c2b-a42a-543bb40d897b", "name": "Berggasthaus Nestel", "description": "<p>Das Berggasthaus Nestel ist modern und doch rustikal, im panoramareichen Toggenburg oberhalb von Ebnat-Kappel. Hier l&auml;sst sich die Region nicht nur zu Fuss erleben, sondern auch mit dem Gaumen geniessen. Regionale Spezialit&auml;ten werden neu interpretiert und kombiniert. So finden sich beispielsweise das regionale Mostbr&ouml;ckli kombiniert mit leicht w&uuml;rzigem K&auml;se in unserem Cordon-Bleu, das Schnitzel sowie ein saftiges Steak gibt es ebenso sowie ein Entercote und ein Pouletbr&uuml;stli und f&uuml;r die Vegis ein Gem&uuml;seschnitzel. Diese Variationen k&ouml;nnen mit Gem&uuml;se, Frittes, Teigwaren oder Salaten kombiniert werden. Zu jeder Jahreszeit gibt es Spezielles zum Beispiel im Herbst, Wild aus heimischer Jagd. Desserts sind alle hausgemacht inklusive alle Glacesorten welche zu herrlichen Coupe Variationen verarbeitet werden. Der Schlorzifladen oder eine Fruchtw&auml;ihe geh&ouml;ren ebenso dazu. Der Aufenthalt muss abends nicht zu Ende sein: vier gem&uuml;tliche Zimmer, ein Holzfass im Freien, die gem&uuml;tliche 2 1/2 Zimmerwohnung und das sch&ouml;ne Massenlager laden zum Verweilen ein.</p>", "url": "http://www.berggasthaus-nestel.ch", "image": "https://sgbtpimtsoch.sos-ch-dk-2.exoscale-cdn.com/catalog/8/2/1/f/821f7a6034466415639fd1fb39234c6de65b6c31_Berggasthause_Nestel3.jpg", "openstreetmap_id": "node/1189827083"}, "geometry": {"type": "Point", "coordinates": ["9.11408700000004", "47.2364493"]}}, {"type": "Feature", "properties": {"identifier": "37d17cdf-dc9b-40d3-9311-e880ed4a9c74", "name": "Bett am Weiher", "description": "Bei der Renovierung des Hauses wurde grossen Wert darauf gelegt, die typischen Merkmale wieder freizulegen. Gleichzeitig wurde dem heutigen Komfortbed\u00fcrfnis Rechnung getragen.\n\nAlte Balken, Treppen, B\u00f6den und T\u00fcren ergeben mit modernen B\u00e4dern, Lampen und der K\u00fcche wundervolle Kombinationen. Das B&B verf\u00fcgt \u00fcber f\u00fcnf stilvolle und grosse Doppelzimmer, jedes mit Dusche und Toilette ausgestattet. Die Zimmer k\u00f6nnen auch einzeln belegt werden.\nIm Fr\u00fchst\u00fccksraum wird t\u00e4glich ein vollwertiges Buffet bereitgestellt.\n\nDas \"Bett am Weiher\" wird wie ein Minihotel ohne Reception gef\u00fchrt.  Unsere G\u00e4ste erhalten nach der Reservierung einen Schl\u00fcsselcode. Mittels diesem Code kann man den Schl\u00fcssel an der Digibox beim Eingang beziehen.\n\nDer gem\u00fctliche Essraum und der Aufenthaltsraum laden zum Verweilen ein. Dort kann man sich ungest\u00f6rt unterhalten oder ein Buch lesen. Zudem stehen verschiedene Gesellschaftsspiele zur Verf\u00fcgung. Der gem\u00fctliche Gartensitzplatz bietet eine wundersch\u00f6ne Aussicht auf den Stadtweiher.", "url": "http://www.bettamweiher.ch", "image": "https://sgbtpimtsoch.sos-ch-dk-2.exoscale-cdn.com/catalog/e/b/b/e/ebbe0ef4bb62ec5f44ea1b7972d419e204e0396b_Bett_am_Weiher.jpg", "openstreetmap_id": "node/7595877018"}, "geometry": {"type": "Point", "coordinates": ["9.04915", "47.46719"]}}, {"type": "Feature", "properties": {"identifier": "46e21fd0-3bd2-4c4a-92e1-5c5fba0343dd", "name": "Hotel M\u00fcnchwilen", "description": "Das Angebot des 4-Sterne-Garni Hotels M\u00fcnchwilen im Hinterthurgau (bei Wil SG) richtet sich vor allem an Gesch\u00e4ftsreisende, G\u00e4ste auf der Durchreise sowie Radfahrer, die das Tannzapfenland, das Z\u00fcrcher Oberland oder die Region Wil - Frauenfeld erkunden wollen und daf\u00fcr eine gepflegte Unterkunft suchen.\n\nZentral gelegen mit unter 45 km zu den Flugh\u00e4fen Z\u00fcrich (ZRH) und St.Gallen - Altenrhein (ACH) verf\u00fcgt M\u00fcnchwilen \u00fcber eine Anbindung zur A1 (20min ab Winterthur und St.Gallen) und ist durch die Frauenfeld-Wil Bahn an das \u00d6V-Netz angeschlossen.\n\nDas Hotel verf\u00fcgt \u00fcber 53 Zimmer und 2 Juniorsuiten mit 112 Betten. Reisende sch\u00e4tzen vor allem den herzlichen und pers\u00f6nlichen Empfang und das k\u00f6stliche Fr\u00fchst\u00fccksbuffet. Dies \u00fcberrascht und \u00fcbersteigt die Erwartungshaltung der Businessreisenden. Das gem\u00fctliche und helle Hotel ist dank des freundlichen Personals auch bei Paaren, Familien, Sportlern und allein reisenden Frauen beliebt.\n\nDas Hotel-M\u00fcnchwilen Team freut sich auf Ihre Reservation.", "url": "https://www.hotel-muenchwilen.ch", "image": "https://sgbtpimtsoch.sos-ch-dk-2.exoscale-cdn.com/catalog/a/4/9/e/a49ef5a2a5a7a86afd7329593cbc3e4290cb4c10_2020_04_23__MG_4645.jpg", "openstreetmap_id": "way/310479238"}, "geometry": {"type": "Point", "coordinates": ["8.998994894621362", "47.477991849999995"]}}, {"type": "Feature", "properties": {"identifier": "48c1d90b-c7fe-42a0-8003-369fe9fd10b8", "name": "Ferienwohnung \"Haus zur Rose\"", "description": "<p>Das 1811 erbaute \"Haus zur Rose\" wurde 2015/16 komplett saniert und vermietet eine Ferienwohnung (95 m2) mit einer voll ausgestatteten K&uuml;che in modernem Design (mit Induktionskochfeld, Dampfabzug, Backofen, Geschirrsp&uuml;lmaschine, K&uuml;hlschrank, Tiefk&uuml;hler und einer Waschmaschine mit integriertem Tumbler), 3 Schlafzimmer (1 Doppelbett, zwei Einzelbetten und einem bequemen Schlafsofa), 1 Badezimmer mit Dusche/WC, 1 Wohnzimmer (mit Sofa, grossem Esstisch und TV), 1 Lese-/Arbeitszimmer (mit einem wundersch&ouml;nen antiken Sekret&auml;r sowie Spielen f&uuml;r unsere kleinen G&auml;ste).</p><p>Der Gartensitzplatz (zur Mitbenutzung) ist ausgestattet mit einer Outdoork&uuml;che sowie Sitz- und Liegem&ouml;beln, Brunnen, Trampolin und Schaukel - ein Ort zum Verweilen und Sonne tanken!</p><p>Die Umgebung l&auml;dt zu Spazierg&auml;ngen und Wanderungen ein. Kulturelle Highlights sind bequem erreichbar und auch kulinarische H&ouml;henfl&uuml;ge gibt es ganz in der N&auml;he zu entdecken.</p><p>Das Tram (Appenzeller Bahn) f&auml;hrt alle 15/30 Minuten nach St.Gallen. Zum Bahnhof St.Gallen dauert die Fahrt knapp 20 Minuten. Mit dem Auto sind sie in 10 Minuten im Zentrum von St.Gallen oder auf der Autobahn.</p><p>Die Ferienwohnung verf&uuml;gt &uuml;ber einen kostenlosen Privatparkplatz.</p>", "url": "https://haus-zur-rose.ch", "image": "https://sgbtpimtsoch.sos-ch-dk-2.exoscale-cdn.com/catalog/0/f/b/7/0fb7a123c92621f0f9ade6ac70bfb56c791c106f_Haus_zur_Rose_Ferienwohnung_01.JPG", "openstreetmap_id": "way/162590658"}, "geometry": {"type": "Point", "coordinates": ["9.4404281", "47.4117892"]}}, {"type": "Feature", "properties": {"identifier": "4ea1f9d6-4676-458b-bc1e-4b433780bc97", "name": "Hotel one66", "description": "Das Hotel one66 ist die perfekte Adresse f\u00fcr Gesch\u00e4ftsleute, Messebesucher, Sportvereine und Reisende, die St.Gallen und Umgebung entdecken m\u00f6chten.\nEs liegt in unmittelbarer N\u00e4he des Autobahnanschlusses A1 St.Gallen-Winkeln. In direkter Umgebung befinden sich das Fussballstadion kybunpark, die Shopping Arena oder die Sportanlage Gr\u00fcndenmoos. Das Stadtzentrum von St.Gallen ist \u2013 sowohl mit Auto als auch mit \u00f6V \u2013 ebenfalls sehr gut erreichbar. \n\nDas Hotel bietet 83 hochwertig ausgestattete Zimmer mit 166 Komfortbetten und modernster Infrastruktur, ein 24 Stunden Self Check-In f\u00fcr Nachtschw\u00e4rmer, eine Bar, die zum Verweilen einl\u00e4dt und ein Fr\u00fchst\u00fccksbuffet, das keine W\u00fcnsche offen l\u00e4sst.", "url": "http://www.hotel-one66.ch/", "image": "https://sgbtpimtsoch.sos-ch-dk-2.exoscale-cdn.com/catalog/e/f/9/c/ef9cc6bebca6b4023df87f9e22044435227437e9_Panorama__2.jpg", "openstreetmap_id": "node/4234030595"}, "geometry": {"type": "Point", "coordinates": ["9.30877899999996", "47.40802499999999"]}}, {"type": "Feature", "properties": {"identifier": "4fa42c79-b2aa-4d2c-8237-b12ce0e442e9", "name": "Hotel Profis - Business Hotel + Bar", "description": "Das renovierte Businesshotel, mit moderner komfortabler Ausstattung, bietet jedes Wohnmodell: gem\u00fctliche Zimmer f\u00fcr einen kurzen Aufenthalt und wohnliche Studios f\u00fcr l\u00e4ngere Aufenthalte. \n\nNach einem anstrengenden Arbeitstag, l\u00e4dt die ebenfalls renovierte Profis Bar f\u00fcr einen entspannten Ausklang ein. Das Hotel liegt nahe am  einzigartigen Naturschutzgebiet \u00abAlter Rhein\u00bb und auch an der Autobahn sowie der \u00f6sterreichischen Grenze. ", "url": "http://www.hotelprofis.ch/", "image": "https://sgbtpimtsoch.sos-ch-dk-2.exoscale-cdn.com/catalog/2/5/5/a/255adcd8b2e1130954db67a520333a9f66b87477_HotelProfis_Zimmer_Deluxe_2022__1.jpg", "openstreetmap_id": "node/7274123107"}, "geometry": {"type": "Point", "coordinates": ["9.6528448", "47.3862623"]}}, {"type": "Feature", "properties": {"identifier": "56fb0462-3fba-44da-b407-31d3b29ce9c7", "name": "Erlebnisbauernhof Steigmatt", "description": "Die Steigmatt liegt an sehr ruhiger Lage mitten in der Rheinebene. Der Hof bietet Kindern viele Freiheiten und Erwachsenen einen gem\u00fctlichen Aufenthalt. Auf dem Hof leben zahlreiche Tiere wie K\u00fche, Rinder, K\u00e4lber, Katzen, Pfauen, der anh\u00e4ngliche Familienhund Svenno und die lustigen Esel Melik, Suleica, Balu, Killimancharo, Aladin, und nat\u00fcrlich Amadeus, das K\u00e4nguru mit Kollegen. \n\nBeim Erlebnisbauernhof gibt es die \u00dcbernachtungsm\u00f6glichkeit im Stroh mit Fr\u00fchst\u00fcck (Nachtessen auf Bestellung) plus eine gem\u00fctliche Fahrt auf dem Rheintaler Binnenkanal. Ebenfalls k\u00f6nnen zwei Doppelzimmer, ein Vierbett-Zimmer und ein Achtbett-Zimmer gebucht werden. F\u00fcr Camper stehen f\u00fcnf Stellpl\u00e4tze zur Verf\u00fcgung.&nbsp;", "url": "http://www.steigmatt.ch/", "image": "https://sgbtpimtsoch.sos-ch-dk-2.exoscale-cdn.com/catalog/1/2/2/8/12289fe8d9651a591bb5f85861d31b3b60132f12_Steigmatt_1_5.jpg", "openstreetmap_id": "way/94814429"}, "geometry": {"type": "Point", "coordinates": ["9.5821614", "47.3530297"]}}, {"type": "Feature", "properties": {"identifier": "577bb9fe-b254-4c00-8b83-9e4f26be9574", "name": "Visimo Apartments - Deluxe Studio", "description": "Das schicke 30 Quadratmeter-Studio-Appartment im Westen von St.Gallen ist ein Wohlf\u00fchlort f\u00fcr bis zu zwei Personen, das einen unvergesslichen Aufenthalt bietet. Dank der guten Verkehrsanbindung an das Bus- und Bahnnetz der Region in unmittelbarer Fussn\u00e4he sind die G\u00e4ste auch ohne Auto in wenigen Minuten in St.Gallen.\n\nEINRICHTUNG\nIn der hellen und mond\u00e4n eingerichteten Wohnung schlafen die G\u00e4ste komfortabel in einem Kingsize-Boxspringbett (180x200cm). Auf dem Balkon lassen sich sch\u00f6ne Sonnenstunden mit Blick auf das voralpine Panorama geniessen. \n\nSPEISEN UND KOCHEN\nEine kleine, aber feine Kochecke, ausgestattet mit Herd, Geschirrsp\u00fcler, Gefrierfach, Mikrowelle, Kaffeemaschine, Wasserkocher, Tellern, Gl\u00e4sern und Besteck, l\u00e4dt dazu ein, Speisen zu kochen, die auf dem kleinen Esstisch, im hellen und gem\u00fctlichem Ambiente, genossen werden k\u00f6nnen.\n\nWEITERE EINRICHTUNGEN\nEine Garderobe und Schrank bieten viel Platz f\u00fcr Kleider und Gep\u00e4ck. F\u00fcr die Unterhaltung an ruhigeren Tagen steht nicht nur kostenloses WLAN, sondern auch ein neuer Smart-TV samt Netflix-Konto und ein SunriseTV-Abo zur Verf\u00fcgung.\n\nEine Waschmaschine und ein Trockner stehen im Keller zur Mitbenutzung bereit. \n\nDas freundliche und aparte Badezimmer ist mit Handseife, Shampoo sowie frischen Handt\u00fcchern ausgestattet. \n\nAuch die vierbeinigen G\u00e4ste sind gerne willkommen.", "url": "https://www.visimo-apartments.ch/apartments-st-gallen/", "image": "https://sgbtpimtsoch.sos-ch-dk-2.exoscale-cdn.com/catalog/f/0/f/6/f0f6837d8c69dd321a158e48820d685a383ef720_317A9233_Edit.jpg", "openstreetmap_id": "309206833"}, "geometry": {"type": "Point", "coordinates": ["9.333691674080267", "47.4067184"]}}, {"type": "Feature", "properties": {"identifier": "5d373c54-9fe8-4ba0-a284-2d37565e5356", "name": "Hotel Hecht", "description": "Wo sich die H\u00fcgel des Appenzellerlandes, die Rheintalebene und die Bodenseelandschaft begegnen, liegt das historische St\u00e4dtchen Rheineck. Und hier, zwischen dem \u00e4ltesten Siedlungsteil, dem Fahr und den dichtgef\u00fcgten Gassen der fr\u00fcheren Stadtmauern, begr\u00fcsst das Hotel Hecht seine G\u00e4ste.\n\nZwei Sterne hat der Hecht, was bestens in die l\u00e4ndliche Region passt. Zum Hotel mit 14 klimatisierten Zimmern geh\u00f6ren im Erdgeschoss ein Restaurant mit 60 Pl\u00e4tzen, eine Sonnenterrasse f\u00fcr 60 und ein Seminarraum (klimatisiert) f\u00fcr 40 G\u00e4ste, sowie im 1. Stock ein Saal (klimatisiert) f\u00fcr bis zu 220 Bankettteilnehmende oder 350 Konzertbesucher mit grosser Terrasse f\u00fcr den Apero.", "url": "http://www.hotelhecht-rheineck.ch/", "image": "https://sgbtpimtsoch.sos-ch-dk-2.exoscale-cdn.com/catalog/7/2/5/4/7254e15ed77c850a8c5bca93532a929ad74d405d_CS_381718.gif", "openstreetmap_id": "node/6515922667"}, "geometry": {"type": "Point", "coordinates": ["9.5918208", "47.4647847"]}}, {"type": "Feature", "properties": {"identifier": "601c5fe7-6a7b-4b20-bd8b-cee70c52d53b", "name": "Weiterbildungszentrum Holzweid mit HSG Alumni Haus", "description": "Die modernen Seminarr\u00e4ume bieten eine ideale Infrastruktur f\u00fcr Seminare, Workshops, Pr\u00e4sentationen und Kongresse bis 300 Personen. Die R\u00e4ume werden von der Universit\u00e4t St.Gallen f\u00fcr Weiterbildungsprogramme und andere Veranstaltungen genutzt. Auch externe Unternehmen k\u00f6nnen die R\u00e4ume tage- oder wochenweise mieten. Zum Weiterbildungszentrum Holzweid geh\u00f6rt das HSG Alumni Haus mit 54 G\u00e4stezimmern, Fitnessraum und Sauna. Am Wochenende (Freitag bis Montag) profitieren G\u00e4ste von einem verg\u00fcnstigten Zimmerpreis. F\u00fcr Gruppen werden \u00fcber das Wochenende auf Anfrage spezielle Konditionen angeboten.", "url": "http://www.wbz.unisg.ch/", "image": "https://sgbtpimtsoch.sos-ch-dk-2.exoscale-cdn.com/catalog/5/d/8/8/5d88ba558e12bc4bdb0330705a5a0cc1b5f241df_195a4f91e67a53675b7ffdb1e4fdb722a79f2d67_WBZ_Holzweid_Aussenansicht_web.jpg", "openstreetmap_id": "way/314266297"}, "geometry": {"type": "Point", "coordinates": ["9.374824762344362", "47.43792121703876"]}}, {"type": "Feature", "properties": {"identifier": "6c64002c-6e0b-4240-a0c0-281fca5079c8", "name": "Hotel Heiden", "description": "<p>Das Hotel Heiden begeistert mit seiner einzigartigen Lage hoch &uuml;ber dem Bodensee und verbindet auf harmonische Weise Tradition mit zeitgemaessem Komfort. Die 58 Zimmer und Junior-Suiten &ndash; viele mit Balkon und atemberaubender Seesicht &ndash; bieten mit Boxspringbetten und barrierefreien Regenduschen hoechsten Komfort. Liebevolle Details, inspiriert von der reichen Textilgeschichte der Region, verleihen den R&auml;umen besonderen Charme.</p>\n<p>Kulinarisch verw&ouml;hnt das Restaurant Acht mit saisonalen Koestlichkeiten und Appenzeller Klassikern aus besten regionalen Zutaten. An sonnigen Tagen l&auml;dt das Gartenrestaurant mit Lounge zum Geniessen mit Panoramablick ein.</p>\n<p>In der 1000 m&sup2; grossen Wellnesslandschaft finden Gaeste Ruhe und Erholung &ndash; vom Panorama-Schwimmbad ueber Aussen-Whirlpool bis zum vielfaeltigen Saunabereich. Massagen und Anwendungen schenken neue Energie und inneres Gleichgewicht.</p>\n<p>Auch fuer Seminare bietet das Hotel Heiden mit lichtdurchfluteten, top ausgestatteten Raeumen den perfekten Raum f&uuml;r kreative Ideen und nachhaltigen Erfolg.</p>", "url": "http://www.hotelheiden.ch/", "image": "https://sgbtpimtsoch.sos-ch-dk-2.exoscale-cdn.com/catalog/0/a/a/0/0aa0e4b113032b6c9abf5941a23d32e31005bd8f_HotelHeiden_byIlonaZuest_high_040.jpg", "openstreetmap_id": "way/199504882"}, "geometry": {"type": "Point", "coordinates": ["9.533705", "47.445726"]}}, {"type": "Feature", "properties": {"identifier": "73060356-35bf-47d4-a0ce-330aeedecd4a", "name": "Mama Home", "description": "Wundersch\u00f6n eingerichtete Wohnungen (wohnen wie Zuhause) mitten in der Stadt St.Gallen mit Blick auf Kathedrale und Kloster und 5 Minuten zu Fuss in die Innenstadt. Alle Wohnungen verf\u00fcgen \u00fcber eine K\u00fcche mit Backofen, K\u00fchlschrank, Sp\u00fclmaschine, Kaffeemaschine, Wasserkocher, Glaskeramikherd, Gefrierschrank, TV-Flachbildschirm, Wireless LAN, Bad, Wohnzimmer, Schlafzimmer, komplett ausgestattete K\u00fcche. Teilweise mit Parkplatz vor dem Haus. Der Housekeeper wohnt im Haus und k\u00fcmmert sich um den Service f\u00fcr die G\u00e4ste.", "url": "http://www.mama-home.ch", "image": "https://sgbtpimtsoch.sos-ch-dk-2.exoscale-cdn.com/catalog/2/4/2/5/24257432589064c1fc6d1cbc4a0a4f0ec1880194_logo_all_in.jpg", "openstreetmap_id": "way/309646633"}, "geometry": {"type": "Point", "coordinates": ["9.380558", "47.422904"]}}, {"type": "Feature", "properties": {"identifier": "7451b93b-509b-40aa-af5e-4160286ce20b", "name": "Atzm\u00e4nnig Lodge", "description": "<p>Die Zimmer in der Atzm\u00e4nnig Lodge bestechen durch ihren rustikalen, gem\u00fctlichen und alpin-schicken Stil. S\u00e4mtliche Zimmer sind mit Dusche, WC und vielen Annehmlichkeiten* ausgestattet. Ob f\u00fcr den Individualgast, einen Ausflug zu zweit, eine Hochzeit, Gruppen- oder Firmenausfl\u00fcge, das Familienfest oder Familienurlaub mit Kindern, die Atzm\u00e4nnig Lodge bietet eine grosse Vielfalt an \u00dcbernachtungsm\u00f6glichkeiten.  \n\n*Haartrockner, Frottew\u00e4sche, Minibar, Kleiderschrank mit B\u00fcgel, Shampoo + Seife, Wasserflasche, Wasserkocher, Teebeutel und Kaffeepulver.</p><p>Das Restaurant bietet einen grossen, gem\u00fctlich eingerichteter Selbstbedienungsbereich mit grosser Sonnenterrasse. Der renovierte Saal eignet sich f\u00fcr Teamanl\u00e4sse, Meetings oder Versammlungen.&nbsp;</p>", "url": "https://www.atzmaennig.ch/", "image": "https://sgbtpimtsoch.sos-ch-dk-2.exoscale-cdn.com/catalog/e/e/d/3/eed39a6e58d22f5797eeb1312b8650758e1f4c5e_image00043__2.jpeg", "openstreetmap_id": "way/196376463"}, "geometry": {"type": "Point", "coordinates": ["8.996161222457888", "47.284658637716994"]}}, {"type": "Feature", "properties": {"identifier": "7ce44590-b8fd-401f-a037-2d0182032f96", "name": "B&B Kugelturm in der Markthalle Altenrhein - Hundertwasser Architektur", "description": "In der Markthalle Altenrhein bietet sich die einzigartige Gelegenheit, in einem Haus des \u00f6sterreichischen Architekten Friedensreich Hundertwasser zu \u00fcbernachten.\n\nDie Markthalle liegt am beliebten Bodenseeradweg. Etwa 300 Meter vom See entfernt. In unmittelbarer N\u00e4he befindet sich der Flughafen St. Gallen-Altenrhein und das FFA Flug- und Fahrzeugmuseum. Vom Fenster aus kannst du die Flugzeuge abheben sehen. In Richtung Wien oder sonst wo hin.\n\nDas 2-st\u00f6ckige Appartement bietet viel Platz f\u00fcr 1-2 Erwachsene (keine Kinder). Auch Hunde sind herzlich willkommen. Fahrr\u00e4der k\u00f6nnen untergestellt und E-Bikes aufgeladen werden. Rund ums Haus sind gratis Parkpl\u00e4tze vorhanden.", "url": "https://markthalle-altenrhein.ch/bed-breakfast/", "image": "https://sgbtpimtsoch.sos-ch-dk-2.exoscale-cdn.com/catalog/f/9/5/4/f954d18e49c3b681fae1b53ec1008404cd636492_Markthalle_GW_CMYK__2.jpg", "openstreetmap_id": "way/103450475"}, "geometry": {"type": "Point", "coordinates": ["9.547996106343284", "47.4850552"]}}, {"type": "Feature", "properties": {"identifier": "82c4992f-38ff-4a9b-bee8-8c5deef1c37f", "name": "Appenzeller Huus", "description": "<p class=\"MsoNormal\">Das Huus B&auml;ren 3* ist das &auml;lteste Geb&auml;ude in Gonten aus dem Jahr 1602 und der Ursprung des Appenzeller Huus Resorts. Nach einer umfassenden Renovierung empf&auml;ngt es seit 2020 G&auml;ste in zw&ouml;lf Zimmern und Suiten, die im alpinen Appenzeller Chic gestaltet sind. F&uuml;r inspirierende Meetings und Workshops stehen zwei R&auml;ume f&uuml;r acht bis zehn Personen zur Verf&uuml;gung.</p><p class=\"MsoNormal\">Das Huus L&ouml;wen 4*, direkt gegen&uuml;ber liegend, verbindet Tradition mit modernen Designelementen. Seit Sommer 2023 bietet es in 24 Zimmern und Suiten ein einmaliges Zuhause auf Zeit. Die nat&uuml;rlichen Materialien laden zu entspannten Stunden im malerischen Appenzellerland ein. Im lichtdurchfluteten L&ouml;wensaal k&ouml;nnen kreative und produktive Veranstaltungen mit bis zu 80 Personen stattfinden.</p><p class=\"MsoNormal\">Das Huus Quell 5* verspricht seit Herbst 2025 Erholung auf h&ouml;chstem Niveau. Der hochmoderne und nachhaltige Neubau aus massiver Holzbauweise verspr&uuml;ht zeitlose Eleganz. Die 30 Zimmer und Suiten sind im eleganten Appenzeller Stil und Mondholz-Design gestaltet. Der 2'200<span style=\"font-family: 'Arial',sans-serif;\">\u202f</span>m<span style=\"mso-bidi-font-family: Indivisible;\">&sup2;</span> grosse Wellnessbereich bietet besondere Entspannungsmomente.</p><p class=\"MsoNormal\">Alle H&auml;user setzen auf hochwertige Textilien von Jakob Schlaepfer: Tapeten, Vorh&auml;nge, Bettw&auml;sche und mehr pr&auml;gen das Ambiente.</p><p class=\"MsoNormal\">Das Team um Executive Chef Carsten Kypke verw&ouml;hnt mit authentischer, regional inspirierter K&uuml;che in unterschiedlichen R&auml;umlichkeiten. Ob in der B&auml;renstobe, der L&ouml;wenstobe, auf der Sonnenterrasse, in der Jakob Schlaepfer Lounge oder im <span data-olk-copy-source=\"MessageBody\">Restaurant QUELL, wo ein breites Sharing Menu angeboten wird</span>&nbsp;&ndash; hier l&auml;sst es sich geniessen.</p>", "url": "https://appenzellerhuus.ch/", "image": "https://sgbtpimtsoch.sos-ch-dk-2.exoscale-cdn.com/catalog/8/4/f/c/84fc6caddfbb93feca9e0527f115740150efd178_hc_appenzellerhuus_033.jpg", "openstreetmap_id": "way/197583924"}, "geometry": {"type": "Point", "coordinates": ["9.34666089999996", "47.3285937"]}}, {"type": "Feature", "properties": {"identifier": "83d72254-5ead-488b-b7ce-ec2da96a7ab7", "name": "ibis Styles St Margrethen Bodensee", "description": "Das Designhotel ibis Styles St Margrethen l\u00e4dt mit einem offenen Raumkonzept zum Ankommen ein. Echtholzm\u00f6bel mit individueller Maserung bringen einzigartigen Charakter in das Interieur. Warme Farben unterstreichen den nat\u00fcrlichen Eindruck und sorgen f\u00fcr Wohlf\u00fchlatmosph\u00e4re. Egal ob Gesch\u00e4ftsreise, Erholungsurlaub oder Wanderabenteuer: Hier erleben die G\u00e4ste einen unvergesslichen Aufenthalt und entdecken den Charme der Ostschweiz zwischen Alpen und Bodensee hautnah.\n\nAls zertifiziertes \"Bikehotel\" verf\u00fcgt das Ibis Styles St Margrethen \u00fcber einen abschliessbaren Fahrradkeller mit einigen Extras.", "url": "https://all.accor.com/hotel/B5W6/index.en.shtml", "image": "https://sgbtpimtsoch.sos-ch-dk-2.exoscale-cdn.com/catalog/6/5/c/4/65c4ff13ab123d35220ed2826dc339ee19c67761_Aussenansicht_2.jpg", "openstreetmap_id": "way/762591508"}, "geometry": {"type": "Point", "coordinates": ["9.635871514244224", "47.450590250123"]}}, {"type": "Feature", "properties": {"identifier": "843063b7-1f5e-498e-ba2e-54f34a0f5147", "name": "Boutique Hotel City Weissenstein", "description": "Mit einer grossz\u00fcgigen, wohnlich eingerichteten Lobby, 32 stilvollen und individuellen Zimmern und einem kreativen Workshopraum l\u00e4dt das Hotel nicht nur zum \u00dcbernachten, sondern auch Verweilen und Tagen ein. Stoffe von Jakob Schlaepfer und Christian Fischbacher sind im ganzen Haus zu finden und verleihen den modernen Elementen eine gem\u00fctliche Note.\n \nDas Hotel ist nur wenige Schritte vom Bahnhof entfernt. Auch Restaurants, Museen, Kinos und Theater sind bequem zu Fuss erreichbar.\n\nWas auch immer Sie nach St.Gallen f\u00fchrt, im Boutique&nbsp;Hotel City Weissenstein finden Gesch\u00e4ftsreisende, Familien, Paare und Langzeitaufenthalter ihre vier W\u00e4nde zum Ankommen und Wohlf\u00fchlen.\n\nDer Seminarraum hat eine Gr\u00f6sse von 70qm.", "url": "http://sorellhotels.com/city-weissenstein", "image": "https://sgbtpimtsoch.sos-ch-dk-2.exoscale-cdn.com/catalog/2/8/5/c/285cab8e21310d534274f0761a0f4047ae3ca4ab_133_Sorell_Hotel_City_Weissenstein_Lobby_1.jpg", "openstreetmap_id": "way/145447662"}, "geometry": {"type": "Point", "coordinates": ["9.3698661", "47.4207437"]}}, {"type": "Feature", "properties": {"identifier": "8ce45a6e-b9e7-4ba2-8759-67dd68a5ec4a", "name": "Campingplatz Lee St. Gallen - Wittenbach", "description": "<p>Schmales, ebenes Wiesengel&auml;nde zwischen dem Fluss \"Sitter\" und einem bewaldetem Hang. Ruhiger, einfacher, famili&auml;rer und gepflegter Campingplatz. Die zentrumsnahe Lage, ca. 30 Minuten mit &Ouml;V in das Herzen der Stadt St. Gallen und der neuen guten &Ouml;V-Verbindungen, machen diesen Standort sehr attraktiv. Dieser Ort wird nicht nur von St&auml;dtetrip-Besuchern, Hundesportfreunde, Sport-, Kultur-, Naturbegeisterte, wie auch von Familien und Erholungssuchende gesch&auml;tzt. Gilt dieser Standort doch als idealer Ausgangspunkt f&uuml;r diverse Aktivit&auml;ten.</p><p>&nbsp;</p>", "url": "https://www.ccc-stgallen.ch/", "image": "https://sgbtpimtsoch.sos-ch-dk-2.exoscale-cdn.com/catalog/0/2/f/0/02f00da3520d7ec41f386c4039a287750c7ace90_Reservation__3.JPG", "openstreetmap_id": "way/1080707241"}, "geometry": {"type": "Point", "coordinates": ["9.36612", "47.45896"]}}, {"type": "Feature", "properties": {"identifier": "8f1625cc-e51c-4c08-9ff8-7d7692449b52", "name": "Gruppenhaus L\u00f6chli Niederglatt", "description": "Das Grundst\u00fcck L\u00f6chli umfasst etwa 1.4 Hektaren Fl\u00e4che und bietet Natur pur. Hauseigener Mischwald, Bach und Wiese laden zu gen\u00fcsslichen Spazierg\u00e4ngen und abenteuerlichen Erkundungen ein. Die grosse, auf zwei Ebenen angelegte Hauswiese eignet sich hervorragend f\u00fcr Spiel und Spass oder auch zum Entspannen. Das grosse Haus ist sehr gem\u00fctlich eingerichtet. Die grossz\u00fcgigen Einzel- und Doppelzimmer sind \u00e4usserst beliebt. \n\nAngebot:\n- 10 Schlafzimmer mit insgesamt 19 Betten\n- Matratzenlager mit 11 Matratzen", "url": "http://www.loechli.ch/", "image": "https://sgbtpimtsoch.sos-ch-dk-2.exoscale-cdn.com/catalog/0/3/c/2/03c28e82c4d76d056404e7cb94f4d04b6e1137fc_P1000289.JPG", "openstreetmap_id": "way/37627472"}, "geometry": {"type": "Point", "coordinates": ["9.156378191507855", "47.4386301"]}}, {"type": "Feature", "properties": {"identifier": "9262161f-7184-4560-93d1-ff03cb8d400b", "name": "Hotel Walhalla", "description": "<p>Das Hotel Walhalla geh&ouml;rt seit dem 19. Jahrhundert zum St.Galler Stadtbild. Erstmals beherbergte der Bau Hotelg&auml;ste im Jahr 1887. Um den G&auml;sten weiterhin ein zeitgem&auml;sses Ambiente zu bieten, wurde das Hotel Walhalla im Mai 2018 f&uuml;r eine umfangreiche Renovierung geschlossen. Das Traditionshaus verf&uuml;gt &uuml;ber 100 Zimmer mit komfortabler Ausstattung, der Brasserie Walhalla mit Schweizer Spezialit&auml;ten und der Walhalla Bar, mit einer grossen Auswahl an lokalen und internationalen Getr&auml;nken und Snacks. Mit der zentralen Lage am Bahnhof St.Gallen und dem erweiterten Seminarbereich mit sechs R&auml;umen und modernster Seminartechnik bietet das Hotel optimale Voraussetzungen f&uuml;r Veranstaltungen.</p>", "url": "http://www.hotelwalhalla.ch/", "image": "https://sgbtpimtsoch.sos-ch-dk-2.exoscale-cdn.com/catalog/1/a/9/7/1a972a61a88eb03cc183798bd670788f5307ca8b_7S9A8647___BZ__2.jpg", "openstreetmap_id": "node/445467384"}, "geometry": {"type": "Point", "coordinates": ["9.3711451", "47.4238762"]}}, {"type": "Feature", "properties": {"identifier": "9d1becc9-676c-4a43-b588-cbd5f1082d95", "name": "B&B Chez Lise", "description": "Die Inhaberin, Lise Frischknecht, zaubert f\u00fcr ihre G\u00e4ste k\u00f6stliche Gerichte und macht den Aufenthalt zu einem echt authentischen Erlebnis. Auf Anfrage erhaschen die G\u00e4ste sogar einen Einblick in den beachtlichen Weinkeller.\n\nDie unmittelbare Lage zum Zentrums erm\u00f6glicht Ausflugstipps diverser Art wie Wandern, Museumsbesuche, Langlaufen, Schneeschuhwandern, Schwimmen im Freibad und viele mehr.   \n\nDie G\u00e4ste erleben einen nachhaltigen Komfort im BnB Chez Lise, wo Solaranlage, Luftw\u00e4rmepumpe und konsequente Abfalltrennung f\u00fcr eine umweltfreundliche Auszeit sorgen. \n\nAuf Anfrage k\u00f6nnen Kochkurse und Weindegustationen gebucht werden.", "url": "https://chezlise.ch/", "image": "https://sgbtpimtsoch.sos-ch-dk-2.exoscale-cdn.com/catalog/7/6/a/e/76aeff59bbd723a50db8712d413ebd3cf009893c_Hauptbild.jpeg", "openstreetmap_id": "way/264867188"}, "geometry": {"type": "Point", "coordinates": ["9.28126245", "47.31393"]}}, {"type": "Feature", "properties": {"identifier": "9fb29a16-da84-4df9-9d90-24e5342fd547", "name": "Appadu.ch - das Appartement und Du!", "description": "Ausserdem entscheidet der Gast selbst wie viel Hotel er will:\nZimmerreinigung t\u00e4glich oder w\u00f6chentlich, Fr\u00fchst\u00fcck oder nicht, usw.\nDer Gast hat die Wahl. \n\nDie Longstay Appartements beinhalten folgende Standard-Leistungen:\n\n- Heimeliges Wohnungsflair ohne m\u00fchsames Einrichten\n- Einzug sofort m\u00f6glich\n- 1 Schlaf- und 1 Wohnzimmer, 1 Bad und grosser sonniger Balkon\n- Nichtraucher-Appartement\n- K\u00fcchenzeile mit K\u00fcchenausstattung, K\u00fchlschrank und Mikrowelle\n- Fr\u00fchst\u00fcck flexibel zu buchbar", "url": "https://appadu.ch", "image": "https://sgbtpimtsoch.sos-ch-dk-2.exoscale-cdn.com/catalog/c/e/c/2/cec2a2cb4c226ef86b759971bd210b2b4ae77339_200922_NEW2001_3933_min.jpg", "openstreetmap_id": "node/4231981291"}, "geometry": {"type": "Point", "coordinates": ["9.31070923805237", "47.40794906154153"]}}, {"type": "Feature", "properties": {"identifier": "a257cd91-cc96-4785-8e83-93e9c4f61054", "name": "Hotel Mozart Rorschach", "description": "<p>Das Hotel Mozart befindet sich an zentraler und doch ruhiger Lage am Hafenstadt-Puls. Die liebevoll eingerichteten Zimmer verbinden gem&uuml;tlichen Komfort mit einer einladenden Atmosph&auml;re und bieten alles f&uuml;r einen erlebnisreichen Aufenthalt.&nbsp;</p><h2>&nbsp;</h2>", "url": "http://www.mozart-rorschach.ch/", "image": "https://sgbtpimtsoch.sos-ch-dk-2.exoscale-cdn.com/catalog/d/d/5/6/dd566d39fd7c2e33013ed3c910b1718f361ca77e_Hotel_Mozart_Aussenansicht.jpg", "openstreetmap_id": "node/3318472123"}, "geometry": {"type": "Point", "coordinates": ["9.49113239999997", "47.4790167"]}}, {"type": "Feature", "properties": {"identifier": "a9f96fdc-b021-41a3-beab-235d49ac32bb", "name": "Gasthaus R\u00f6ssli Trogen", "description": "Das authentisch erhaltene dreihundertj\u00e4hrige Appenzeller Gasthaus in Trogen bietet f\u00fcnf frisch renovierte Doppelzimmer und ein Einzelzimmer mit individuellem Charme, Duschen und Toiletten auf dem Gang und eine kleine Dachterasse. Der wundersch\u00f6ne R\u00f6sslisaal kann f\u00fcr Tanz, Bewegung, Kurse und gesellschaftliche Anl\u00e4sse gemietet werden.", "url": "https://www.roesslisaal.com", "image": "https://sgbtpimtsoch.sos-ch-dk-2.exoscale-cdn.com/catalog/b/a/c/2/bac20d20c3292105bc28692b28086a587186b157_DSC_0942.jpg", "openstreetmap_id": "way/199514184"}, "geometry": {"type": "Point", "coordinates": ["9.463527939287612", "47.40842815"]}}, {"type": "Feature", "properties": {"identifier": "b4dbe755-ad8a-4c59-a551-c12592c6ef10", "name": "RB Apartments", "description": "<p class=\"PDq2pG_selectionAnchorContainer\" data-start=\"98\" data-end=\"360\">Geniesse einen komfortablen Aufenthalt im Herzen von St.Gallen. Restaurants, Einkaufsm&ouml;glichkeiten, &ouml;ffentliche Verkehrsmittel und das Stadtzentrum sind in nur f&uuml;nf Minuten erreichbar. Ideal f&uuml;r Gesch&auml;ftsreisen, Studierende, St&auml;dtereisen und l&auml;ngere Aufenthalte.</p><p data-start=\"362\" data-end=\"441\">Mara und Adrian freuen sich darauf, G&auml;ste aus aller Welt willkommen zu heissen.</p><p data-start=\"362\" data-end=\"441\">Die Unterkunft</p><p data-start=\"462\" data-end=\"520\">Gem&uuml;tliche Stadtwohnung mit 54 m&sup2; im Herzen von St.Gallen.</p><p data-start=\"462\" data-end=\"520\">Ausstattung</p><ul data-start=\"539\" data-end=\"731\"><li data-section-id=\"1rsoguy\" data-start=\"539\" data-end=\"587\">1 Schlafzimmer mit grossem Bett (180 &times; 220 cm)</li><li data-section-id=\"xkzv0j\" data-start=\"588\" data-end=\"602\">1 Wohnzimmer</li><li data-section-id=\"1m3xnns\" data-start=\"603\" data-end=\"635\">1 Badezimmer mit Dusche und WC</li><li data-section-id=\"4xd021\" data-start=\"636\" data-end=\"683\">1 voll ausgestattete K&uuml;che mit Geschirrsp&uuml;ler</li><li data-section-id=\"kfxqk5\" data-start=\"684\" data-end=\"703\">1 Eingangsbereich</li><li data-section-id=\"zrzlr\" data-start=\"704\" data-end=\"731\">1 kleiner privater Garten</li></ul><p>Weitere Annehmlichkeiten</p><ul data-start=\"763\" data-end=\"1032\"><li data-section-id=\"1j3unvj\" data-start=\"763\" data-end=\"769\">Lift</li><li data-section-id=\"1qinbmf\" data-start=\"770\" data-end=\"780\">M&ouml;bliert</li><li data-section-id=\"1ckeupe\" data-start=\"781\" data-end=\"799\">Kostenloses WLAN</li><li data-section-id=\"1yxc5wt\" data-start=\"800\" data-end=\"890\">Waschmaschine und Trockner stehen im Geb&auml;ude gegen eine zus&auml;tzliche Geb&uuml;hr zur Verf&uuml;gung</li><li data-section-id=\"1yieugo\" data-start=\"891\" data-end=\"975\">&Ouml;ffentliche Parkpl&auml;tze sind gegen Geb&uuml;hr in ca. 10 Gehminuten Entfernung verf&uuml;gbar</li><li data-section-id=\"kco8nh\" data-start=\"976\" data-end=\"1000\">Im Erdgeschoss gelegen</li><li data-section-id=\"1e0cx95\" data-start=\"1001\" data-end=\"1032\">Verdunkelungsrollos vorhanden</li></ul><p>Hervorragende Lage</p><ul data-start=\"1057\" data-end=\"1455\" data-is-last-node=\"\" data-is-only-node=\"\"><li data-section-id=\"125ohjc\" data-start=\"1057\" data-end=\"1089\">5 Minuten bis ins Stadtzentrum</li><li data-section-id=\"txsbw3\" data-start=\"1090\" data-end=\"1172\">5 Minuten zu Superm&auml;rkten, Gesch&auml;ften, Restaurants, Bars und Ausgehm&ouml;glichkeiten</li><li data-section-id=\"1nkf413\" data-start=\"1173\" data-end=\"1211\">5 Minuten zum Hauptbahnhof St.Gallen</li><li data-section-id=\"1jadz6o\" data-start=\"1212\" data-end=\"1256\">10 Minuten zur Universit&auml;t St.Gallen (HSG)</li><li data-section-id=\"18lhwik\" data-start=\"1257\" data-end=\"1310\">15 Minuten mit dem Bus zu den Olma Messen St.Gallen</li><li data-section-id=\"bzv1rk\" data-start=\"1311\" data-end=\"1405\">15 Minuten mit dem Bus zum Kinderspital und Kantonsspital St.Gallen (HOCH Health Ostschweiz)</li><li data-section-id=\"15ubl1o\" data-start=\"1406\" data-end=\"1455\" data-is-last-node=\"\">Sehr gute Anbindung an den &ouml;ffentlichen Verkehr</li></ul>", "url": "http://airbnb.com/h/apartment-sg", "image": "https://sgbtpimtsoch.sos-ch-dk-2.exoscale-cdn.com/catalog/2/5/3/6/253600a11493152f82bb20a5902644a3babce225_Schlafzimmer___1_.jpg", "openstreetmap_id": "way/308387989"}, "geometry": {"type": "Point", "coordinates": ["9.3705279", "47.4266824"]}}, {"type": "Feature", "properties": {"identifier": "b613c74c-f5d0-41a5-a4d1-8680d33a8982", "name": "Brugger Ferienhaus Salomonstempel", "description": "Das Brugger Ferienhaus Salomonstempel befindet sich in s\u00fcdwestlicher Richtung des Dorfes Hemberg auf einer idyllischen Anh\u00f6he (1138 m \u00fc. M.) mit einer prachtvollen Aussicht ins Alpsteinmassiv und ins Unterland. \n\nDas Haus ist ideal f\u00fcr Ferien- und Schullager, aber auch f\u00fcr Festanl\u00e4sse, Firmen usw. Es ist mit total 55 Betten ausgestattet, 31 im neuen beheizbaren und 24 im alten Teil des Hauses. Es gibt Zweier-, Dreier- und Viererzimmer und sowie einen separaten Leitertrakt mit Dusche und WC. \n\nIm Weitern sind eine moderne Hotelk\u00fcche mit Geschirrsp\u00fclmaschine vorhanden, eine Dusch- und Waschanlage, ein ger\u00e4umiger Esssaal, ein Spiel- und Aufenthaltsraum, drei Fussballk\u00e4sten, Tischtennistische vor und im Hause, Tische und St\u00fchle f\u00fcr die Bestuhlung der Terrasse, ein Gartengrill, eine Spielwiese und anderes mehr.", "url": "http://www.salomonstempel-hemberg.ch", "image": "https://sgbtpimtsoch.sos-ch-dk-2.exoscale-cdn.com/catalog/8/3/7/5/83759ce1fd848f709c00fbc2588169ae620b5e10_Salomonstempel__25.5.05_002.jpg", "openstreetmap_id": "node/3020413824"}, "geometry": {"type": "Point", "coordinates": ["9.15462", "47.28294"]}}, {"type": "Feature", "properties": {"identifier": "b629fecf-05bc-48ee-948f-a74b563fc188", "name": "Einstein St.Gallen", "description": "<p data-start=\"153\" data-end=\"709\">Zentral und doch ruhig gelegen, nur wenige Schritte vom historischen Klosterviertel entfernt, vereint das Hotel Einstein St.Gallen 4* Superior stilvolle Architektur, erstklassige Gastronomie und St.Galler Textilkultur auf h&ouml;chstem Niveau. Die Zimmer und Suiten (darunter auch die <a href=\"https://www.einstein.ch/de/zimmer/textilland-junior-suite\" target=\"_blank\" rel=\"noopener\">Textilland-Junior-Suite</a>) bieten Wohnkomfort mit edelsten Materialien wie Marmor, Kirschbaum und Textilien in h&ouml;chster St.Galler Qualit&auml;t: reine Seidenvorh&auml;nge, Bettw&auml;sche aus feinster Baumwolle, Daunenduvets, hochwertige Matratzen und Teppiche aus Lammwolle oder Parkettboden.</p>\n<p data-start=\"711\" data-end=\"1118\">Kulinarisch verw&ouml;hnt das Haus mit dem ausgezeichneten Einstein Gourmet (2 Michelin-Sterne, 18 GaultMillau-Punkte), dem Bistro St.Gallen sowie einer stilvollen Bar mit Cigar Lounge. Entspannung bietet der 3000\u202fm&sup2; grosse Fitnesspark mit Sauna und Wellnessbereich. Als f&uuml;hrendes Kongresshaus der Ostschweiz bietet das Einstein zudem moderne Seminarr&auml;ume und elegante S&auml;le f&uuml;r Anl&auml;sse aller Art.</p>", "url": "https://www.einstein.ch/de/", "image": "https://sgbtpimtsoch.sos-ch-dk-2.exoscale-cdn.com/catalog/9/c/1/4/9c143a65bc5849a9cf3d8b28cff8d0a74869dcc8_Key_Visual_Einstein_St.Gallen.jpg", "openstreetmap_id": "node/445628383"}, "geometry": {"type": "Point", "coordinates": ["9.37537", "47.4214"]}}, {"type": "Feature", "properties": {"identifier": "b66547e3-91a8-4a6b-8c50-b3a3d0639ddd", "name": "Hotel Krone Speicher", "description": "Das Hotel Krone Speicher befindet sich im Herzen von Speicher im Kanton Appenzell Ausserrhoden und bietet den G\u00e4sten Komfort und historischen Charme in einem vollst\u00e4ndig renovierten Geb\u00e4ude von 2015.\n\nModerne, ger\u00e4umige Zimmer: Alle Zimmer verf\u00fcgen \u00fcber einen Sitzbereich, Flachbild-TV, kostenfreies WLAN und einen Safe. Im eigenen Bad finden Sie kostenfreie Pflegeprodukte und Hausschuhe.\n\nFr\u00fchst\u00fcck und Gastronomie: Jeden Morgen wird ein Fr\u00fchst\u00fcck im Gasthaus Krone serviert, begleitet von kostenlosen Zeitungen. Das \u00c0-la-carte-Restaurant bietet saisonale und regionale Schweizer K\u00fcche.\n\nBequeme Erreichbarkeit: Das Hotel ist leicht mit dem Auto oder den \u00f6ffentlichen Verkehrsmitteln zu erreichen, bietet kostenfreie Parkpl\u00e4tze und liegt nur 100 m vom Bahnhof entfernt.\n\nZentrale Lage: Nur 7 km oder 10 Fahrminuten von St. Gallen entfernt und 66 km vom Flughafen Z\u00fcrich.\n\nDie G\u00e4ste erleben hier den perfekten Mix aus modernem Komfort und traditionellem Charme im Hotel Krone Speicher \u2013 der ideale Ort im Appenzellerland.", "url": "https://www.krone-speicher.ch", "image": "https://sgbtpimtsoch.sos-ch-dk-2.exoscale-cdn.com/catalog/e/d/7/5/ed75267c788b76cdd709b43be072c798413e4cee_Bild_3.jpg", "openstreetmap_id": "way/168564831"}, "geometry": {"type": "Point", "coordinates": ["9.441123604774477", "47.411913466244265"]}}, {"type": "Feature", "properties": {"identifier": "b71671b1-c609-46e5-959a-52b2fec823a0", "name": "Tailormade Hotel LEO St.Gallen", "description": "Das Tailormade Hotel LEO St.Gallen wurde vom renommierten Architekten Roger Boltshauser entworfen und liegt direkt am Bahnhof St.Gallen in unmittelbarer N\u00e4he vom Autobahnanschluss. Zeitloses Design mit organischen Materialien wie Lehmziegel und Massivholz pr\u00e4gen das Bild des eleganten Baus direkt neben der Lokremise.\n\nDas japanische Restaurant Izakaya Ekimae im Erdgeschoss bietet traditionelle und kreative K\u00fcche zum Teilen.\n\nAuf dem Dach laden eine Dachterrasse sowie ein kleiner Wellnessbereich mit Sauna, Workout Raum und Hot Pot zum Verweilen ein.", "url": "https://www.tmh.swiss/leo", "image": "https://sgbtpimtsoch.sos-ch-dk-2.exoscale-cdn.com/catalog/4/c/4/8/4c48cd1645a91de8a687381048fa43138c56681f_20230714_TAILORMADE_LEO_FASSADE_010.jpg", "openstreetmap_id": "way/629221668"}, "geometry": {"type": "Point", "coordinates": ["9.365029335021974", "47.421743137363855"]}}, {"type": "Feature", "properties": {"identifier": "b86fdf67-30f0-4fde-a8ec-f65b7bc3208d", "name": "Hotel Arenenberg", "description": "Auf dem Arenenberg f\u00e4llt es leicht, den Alltag hinter sich zu lassen, bei Seminaren und Tagungen frische Ideen zu entwickeln oder sich einfach zu erholen. Mit seinen hellen und komfortablen R\u00e4umen bietet das Hotel Arenenberg Tagungs- und Ferieng\u00e4sten daf\u00fcr den passenden Rahmen. Es ist nur ein paar Schritte vom Schloss entfernt, in dem Napoleon III. \u2013 der letzte Kaiser Frankreichs \u2013 einen Teil seiner Kindheit und Jugend verbrachte. Heute befindet sich dort das Napoleonmuseum und zeigt die original eingerichteten R\u00e4ume, in denen schon die kaiserliche Familie ihre G\u00e4ste empfing. Die Tradition des gastlichen Schlossguts wird heute im Hotel Arenenberg fortgef\u00fchrt. Mit eigener Liegewiese am See ist es zugleich idealer Ausgangpunkt zur Erkundung der herrlichen Region per hoteleigenem E-Bike, mit dem Schiff oder im Regionalzug Thurbo. Rund ums Hotel lockt die weitl\u00e4ufige Arenenberger Gartenwelt zu Walk-and-Talk-Meetings und Spazierg\u00e4ngen sowie perfekt beschilderte Wanderwege auf den geheimnisvollen Thurgauer Seer\u00fccken. Dieser bietet immer wieder grossartige Ausblicke \u2013 bei klarer Sicht bis zu den Alpen.", "url": "https://arenenberg.ch/", "image": "https://sgbtpimtsoch.sos-ch-dk-2.exoscale-cdn.com/catalog/d/4/a/e/d4ae6b019964c1c3447c3c7b7c95a846cbc35db7_Arenenberg_Luftbild.jpg", "openstreetmap_id": "779558757.0"}, "geometry": {"type": "Point", "coordinates": ["9.0598959", "47.67215"]}}, {"type": "Feature", "properties": {"identifier": "c04d6b55-75c8-4d6a-bcce-c878e3248fa6", "name": "Dorfhus Gupf", "description": "Ein Hotelbetrieb, Gaststuben, verschiedene Sitzungszimmer und das \u201eDorfhus-L\u00e4deli\u201c geh\u00f6ren ebenso dazu, wie der Festsaal mit seiner bestickten Decke \u2013 ein Kunstwerk der Walter Sonderegger AG. Mit ihrem fundierten Wissen entstand eine feinsinnige Kostbarkeit, die zugleich f\u00fcr eine optimale Akustik sorgt. Weitere Textilien, wie Vorh\u00e4nge, wurden von Bischoff Interior AG aus St. Gallen bezogen. Selbstverst\u00e4ndlich waren auch noch weitere \u201eK\u00fcnstler\u201c am Werk.\nDie Zusammenarbeit mit regionalen Produzenten und Bauern wird grossgeschrieben. Das Dorfhus Gupf vereint Menschen mit gutem Geschmack und gastrosophischem Anspruch.", "url": "https://dorfhus-gupf.ch/", "image": "https://sgbtpimtsoch.sos-ch-dk-2.exoscale-cdn.com/catalog/8/e/2/3/8e233eed0ea70923ec4381b317a2d50edd847776_rehetobel_dorfhus_gupf.jpg", "openstreetmap_id": "8364526811.0"}, "geometry": {"type": "Point", "coordinates": ["9.482466", "47.426737"]}}, {"type": "Feature", "properties": {"identifier": "c39bdccb-7fee-49be-9dd9-7834fda008b4", "name": "Restaurant Blume GmbH", "description": "<p>Willkommen in der Hotel Blume. Das Hotel liegt in St.Gallen und bietet 5 Einzel- und 1 Doppelzimmer, sowie eine Terrasse mit Gartenblick.&nbsp;</p><p>WLAN sowie die Privatparkpl&auml;tze bei der Unterkunft nutzen die G&auml;ste kostenfrei.&nbsp;</p><p><span class=\"cm-widget-catalog-label\">Ausstattung: </span>Bett, Schrank, Sofa-Stuhl mit Tisch, Lavabo, Flachbild-Sat-TV. Gemeinschaftsdusche und -WC befinden sich auf dem Gang.</p><p>In der Unterkunft steht auch eine Gep&auml;ckaufbewahrung zur Verf&uuml;gung.</p><p>Die Olma Messen St.Gallen sind in 1,2 km und die Stiftsbibliothek St.Gallen in 2,4 km erreichbar. Der Flughafen Z&uuml;rich liegt 63 km und der Flughafen St.Gallen-Altenrhein liegt 19 km vom Hotel entfernt.</p><p>Gesch&auml;ftsreisende sch&auml;tzen die Lage des Hotels ganz besonders.</p><p>Im Restaurant Blume geniessen G&auml;ste eine saisonale, regionale und frische K&uuml;che mit einheimischen Spezialit&auml;ten und Zutaten aus der Region.</p>", "url": "https://www.restauant-blume-sg.ch", "image": "https://sgbtpimtsoch.sos-ch-dk-2.exoscale-cdn.com/catalog/0/f/4/e/0f4e0cf6537aa42178d48e5cc2df622bdfd29015_Blume_1978s.jpg", "openstreetmap_id": "node/4348311837"}, "geometry": {"type": "Point", "coordinates": ["9.4019687", "47.435573"]}}, {"type": "Feature", "properties": {"identifier": "c5f35d0d-81a4-448d-a570-257eccf23da0", "name": "G\u00e4stehaus Leimathof", "description": "Das G\u00e4stehaus Leimathof ist zentral und sehr ruhig gelegen: Messegel\u00e4nde, Casino, Universit\u00e4t und Stadtzentrum sind zu Fuss in wenigen Minuten erreichbar. \n\nNebst einer speziell eingerichteten Attika Wohnung bieten wir auch verschiedene Standard Wohnungen m\u00f6biliert zur Miete an. Eine davon tage- oder wochenweise, die anderen mind. f\u00fcr 3 Monate.\n\nStandard Wohnung\nBeinhaltend 3 Schlafzimmer, 1 Wohn-/Esszimmer, Badezimmer mit Dusche/WC, komplett ausgestattete K\u00fcche, WiFi, TV, Waschmaschinen- und Trockenraumben\u00fctzung.\n\nAttika Wohnung\nBeinhaltend 2 Schlazimmer, Wohnzimmer, komplett ausgestattete K\u00fcche mit separatem Esszimmer, WiFi, TV, Waschmaschinen- und Trockenraumben\u00fctzung.", "url": "http://www.leimathof.ch/", "image": "https://sgbtpimtsoch.sos-ch-dk-2.exoscale-cdn.com/catalog/6/0/b/7/60b7f2e3bcbe9697428f872ea7e583b0298ebce0_BAM_20200603_BnB_Leimathof_485.jpg", "openstreetmap_id": "way/308740468"}, "geometry": {"type": "Point", "coordinates": ["9.38063", "47.43324"]}}, {"type": "Feature", "properties": {"identifier": "c6dabb98-9c5f-443e-82b4-f1ff7e90e773", "name": "Visimo Apartments - Deluxe Suite", "description": "In der stilvoll eingerichteten 55-Quadratmeter Ferienwohnung  im Zentrum von St.Gallen geniessen die G\u00e4ste einen einzigartigen Urlaub in der sch\u00f6nen Ostschweiz unweit des Bodensees. Die Wohnung bietet f\u00fcr maximal vier Personen Platz. Dank der hervorragenden Lage in der N\u00e4he des Klosters ist die historische Altstadt in wenigen Gehminuten erreichbar.\n\nINNENEINRICHTUNG\nIm Inneren der Suite erwartet die G\u00e4ste ein eleganter Mix aus modernem Design und elegantem Holzmobiliar. Das ger\u00e4umige Schlafzimmer mit dem Kingsize-Boxspringbett (180 x 200 cm) verspricht eine erholsame Nachtruhe. Im gem\u00fctlichen und ansprechend gestalteten Wohnzimmer sorgt die bequeme Sofalandschaft mit integriertem Schlafsofa mit Lattenrost (140 x 200 cm) f\u00fcr einen guten Schlaf f\u00fcr zwei weitere Personen. Das Wohn- und Schlafzimmer sind jeweils mit einem grossen Smart-TV mit kostenlosem Netflix und Sunrise TV-Abo ausgestattet. Die Wohnung verf\u00fcgt \u00fcber kostenloses WLAN. \n \nSPEISEBEREICH/BAD\nDas exklusive Holzdesign der Suite setzt sich auch im Essbereich fort, in dem sich ein gem\u00fctlicher Esstisch befindet, der zu geselligen Abendessen mit Freunden anregt. In der komplett ausgestatteten K\u00fcche mit Herd, Geschirrsp\u00fcler, K\u00fchlschrank, Gefrierschrank, Kaffeemaschine, Tellern, Gl\u00e4sern und Besteck d\u00fcrfen die G\u00e4ste nach Belieben ihre kulinarischen W\u00fcnsche verwirklichen. Das helle und saubere Badezimmer verf\u00fcgt \u00fcber einen grossen Duschbereich, eine Waschmaschine sowie einen Trockner. Handseife, Duschgel, Shampoo und frische Handt\u00fccher stehen bereit. \n\nZENTRALE LAGE\nDie gro\u00dfartige Lage der Ferienwohnung bietet neben kurzen Wegen zu den Sehensw\u00fcrdigkeiten, Gesch\u00e4ften und Restaurants auch eine direkte Anbindung an das Bus- und Bahnnetz der Region. So kommen die G\u00e4ste  auch ohne Auto immer sicher und bequem ans Ziel.\n\nAuch die vierbeinigen G\u00e4ste sind gerne willkommen.", "url": "https://www.visimo-apartments.ch/apartments-st-gallen/", "image": "https://sgbtpimtsoch.sos-ch-dk-2.exoscale-cdn.com/catalog/d/e/b/0/deb07beb41c24ce2519e3dfa4e38cc694020966e_317A9038_Edit.jpg", "openstreetmap_id": "7193108133"}, "geometry": {"type": "Point", "coordinates": ["9.3703313", "47.4187409"]}}, {"type": "Feature", "properties": {"identifier": "c7e0f992-435a-4bf7-aeed-43a0101e7474", "name": "Boardinghouse St.Gallen", "description": "Hier f\u00fchlen sich die G\u00e4ste \u2013 f\u00fcr eine l\u00e4ngere oder auch f\u00fcr kurze Zeit \u2013 im urbanen St.Gallen so richtig zuhause. \n\nDas Boardinghouse bietet f\u00fcr mehrere Monate, f\u00fcr eine ganze Woche oder auch nur f\u00fcr 1-2 Tage ein perfektes Zuhause in einem stilvollen Neubau an bester Lage. Die historische Altstadt, Naherholungsgebiete, kulturelle und sportliche Angebote - aber auch Einkaufsm\u00f6glichkeiten - sind in wenigen Minuten zu Fuss oder mit dem \u00d6V erreichbar. Caf\u00e9, B\u00e4ckerei, Take-Away und Private Spa befinden sich sogar direkt im Haus. \n\nDie Wohnoasen bieten : \n\n\u2022 pers\u00f6nlicher Empfang\n\u2022 moderne, komfortabel m\u00f6blierte und vollkommen ausgestattete\n1 bis 2.5 Zimmer Studios und Wohnungen mit Kochnische und\nBalkon / Lodge\n\u2022 individuelle, variable Preise je nach Verweildauer (ab 1 Nacht m\u00f6glich)\n\u2022 s\u00e4mtliche Nebenkosten & Dienstleistungen im Preis inbegriffen:\n\u2022 WLAN / TV / Strom & Wasser\n\u2022 Bett- und Frottierw\u00e4sche\n\u2022 mindestens w\u00f6chentliche Reinigung / Endreinigung\n\u2022 Tiefgaragenplatz mit Auflade-Station zus\u00e4tzlich mietbar\n\u2022 bei langer Verweildauer durchschnittlicher Wohnungspreis ab CHF 1280 pro Monat\n(all inclusive)\n\u2022 SPEZIELL: Absolut keine K\u00fcndigungsfrist", "url": "https://www.boardinghouse.ch", "image": "https://sgbtpimtsoch.sos-ch-dk-2.exoscale-cdn.com/catalog/0/7/d/0/07d04f7674a89a414cc8b1bb4be74c8f24ebec8e_KSP_6038.jpg", "openstreetmap_id": "28636733"}, "geometry": {"type": "Point", "coordinates": ["9.3551975", "47.4200777"]}}, {"type": "Feature", "properties": {"identifier": "c9ae4405-18bd-483b-b1f5-62556ceef81c", "name": "S\u00e4ntis \u2013 das Hotel", "description": "Das Hotel ist der ideale Ausgangspunkt f\u00fcr viele Freizeitaktivit\u00e4ten wie Wandern, Velotouren oder auch gem\u00fctliche Spazierg\u00e4nge in der Natur.\n\nErholung finden die G\u00e4ste im Wellnessbereich mit Sauna, Bio-Sauna, Dampfbad, Erlebnisdusche und einem Ruheraum mit Blick in die Natur. Dass dabei der kulinarische Aspekt nicht zu kurz kommt, versteht sich von selbst: Im Restaurant mit der wunderbaren Sonnenterrasse werden typische Gerichte serviert. \n\nAuf drei Etagen laden 68 komfortabel ausgestattete Zimmer und Junior-Suiten zu einer erholsamen Nacht ein. Der erste Blick am Morgen gilt dem steil aufragenden S\u00e4ntis oder dem vertr\u00e4umten Weidwald. Und wer weiss, vielleicht gibt es sogar einen Steinbock zu entdecken.", "url": "https://saentisbahn.ch/uebernachten/das-hotel/", "image": "https://sgbtpimtsoch.sos-ch-dk-2.exoscale-cdn.com/catalog/3/a/0/e/3a0ed14db74435ba278f65bf619c1a504ea68327_20170626_SAENTIS_DAS_HOTEL_DER_BERG_802_min_2_.jpg", "openstreetmap_id": "374699470.0"}, "geometry": {"type": "Point", "coordinates": ["9.3183242", "47.2564945"]}}, {"type": "Feature", "properties": {"identifier": "d075f8ec-0dd1-4086-8a27-21605493711c", "name": "Esmeraldas Altbauwohnung mitten in der Stadt mit Terrasse", "description": "Charmante Altbauwohnung an bester Lage mitten in der historischen Altstadt von St. Gallen. Nur wenige Schritte vom ber\u00fchmten Textilmuseum (\u00abPalazzo Rosso\u00bb) entfernt, umgeben von Caf\u00e9s, Boutiquen und kulturellen Highlights. Die Drei Weieren \u2013 ein wundersch\u00f6nes Naherholungsgebiet mit Aussicht \u00fcber die Stadt \u2013 sind ebenfalls schnell erreichbar.\n\nDie Wohnung \u00fcberzeugt mit ihrem einzigartigen Charakter: warme Holzb\u00f6den, offene Galerie und ein gem\u00fctliches, stilvolles Ambiente. Drei Schlafm\u00f6glichkeiten (1\u00d7180 cm, 2\u00d7160 cm) bieten Platz f\u00fcr Paare, Familien oder kleine Gruppen.\n\nAusgestattet mit WLAN, K\u00fcche mit Mikrowelle und Bialetti f\u00fcr den perfekten Kaffee. Die teils \u00fcberdachte Terrasse zur Mitbenutzung l\u00e4dt zum Verweilen ein \u2013 ein ruhiger R\u00fcckzugsort mitten im lebendigen Stadtzentrum.\n\nAls besonderes Extra: Nur wenige Schritte entfernt befindet sich die MachBar \u2013 ein kreativer Ort f\u00fcr kleine k\u00fcnstlerische T\u00e4tigkeiten, Austausch und Inspiration.\n\nFamilienfreundlich: Babybett auf Anfrage sowie kleine Spielsachen und Hochstuhl vorhanden.", "url": "http://esmeralda.book.dibooq.com/", "image": "https://sgbtpimtsoch.sos-ch-dk-2.exoscale-cdn.com/catalog/7/1/d/0/71d033d5d8af2592a32c7f3acb1aa541317a58ee_IMG_5370.jpeg", "openstreetmap_id": "way/311073775"}, "geometry": {"type": "Point", "coordinates": ["9.3750666", "47.4269514"]}}, {"type": "Feature", "properties": {"identifier": "d944e7a2-672c-4f18-8055-4c9c32b7dfef", "name": "B&B Laui Ennetb\u00fchl", "description": "<p>Das ruhig gelegene Haus wurde um 1869 erbaut, brannte aber in den 1970er Jahren teilweise ab und wurde wieder aufgebaut. Es liegt etwas ausserhalb des Dorfes Richtung Rietbad mit Sicht auf S&auml;ntis, Stockberg und Speer. Das gem&uuml;tlich eingerichtete B&amp;B verf&uuml;gt &uuml;ber zwei grossz&uuml;gige Doppelzimmer und ein Einzelzimmer mit separatem Bad und WC. Wunderbarer Ausgangspunkt f&uuml;r Wanderungen, Skiwanderungen und Langlauf.</p>", "url": "http://www.laui-ennetbuehl.ch/", "image": "https://sgbtpimtsoch.sos-ch-dk-2.exoscale-cdn.com/catalog/6/c/9/5/6c95eccc8cd5b1a431822e5a8de63dce45232d34_Laui_190_Bild_Chris_Iseli___Sandra_Ardizzone__3.jpg", "openstreetmap_id": "way/416484946"}, "geometry": {"type": "Point", "coordinates": ["9.22271079999996", "47.2445859"]}}, {"type": "Feature", "properties": {"identifier": "dc443377-9d7a-47cd-907d-515676dee60b", "name": "Gasthaus R\u00f6ssli Br\u00fclisau", "description": "<p>Die sieben Doppelzimmer sind einfach, sowie gem&uuml;tlich eingerichtet und verf&uuml;gen &uuml;ber Dusche, WC, TV und WLAN. Zus&auml;tzlich gibt es auch zwei Familienzimmer mit eigenem Bad, TV und WLAN, und zwei kleine 4er Lager mit eigenem Bad und WLAN.</p>\n<p>Im Restaurant wird Feines und Regionales aus und rund um Appenzell angeboten. Br&uuml;lisau ist der perfekte Ausgangsort f&uuml;r sch&ouml;ne Wanderungen im Alpstein. Ab drei &Uuml;bernachtungen profitieren die G&auml;ste von der Appenzeller Ferienkarte.</p>", "url": "https://roessli-bruelisau.ch/", "image": "https://sgbtpimtsoch.sos-ch-dk-2.exoscale-cdn.com/catalog/4/6/a/e/46ae055a78848e17bd0dc6a18032cabaa9d03a00_Gasthaus_Roessli_03_Aussen.jpg", "openstreetmap_id": "way/201030605"}, "geometry": {"type": "Point", "coordinates": ["9.4550464462937", "47.29775495"]}}, {"type": "Feature", "properties": {"identifier": "dda39d47-49c8-441f-b95e-882e7130c683", "name": "Hotel Garni R\u00f6ssli Wittenbach", "description": "Perfekt gelegen auf der Durchreise zwischen Bodensee und der historischen Altstadt St.Gallen liegt das R\u00f6ssli. Mitten durch die Natur f\u00fchrt der Radweg zum traditionellen Haus wo fr\u00fcher die \u201eR\u00f6sslipost\u201c halt machte. F\u00fcr Anreisende mit dem Auto, sind kostenlose Parkm\u00f6glichkeiten vorhanden.  Heute wird das R\u00f6ssli als kleines herzliches Hotel Garni (nur Fr\u00fchst\u00fcck) betrieben. \n  \nDas Team vom R\u00f6ssli freut sich, die G\u00e4ste Willkommen zu heissen. Eine \nmoderne Ladestation f\u00fcr E-Bikes sowie eine abschliessbare Velogarage mit kleiner Werkstatt (Velo-Werkzeug, Kompressor,...) inkl. M\u00f6glichkeit, Schuhe und Veloausr\u00fcstung aufzubewahren wie auch die M\u00f6glichkeit das Fahrrad zu reinigen, stehen zur Verf\u00fcgung.\n\n17 Einzel-, Doppel- Studio- und Familienzimmer  stehen f\u00fcr grosse und kleine G\u00e4ste bereit.  Nach einem erholsamen Schlaf bietet ein reichhaltiges Fr\u00fchst\u00fccksbuffet viele regionale Produkte an.", "url": "http://www.hotelroessliwittenbach.ch/", "image": "https://sgbtpimtsoch.sos-ch-dk-2.exoscale-cdn.com/catalog/b/a/e/0/bae062372df05ba38d06b15b469f2681b2c9c288_ROESSLI_juni23_RUPA_048_low.jpg", "openstreetmap_id": "node/1492836232"}, "geometry": {"type": "Point", "coordinates": ["9.393249", "47.45936"]}}, {"type": "Feature", "properties": {"identifier": "de7239eb-e95a-4af6-9f97-d924bbfbeca9", "name": "Hotel von Rotz", "description": "<p class=\"my-2 [&amp;+p]:mt-4 [&amp;_strong:has(+br)]:inline-block [&amp;_strong:has(+br)]:pb-2\">Im Self-Check-in Hotel von Rotz in Bronschhofen geniessen die G&auml;ste stilvollen Komfort mit maximaler Flexibilit&auml;t &ndash; ob f&uuml;r eine Nacht, ein Wochenende oder einen l&auml;ngeren Aufenthalt. 85 moderne, lichtdurchflutete Zimmer und Apartments &ndash; von Standard-Doppel- und Familienzimmern &uuml;ber Auto-Themen-Zimmer und Junior Suiten bis hin zu Langzeit-Apartments mit K&uuml;che &ndash; bieten Business- wie Freizeitreisenden den perfekten Rahmen f&uuml;r ihren Aufenthalt.<span class=\"inline-flex\" data-state=\"closed\">\u200b</span></p><p class=\"my-2 [&amp;+p]:mt-4 [&amp;_strong:has(+br)]:inline-block [&amp;_strong:has(+br)]:pb-2\">Alle Zimmer verf&uuml;gen &uuml;ber Balkon, grossz&uuml;gigen Arbeitsplatz, kostenloses WLAN und Klimaanlage. Inbegriffen sind das Geniesser-Fr&uuml;hst&uuml;ck im Casual Fine Dining Restaurant Cabrio, Aussenparkpl&auml;tze, die Nutzung des Panorama-Fitnessraums, des Arbeitsraums sowie der Sonnenterrasse f&uuml;r erholsame Auszeiten.<span class=\"inline-flex\" data-state=\"closed\">\u200b</span></p><p class=\"my-2 [&amp;+p]:mt-4 [&amp;_strong:has(+br)]:inline-block [&amp;_strong:has(+br)]:pb-2\">Zus&auml;tzlich steht ein exklusiver Private Spa im Haus f&uuml;r individuell buchbare Wellnessmomente zur Verf&uuml;gung, w&auml;hrend der 24h-Self-Check-in eine entspannte, zeitunabh&auml;ngige An- und Abreise erm&ouml;glicht. Die besondere Verbindung zur Autowelt von Rotz, die Autosuiten und der hauseigene Heliport machen das Hotel zu einer aussergew&ouml;hnlichen Adresse.</p>", "url": "http://www.hotel-vonrotz.ch/", "image": "https://sgbtpimtsoch.sos-ch-dk-2.exoscale-cdn.com/catalog/a/4/a/9/a4a9ecf7703cbc6bad856498581dab0034b8650f_VonRotz_CF177648_67.jpg", "openstreetmap_id": "node/7761067560"}, "geometry": {"type": "Point", "coordinates": ["9.0281638", "47.4680205"]}}, {"type": "Feature", "properties": {"identifier": "e22f076a-10a9-4a26-ad73-c9f5cc4cfc1b", "name": "Macardo Premium B&B", "description": "Mit den 10 gem\u00fctlichen Zimmern und zwei grossz\u00fcgigen Apartments bietet Macardo Premium B&B nicht nur Komfort, sondern auch einen atemberaubenden Ausblick auf den Alpstein und den S\u00e4ntis \u2013 und das aus jedem einzelnen Zimmer. Der Tag beginnt mit einem k\u00f6stlichen und reichhaltigen Fr\u00fchst\u00fcck, das sorgf\u00e4ltig aus lokalen Delikatessen zusammengestellt wird. Im Macardo Bed & Breakfast wird das Heimweh nicht aufkeimen, doch die Sehnsucht nach dem Haus wird die G\u00e4ste sicher wieder hierher f\u00fchren!\nUnd wer mit dem Hund reist - ist auch herzlich Willkommen. \nCheck-in von 14:00 bis 24:00", "url": "https://www.macardo.ch/macardo-premium-bed-breakfast/", "image": "https://sgbtpimtsoch.sos-ch-dk-2.exoscale-cdn.com/catalog/6/f/4/c/6f4cbd7fe7bc8d00bc8d3b0d39514fc6ea5c8252_Macardo_Location_DJI_0224__2.jpeg", "openstreetmap_id": "way/198217923"}, "geometry": {"type": "Point", "coordinates": ["9.035178402040664", "47.5617022"]}}, {"type": "Feature", "properties": {"identifier": "e29ef543-891c-4668-ba62-21c58ebe10de", "name": "Sonnenberg Health Hotel ", "description": "Das Paradies f\u00fcrs Wohlbefinden: Umgeben von einem atemberaubenden Bergpanorama liegt das Sonnenberg Health Hotel im erh\u00f6hten Schwellbrunn auf 972 m \u00fc. M., welches 2017 nicht ohne Grund zum sch\u00f6nsten Dorf der Schweiz gek\u00fcrt wurde. \n\nMit seiner hellgelben Fassade, den romantischen Balkonen und dem Kr\u00e4uterduft aus dem Caf\u00e9 kommt im Sonnenberg Health Hotel gewiss Ferien-Feeling auf. \n\nNur die \u00fcppige Pizza, die sucht man hier vergebens. Aus gutem Grund. Das Sonnenberg Health Hotel ist kein Hotel, in dem es ums Schlemmen geht. Ganz im Gegenteil, hier bekommen K\u00f6rper und Geist einen Energy-Booster und einen gesunden Neustart.\n\nDas Besondere an dieser Institution ist, dass sie Hotel, Restaurant und Behandlungen in einem bietet. An keinem Ort l\u00e4sst es sich ges\u00fcnder leben. Entgiftung, Ern\u00e4hrung, Verdauung und nachhaltige Kr\u00e4ftigung des Immunsystems \u2013 hier bekommt man das volle Programm.\n\nInsgesamt gibt es 3 Arztpraxen, ein Hotel mit 16 Zimmern und ein veganes Restaurant. Alle Leckerbissen werden rein pflanzlich und wo immer m\u00f6glich in Bio-Qualit\u00e4t angeboten, frisch vor Ort gekocht mit besten Zutaten.\n", "url": "https://sonnenberg-schwellbrunn.com", "image": "https://sgbtpimtsoch.sos-ch-dk-2.exoscale-cdn.com/catalog/e/6/f/1/e6f1c02ccf23bd38effd746bb6d4f2d8b8b7c8f9_k_01_Aussensicht.jpg", "openstreetmap_id": "way/1015261300"}, "geometry": {"type": "Point", "coordinates": ["9.249497676988582", "47.3530963953513"]}}, {"type": "Feature", "properties": {"identifier": "e790b2f1-52ba-4b73-88ac-7f70df84cc60", "name": "Radisson Blu Hotel St.Gallen", "description": "Das Radisson Blu Hotel, St.Gallen liegt zentral, gleich neben dem Olma Messegel\u00e4nde und nur wenige Gehminuten von der Altstadt entfernt. Bei der Einrichtung der 123 G\u00e4stezimmer wurde grossen Wert auf Stil und Komfort gelegt. Die R\u00e4ume sind hell und strahlen eine einladende Wohlf\u00fchlatmosph\u00e4re aus. Neben modernen Standard- und Business Class Zimmern stehen auch zw\u00f6lf ger\u00e4umige Junior Suiten und drei Penthouse Suiten mit fantastischem Blick \u00fcber das historische St.Gallen und das Appenzellerland zur Auswahl.  \n\nDas Hotel besticht mit acht topmodernen Seminarr\u00e4umen aus frischen, hochwertigen Materialien. Jeder Raum verf\u00fcgt \u00fcber nat\u00fcrliches Tageslicht und ist mit Standardtechnik ausgestattet.", "url": "https://www.radissonhotels.com/de-de/hotels/radisson-blu-st-gallen", "image": "https://sgbtpimtsoch.sos-ch-dk-2.exoscale-cdn.com/catalog/c/4/2/1/c421000d99a6d94148aa05ed372ba32724590513_20241128_Radisson_Aussenansicht.jpg", "openstreetmap_id": "node/538033362"}, "geometry": {"type": "Point", "coordinates": ["9.3804123", "47.4310891"]}}, {"type": "Feature", "properties": {"identifier": "f53fecef-98dc-47b7-8155-eefde178b57d", "name": "Tailormade Hotel METROPOL St.Gallen", "description": "<p>Das frisch renovierte Tailormade Hotel METROPOL heisst seine G&auml;ste mit urbanem Flair, modernem Design und einer angenehmen Wohlf&uuml;hlatmosph&auml;re willkommen. Die stilvollen Doppelzimmer und die grossz&uuml;gigen Deluxe Zimmer bieten ausreichend Platz zum Arbeiten oder Entspannen. Die neu gestalteten Einzelzimmer &uuml;berzeugen mit einer funktionalen Ausstattung f&uuml;r Alleinreisende.</p><p>&nbsp;Die zentrale Lage macht das Hotel zum idealen Ausgangspunkt, um St.Gallen und die Region zu erkunden: Einkaufsm&ouml;glichkeiten, Restaurants und die historische Altstadt sind bequem zu Fuss erreichbar. Dank der nahegelegenen Parkh&auml;user ist auch die Anreise mit dem Auto unkompliziert und komfortabel &ndash; ideal f&uuml;r G&auml;ste, die flexibel unterwegs sind.</p><p>Morgens starten Sie mit dem reichhaltigen Fr&uuml;hst&uuml;cksbuffet genussvoll in den Tag. Freuen Sie sich auf erstklassigen Kaffee, frische regionale Produkte sowie eine abwechslungsreiche Auswahl an s&uuml;ssen und herzhaften K&ouml;stlichkeiten.</p>", "url": "https://www.tmh.swiss/metropol/", "image": "https://sgbtpimtsoch.sos-ch-dk-2.exoscale-cdn.com/catalog/d/c/1/8/dc18a11ef5ca12fb1397e73b4c2fca49c5404bf4_TMH_METROPOL_Deluxe_King_03.jpg", "openstreetmap_id": "node/2477694156"}, "geometry": {"type": "Point", "coordinates": ["9.370606700000051", "47.42297989999999"]}}, {"type": "Feature", "properties": {"identifier": "f56c4f2b-8140-4f7d-8e24-bd6799f91d77", "name": "Revier Hotel S\u00e4ntispark St.Gallen", "description": "<p>Nach dem umfassenden Umbau pr&auml;sentiert sich das Revier Hotel S&auml;ntispark mit einem aussergew&ouml;hnlichen Lifestyle-Konzept und zahlreichen Highlights wie dem neuen <a href=\"https://saentispark.revierhotels.com/de/gastronomie\" target=\"_blank\" rel=\"noopener\">Restaurant Roots</a>, der trendigen <a href=\"https://saentispark.revierhotels.com/de/restaurant-roots/the-fox-house-bar\" target=\"_blank\" rel=\"noopener\">Fox House Bar</a> oder der grossz&uuml;gigen Lobby mit Working-Spaces. Die Smart Studios f&uuml;r l&auml;ngere Aufenthalte, der Secret Garden f&uuml;r Ap&eacute;ros oder Gastronomie-Events sowie der liebevoll gestaltete Kids-Club bieten eine topmoderne Infrastruktur f&uuml;r Familien, Seminar- und Gesch&auml;ftsreisende.</p>", "url": "https://saentispark.revierhotels.com/de/", "image": "https://sgbtpimtsoch.sos-ch-dk-2.exoscale-cdn.com/catalog/e/4/b/5/e4b5632f5cc432c76c66b0d59d163a0fa6fc0465_RevierS__ntisparkOpening_041.jpg", "openstreetmap_id": "way/768586847"}, "geometry": {"type": "Point", "coordinates": ["9.3142241", "47.4174926"]}}, {"type": "Feature", "properties": {"identifier": "f6942904-68f4-4786-811b-17522e43a147", "name": "Kinderdorf Pestalozzi", "description": "Entdecken Sie das historische Kinderdorf Pestalozzi, wo sich Geschichte und Gegenwart auf faszinierende Weise begegnen. Starten Sie das Erlebnis mit einer interaktiven Ausstellung, die Sie zu den Urspr\u00fcngen der ZEWO-zertifizierten Stiftung zur\u00fcckf\u00fchrt. Verfolgen Sie die Entwicklung des Kinderdorfs von seiner Gr\u00fcndungsidee nach dem Zweiten Weltkrieg bis zur renommierten NGO von heute.\n\nDie Erlebniswelt im Kinderdorf Pestalozzi bietet f\u00fcr Gross und Klein viel Platz f\u00fcr Kreativit\u00e4t, spielerisches Lernen und Erholung. Die Welt setzt sich zusammen aus 10 spannenden und zugleich lehrreichen Spielm\u00f6glichkeiten und R\u00fcckzugsorten, die als Gruppe erkundet werden k\u00f6nnen. Auch f\u00fcr Eltern und Begleitpersonen sorgen unsere Spieltr\u00e4ume f\u00fcr Unterhaltung und interessante Erkenntnisse. Das Kinderdorf Wimmelbild f\u00fchrt Entdecker*innen durch das Erlebnisdorf und vermittelt spannende Fakten \u00fcber Kinderrechte, w\u00e4hrend die Riesenkugelbahn, der Balancierpfad oder die Spinnerei (Kletternetz) die Geschicklichkeit testen.\n\nFalls Sie noch etwas Hunger oder Durst versp\u00fcren sollten, bietet die Cafeteria eine Auswahl an erfrischenden Getr\u00e4nken und Snacks. Das Kinderdorf Pestalozzi verf\u00fcgt \u00fcber Einzel- und Mehrbettzimmer und heisst Einzelpersonen, Familien und Gruppen gerne willkommen. \n\nDie Erlebniswelt liegt hoch \u00fcber dem Bodensee, umgeben von den sanften H\u00fcgeln des Appenzellerlands. Es befindet sich nur 20 Minuten von St. Gallen entfernt \u2013 abseits jeglicher Hektik, in gr\u00fcner Natur und bequem mit der Appenzeller Bahn erreichbar.\n\n", "url": "https://www.pestalozzi.ch/de/erlebnis", "image": "https://sgbtpimtsoch.sos-ch-dk-2.exoscale-cdn.com/catalog/9/0/1/2/901243e41d6dda435b37a58b4435307b468e1eaf_Spieltr__ume___Juli_2023__5_.jpg", "openstreetmap_id": "way/761032565"}, "geometry": {"type": "Point", "coordinates": ["9.460072924285642", "47.40328374382611"]}}]}