{"type": "FeatureCollection", "features": [{"type": "Feature", "properties": {"identifier": "0fda1a19-601e-42ad-947f-4037c829acd0", "name": "Rhein-Route Highlights (5 Tage / 4 N\u00e4chte) | Saison 1 Kategorie B", "description": "<p class=\"MsoNormal\">Die Rhein-Route umspannt den Osten der Schweiz in einem weiten Bogen. Auf dieser Reise entdecken Sie die Highlights dieser Route und radeln vom weiten Bodensee, wo Obstg&auml;rten, Schl&ouml;sser und fr&ouml;hliches Touristengeschnatter die Gestade des gr&uuml;n und silbern schimmernden &laquo;schw&auml;bischen Meeres&raquo; zieren bis nach Basel.</p><p class=\"MsoNormal\">Saison 1: vom 21. M&auml;rz bis 24. April 2026 und vom 26. September bis 18. Oktober 2026</p><p class=\"MsoNormal\">Kategorie B: ab CHF 955.00</p><p class=\"MsoNormal\">Der genaue Reiseverlauf ist&nbsp;<a href=\"https://shop.st.gallen-bodensee.ch/de/products/rheinroute-highlights-5-tage-4-naechte-saison-1-kategorie-b\" target=\"_blank\" rel=\"noopener\">hier</a> ersichtlich.&nbsp;</p>", "url": "https://www.eurotrek.ch", "image": "https://sgbtpimtsoch.sos-ch-dk-2.exoscale-cdn.com/catalog/b/2/4/8/b248c8038209dd2da38f07c626ad5a68090c64b0_Rheinroute_Dig_Marktplatz.jpg", "openstreetmap_id": "node/1349145879"}, "geometry": {"type": "Point", "coordinates": ["9.505248", "47.4780562"]}}, {"type": "Feature", "properties": {"identifier": "250dc50f-2722-417e-a199-f7774069247c", "name": "Textilweg St.Gallen ", "description": "<p>Imposante Geb\u00e4ude mit Namen wie \u00abHaus Oceanic\u00bb, \u00abHaus Pacific\u00bb oder \u00abHaus Washington\u00bb zeugen vom ehemaligen Reichtum und Wohlhaben der Stadt St.Gallen. In der Stickereib\u00f6rse liefen die F\u00e4den der erfolgreichen textilen Gesch\u00e4ftst\u00e4tigkeit zusammen. Fabrikanten und Kaufleute, Sticker und Veredler trafen sich und tauschten Informationen \u00fcber Marktlage und Modestr\u00f6mungen, Auftr\u00e4ge oder auch Besitzrechte an Waren aus. Das Lagerhaus symbolisiert \u2013 zusammen mit dem Bahnhof und der Hauptpost \u2013 die Bedeutung St.Gallens als Wirtschaftsstandort und als Warenumschlagplatz. Die grossz\u00fcgig dimensionierten Geb\u00e4ude von Hauptpost und Bahnhof widerspiegeln zudem das beachtliche Exportvolumen und die rege Reiset\u00e4tigkeit St.Gallens um 1900. Auch etwas ausserhalb der Altstadt stehen bedeutende Geb\u00e4ude. Eines ist der&nbsp;<a href=\"https://troeckneturm.ch/de/home\" target=\"_blank\" rel=\"noopener\" style=\"\">Tr\u00f6ckneturm</a>&nbsp;im heutigen Lachenquatier mit Dokumentationsstelle zur Geschichte der Stadt St.Gallen und zur Geschichte der wichtigsten Zweige der St.Galler Textilindustrie. Und auch die ehemalige F\u00e4rberei Sittertal bekr\u00e4ftigen die Wichtigkeit der Textilindustrie.</p><p>Bestaune die herausragenden Geb\u00e4ude auf dem Textilweg, scanne Sie die gestickten QR-Codes und h\u00f6re hier mehr \u00fcber Geschichte, Architektur und die heutige Nutzung an. Die Erl\u00e4uterungen zu den Geb\u00e4uden auf dem Textilweg sind auch in Englisch verf\u00fcgbar. Der Textilweg l\u00e4sst sich in der Stadt St.Gallen und/oder in St.Gallen West entdecken.&nbsp;</p>", "image": "https://sgbtpimtsoch.sos-ch-dk-2.exoscale-cdn.com/catalog/1/8/4/7/1847db93fe4a617ca0aa3499ddcd714a2ec2814f_medium__Textilweg_Broderbrunnen_2.jpg"}}, {"type": "Feature", "properties": {"identifier": "3633c28d-08f4-42c1-87e9-8a1cb001ad08", "name": "Rhein-Route Highlights (5 Tage / 4 N\u00e4chte) | Saison 2 Kategorie A", "description": "<p>Die Rhein-Route umspannt den Osten der Schweiz in einem weiten Bogen. Auf dieser Reise entdecken Sie die Highlights dieser Route und radeln vom weiten Bodensee, wo Obstg&auml;rten, Schl&ouml;sser und fr&ouml;hliches Touristengeschnatter die Gestade des gr&uuml;n und silbern schimmernden &laquo;schw&auml;bischen Meeres&raquo; zieren bis nach Basel.</p><p>Saison 2: vom 25. April bis 25. September 2026</p><p class=\"MsoNormal\">Kategorie A: ab CHF 1055.00</p><p>Der genaue Reiseverlauf ist&nbsp;<a href=\"https://shop.st.gallen-bodensee.ch/de/products/rheinroute-highlights-5-tage-4-naechte-saison-2-kategorie-a\" target=\"_blank\" rel=\"noopener\">hier</a> ersichtlich.</p>", "url": "https://www.eurotrek.ch", "image": "https://sgbtpimtsoch.sos-ch-dk-2.exoscale-cdn.com/catalog/6/6/e/6/66e68bbc96b0f8b1017bcca6a525b0f407c4e312_Rheinroute_Dig_Marktplatz.jpg", "openstreetmap_id": "node/1349145879"}, "geometry": {"type": "Point", "coordinates": ["9.505248", "47.4780562"]}}, {"type": "Feature", "properties": {"identifier": "5010e92e-be42-41d5-b7cd-b8d5d82519b2", "name": "Ludotrail Rheineck", "description": "<p>Mit einem vielf&auml;ltigen Spieleparcours im Freien mit&nbsp; abwechslungsreichen Spieleposten vor Gesch&auml;ften, entlang von Sehensw&uuml;rdigkeiten und auf sch&ouml;nen Pl&auml;tzen kann Rheineck spielerisch erkundet werden.</p><p>Im Angebot sind 16 individuell gestaltete, thematisch zum Standort passende Spiele. Sie wurden speziell f&uuml;r Rheineck entwickelt und k&ouml;nnen in beliebiger Anzahl und Reihenfolge gespielt werden.&nbsp;</p><p>Die Spiele eignen sich f&uuml;r Erwachsene, Jugendliche und Familien mit Kindern ab 6/7 Jahren. Ideal f&uuml;r den Firmenevent, die Vereinsreise, f&uuml;r Schulklassen, den Familienausflug und als Freizeitangebot gemeinsam mit Freundinnen und Kollegen.</p><p>So funktioniert&rsquo;s: Nach Buchung des Tickets, wird vor Ort ein Spiele-Set ausgeliehen. Es beinhaltet einen Rucksack mit Spielmaterialbox, Spielregelnbuch und Postenplan.<br>Der Spieleparcours ist ganzj&auml;hrig spielbar.</p><p>Alle Informationen sind <a href=\"https://www.ludotrail.ch/alle-trails/spiel-dich-durch-rheineck\" target=\"_blank\" rel=\"noopener\">hier</a> ersichtlich.&nbsp;</p><p>Ausgabe- und R&uuml;cknahmestellen Spiele-Sets:<br>gegen Vorweisung des Tickets</p><p>Dienstag bis Samstag:<br>Hotel Hecht<br>Hauptstrasse 51<br>9424 Rheineck</p><p>Sonntag, Montag und Feiertage:<br>B&auml;ckerei Schwyter<br>Bahnhofstrasse 35<br>9424 Rheineck</p><p>Gutscheine f&uuml;r den Ludotrail sind&nbsp;<a href=\"https://shop.e-guma.ch/ludotrail/de/gutscheine/50456/gutschein-ludotrail-rheineck\" target=\"_blank\" rel=\"noopener\">hier</a> erh&auml;ltlich.&nbsp;</p>", "url": "https://www.ludotrail.ch/", "image": "https://sgbtpimtsoch.sos-ch-dk-2.exoscale-cdn.com/catalog/0/b/7/a/0b7a557d91fa0b851456ce1a5158f0a0279bcd48_medium__20260804_ludotrail_rheineck_1.jpg", "openstreetmap_id": "relation/1683925"}, "geometry": {"type": "Point", "coordinates": ["9.590699672698976", "47.46719739433739"]}}, {"type": "Feature", "properties": {"identifier": "51f7a6e6-b45a-469b-bff7-fb4e052ddee2", "name": "Stadt-Krimi", "description": "<p class=\"isSelectedEnd\">THE SAME erschafft seit 15 Jahren interaktive Krimi-Erlebnisse, bei denen G&auml;ste selbst zu Ermittler werden. Ob Stadt-Krimi, Krimi-Dinner, Teambuilding oder Corporate Event &ndash; jedes Erlebnis verbindet Spannung, Storytelling, Humor und echte Emotionen.</p><p class=\"isSelectedEnd\">Die Teilnehmenden l&ouml;sen gemeinsam Kriminalf&auml;lle, verfolgen Hinweise, verh&ouml;ren Verd&auml;chtige und tauchen mitten in cineastische Geschichten ein. Professionelle Schauspieler, &uuml;berraschende Wendungen und individuell entwickelte Storylines sorgen daf&uuml;r, dass jedes Event einzigartig wird.</p><p class=\"isSelectedEnd\">Besonders beliebt sind die immersiven Stadt-Krimis in St.Gallen und der ganzen Schweiz, bei denen die Stadt selbst zum Tatort wird. Teams entdecken versteckte Orte, l&ouml;sen R&auml;tsel und erleben ihre Umgebung aus einer v&ouml;llig neuen Perspektive.</p><p class=\"isSelectedEnd\">THE SAME kombiniert Live-Erlebnisse mit modernen Elementen wie digitalen Ermittlungsakten, interaktiven Missionen und innovativen Eventkonzepten. Dadurch entstehen aussergew&ouml;hnliche Erinnerungen f&uuml;r Firmen, Gruppen und Privatpersonen.</p><p class=\"isSelectedEnd\">Ideal f&uuml;r:</p><ul data-spread=\"false\"><li>Firmenanl&auml;sse</li><li>Teambuildings</li><li>Geburtstage</li><li>Polterabende</li><li>Vereinsausfl&uuml;ge</li><li>Weihnachtsfeiern</li><li>&ouml;ffentliche Events</li></ul><p>Die Events finden in Restaurants, Hotels, Innenst&auml;dten oder individuellen Wunschlocations statt und k&ouml;nnen flexibel an Gruppengr&ouml;sse, Thema und Anlass angepasst werden.</p><div class=\"fAndQwrap maTo3\"><div id=\"faq7\" class=\"panel-collapse collapse in\" role=\"tabpanel\" aria-labelledby=\"heading7\" aria-expanded=\"true\"><div class=\"accordion-content clearfix\"><p>Stadt-Krimis k&ouml;nnen auf Deutsch, Englisch und Franz&ouml;sisch gebucht werden.</p></div></div></div><div class=\"fAndQwrap maTo3\"><div class=\"card-block accordion-heading\"><div id=\"heading8\" class=\"clearfix giveMeABorder\" role=\"tab\"><p class=\"mb-0 card-title accordion-title\">&nbsp;</p></div></div></div>", "url": "https://www.stadt-krimi.ch/stadtkrimi/st-gallen-bodensee/", "image": "https://sgbtpimtsoch.sos-ch-dk-2.exoscale-cdn.com/catalog/a/7/1/c/a71c2ac01aa08c125dfb49413389c3e44d209bfd_Krimi_Dinner_Basel_April25_0082.jpg", "openstreetmap_id": "relation/1683941"}, "geometry": {"type": "Point", "coordinates": ["7.014770507812501", "47.2839190141905"]}}, {"type": "Feature", "properties": {"identifier": "af00ee69-3eb0-4b91-96e7-a6133e7145bc", "name": "Rhein-Route Highlights (5 Tage / 4 N\u00e4chte) | Saison 1 Kategorie A", "description": "<p>Die Rhein-Route umspannt den Osten der Schweiz in einem weiten Bogen. Auf dieser Reise entdecken Sie die Highlights dieser Route und radeln vom weiten Bodensee, wo Obstg&auml;rten, Schl&ouml;sser und fr&ouml;hliches Touristengeschnatter die Gestade des gr&uuml;n und silbern schimmernden &laquo;schw&auml;bischen Meeres&raquo; zieren bis nach Basel.</p><p>Kategorie A: ab CHF 999.00</p><p>Saison 1: vom 21. M&auml;rz bis 24. April 2026 und vom 26. September bis 18. Oktober 2026</p><p>&nbsp;</p><p>Der genaue Reiseverlauf ist <a href=\"https://shop.st.gallen-bodensee.ch/de/products/rheinroute-highlights-5-tage-4-naechte-saison-1\" target=\"_blank\" rel=\"noopener\">hier</a> ersichtlich.&nbsp;</p>", "url": "https://www.eurotrek.ch", "image": "https://sgbtpimtsoch.sos-ch-dk-2.exoscale-cdn.com/catalog/7/7/4/e/774ee4832b7ad0e89a26671f4f87e05a1f58e889_Rheinroute_Dig_Marktplatz.jpg", "openstreetmap_id": "node/1349145879"}, "geometry": {"type": "Point", "coordinates": ["9.505248", "47.4780562"]}}, {"type": "Feature", "properties": {"identifier": "cd011215-e4aa-4de7-8b16-74e12e7afce5", "name": "FoodTrail St.Gallen", "description": "<p>Durch das L&ouml;sen eines R&auml;tsels gelangt das Team zur ersten Station. Hier wartet bereits die erste K&ouml;stlichkeit. Wo ist der n&auml;chste Stopp? Auf verschiedenen Genuss-Stationen werden die Teilnehmenden mit Kulinarischem belohnt und erfahren dabei allerhand Spannendes und Geschichtliches &uuml;ber die Stadt St.Gallen. Ob zusammen mit der Familie, mit Freunden oder Arbeitskollegen, auf dem FoodTrail l&auml;sst sich die Stadt einmal anders erleben &ndash; typische St.Galler Spezialit&auml;ten inklusive.</p><p>Anzahl: ab 2 Personen, max. 6 Personen pro R&auml;tselteam</p><p>Preis: CHF 59.&ndash; pro Erwachsener / CHF 34.&ndash; pro Kind (8-16 Jahre)</p><p>Dauer: ca. 3.5 Stunden, Sie sind frei in der zeitlichen Gestaltung</p><p>Start: <span data-olk-copy-source=\"MessageBody\">Reception Hotel Dom, Webergasse 22, 9000 St.Gallen<br></span>Gruppen bis maximal 6 Personen bilden ein R&auml;tselteam, ab 7 Personen werden die Teilnehmenden in kleinere R&auml;tselteams aufgeteilt.</p><p>Die verf&uuml;gbaren Daten und Zeiten k&ouml;nnen <a href=\"https://www.foodtrail.ch/trails/st-gallen\" target=\"_blank\" rel=\"noopener\">hier </a>abgerufen und reserviert werden.</p><p>Unter der Woche kann bis mit zu 6 Personen auch spontan ohne Reservation gestartet werden. Bei fr&uuml;hzeitiger Buchung erhalten Sie die Tickets per Post, kurzfristig beziehen Sie die Tickets vor Ort in der Tourist Information.</p>", "url": "https://www.foodtrail.ch/", "image": "https://sgbtpimtsoch.sos-ch-dk-2.exoscale-cdn.com/catalog/1/6/b/b/16bb10a82dde134c4c88aab8c8aef63ebbdecc43_20210808_FoodTrail_165.jpg", "openstreetmap_id": "way/131849443"}, "geometry": {"type": "Point", "coordinates": ["9.375897216504168", "47.4232824"]}}, {"type": "Feature", "properties": {"identifier": "d62a0844-f5ea-49b6-af43-4f61c05a995a", "name": "E-Bike Gruppenevents - by TOPAZ", "description": "Gestalten Sie Ihren Tag ganz nach Ihren W\u00fcnschen \u2013 oder lassen Sie sich von unseren sorgf\u00e4ltig kuratierten E-Bike-Erlebnissen inspirieren.\n\nOb Sie Ihre eigene Route zusammenstellen oder eine unserer beliebten Touren w\u00e4hlen: Mit dem E-Bike entdecken Sie das Appenzellerland auf ganz neue Weise.\n\nBeispielsweise f\u00fchrt Sie die \u201eS\u00fcffig-Tour\u201c zu regionalen K\u00f6stlichkeiten und versteckten Sch\u00e4tzen. Oder Sie tauchen bei der \u201eXundi Rundi\u201c ein in die Welt der Kr\u00e4uter und erleben eine genussvolle Rundfahrt \u00fcber die sanften H\u00fcgel rund um Teufen \u2013 inklusive spannender Einblicke in die Philosophie von A. Vogel.\nAlle Tourenvorschl\u00e4ge finden Sie auf unserer Webseite.\n\nSteigen Sie in den Sattel und geniessen Sie ein St\u00fcck Freiheit mit einem kleinen Abenteuer durchs Appenzellerland.\n\n- Start und Ende ist der Standort von Abenteuer-Zeitreisen TOPAZ in Teufen AR.\n- Es stehen 20 Flyer E-MTB zur Verf\u00fcgung.\n- Optional liefern wir gegen Aufpreis die E-Bikes an den von Ihnen gew\u00e4hlten Ausgangspunkt.", "url": "https://zeitreisen.ch", "image": "https://sgbtpimtsoch.sos-ch-dk-2.exoscale-cdn.com/catalog/3/c/2/5/3c2593ee5aaa626fe9ca5e853314926bd7a8775b_TOPAZ_event_e_mountain_bike_tour_12.jpg", "openstreetmap_id": "node/12304079695"}, "geometry": {"type": "Point", "coordinates": ["9.3734114", "47.3896451"]}}, {"type": "Feature", "properties": {"identifier": "ec49f181-ad16-4b1a-aa57-e44f461847e4", "name": "Rhein-Route Highlights (5 Tage / 4 N\u00e4chte) | Saison 2 Kategorie B", "description": "<p class=\"MsoNormal\">Die Rhein-Route umspannt den Osten der Schweiz in einem weiten Bogen. Auf dieser Reise entdecken Sie die Highlights dieser Route und radeln vom weiten Bodensee, wo Obstg&auml;rten, Schl&ouml;sser und fr&ouml;hliches Touristengeschnatter die Gestade des gr&uuml;n und silbern schimmernden &laquo;schw&auml;bischen Meeres&raquo; zieren bis nach Basel.</p><p class=\"MsoNormal\">Saison 2: vom 25. April bis 25. September 2026</p><p class=\"MsoNormal\">Kategorie B: ab CHF 999.00</p><p class=\"MsoNormal\">Der genaue Reiseverlauf ist <a href=\"https://shop.st.gallen-bodensee.ch/de/products/rheinroute-highlights-5-tage-4-naechte-saison-2\" target=\"_blank\" rel=\"noopener\">hier</a> ersichtlich.</p>", "url": "https://www.eurotrek.ch", "image": "https://sgbtpimtsoch.sos-ch-dk-2.exoscale-cdn.com/catalog/6/9/4/a/694a30e3b57de5f4c94aa1ed76b37ce1e11334ee_Rheinroute_Dig_Marktplatz.jpg", "openstreetmap_id": "node/1349145879"}, "geometry": {"type": "Point", "coordinates": ["9.505248", "47.4780562"]}}, {"type": "Feature", "properties": {"identifier": "ecb64c5d-3592-497a-8e71-b341b3387a25", "name": "Wiborada Audio Walk", "description": "<p class=\"MsoNormal\">Wer war diese Frau?</p><p class=\"MsoNormal\">Im Mittelalter, als die Kirche das Bistum und das Volk lenkte, wurde Wiborada zur wichtigsten Frau St.Gallens. Sie rettete die Manuskripte der Stiftsbibliothek in St.Gallen von den einfallenden Horden. Aus ihrer Klause heraus gewann sie grossen geistlichen und politischen Einfluss.</p><p class=\"MsoNormal\">Erlebe ihre faszinierende Geschichte neu mit deinen Ohren!</p><p class=\"MsoNormal\">Dauer: max. 120 Minuten</p><p class=\"MsoNormal\">Sprache: Deutsch</p><p class=\"MsoNormal\">Startort: Roter Platz St. Gallen (Raiffeisenplatz) beim Brunnen</p><p class=\"MsoNormal\">Points of Interest:<br>&nbsp;&bull; Roter Platz von Pipilotti Rist<br>&nbsp;&bull; Treppenstadt (13&lsquo;000 Stufen!)<br>&nbsp;&bull; Panoramablick &uuml;ber die Stadt<br>&nbsp;&bull; St.Georgen Kirche, Wiborada Kapelle<br>&nbsp;&bull; wilde M&uuml;hlenenschlucht<br>&nbsp;&bull; Klosterplatz St. Gallen<br>&nbsp;&bull; St. Mangen Kirche (Klause)</p>", "url": "https://wiborada-audio-walk.ch/", "image": "https://sgbtpimtsoch.sos-ch-dk-2.exoscale-cdn.com/catalog/f/9/3/9/f939d1ce9db2addafa04813e98c75e786234cc18_medium__St._Mangen__1_.jpg", "openstreetmap_id": "way/25138184"}, "geometry": {"type": "Point", "coordinates": ["9.373177886009218", "47.421971830032824"]}}]}