{"type": "FeatureCollection", "features": [{"type": "Feature", "properties": {"identifier": "1a5e29ab-0d20-420b-9dbf-fc0783715fa2", "name": "Schienenerlebnisse", "description": "<p>Wir stellen Ihnen gerne ein Gesamtpaket unter der Ber&uuml;cksichtigung Ihrer W&uuml;nsche zusammen. Ob private oder gesch&auml;ftliche Anl&auml;sse &ndash; mit unserem Fachwissen und unserer Kreativit&auml;t beraten wir Sie ganz individuell und mit Liebe zum Detail.</p><p>Sie haben die M&ouml;glichkeit, aus bereits bestehenden Event-Beispielen auszuw&auml;hlen, diese je nach Wunsch individuell anzupassen oder f&uuml;r sich einen ganz eigenen Event zu gestalten. Mit dem untenstehenden Button gelangen Sie zu auserlesenen Event-Beispielen.</p>", "image": "https://sgbtpimtsoch.sos-ch-dk-2.exoscale-cdn.com/catalog/1/5/4/7/1547d935631eadac006cde3acfc2241be4ca9378_00_Titelbild_edited_1536x863.jpg", "openstreetmap_id": "node/158773000"}, "geometry": {"type": "Point", "coordinates": ["8.894150753920062", "47.55586341460734"]}}, {"type": "Feature", "properties": {"identifier": "c627410a-21e3-422b-ba0a-7dae65f37975", "name": "M\u00fchleggbahn", "description": "Die M\u00fchleggbahn ist eine Standseilbahn, welche die Altstadt von St.Gallen mit dem Naherholungsgebiet Drei Weieren und dem Ortsteil St.Georgen verbindet. Er\u00f6ffnet wurde die Bahn 1893 als Wassergewichtsseilbahn und wurde 1950 zu einer Zahnradbahn. 1975 musste die Bahn erneuert werden. Das erforderliche Kapital fehlte, die Bahn stand kurz vor der definitiven Schliessung, als Paul Hell in einer grossen Sammelaktion in letzter Minute das erforderliche Geld zusammenbrachte. Damit wurde die Bahn auf den heute noch bestehenden elektrischen Antrieb umgestellt. Dieses System wird als Schr\u00e4glift bezeichnet, die Fahrgastkabine f\u00e4hrt im vollautomatisierten Betrieb nach Bedarf auf Knopfdruck.\n\nIm Gedenken an den M\u00f6nch Gallus wurde die Talstation im Rahmen einer Kunstaktion im Jahr 1997 mit dem Schriftzug \u00abBangor\u00bb versehen. ", "url": "http://www.muehleggbahn.ch", "image": "https://sgbtpimtsoch.sos-ch-dk-2.exoscale-cdn.com/catalog/c/6/5/4/c654a799eb7e143d52ea09f41f40c47cd35da67b_Photokleinformat_3_2_Bangor_M__hlegg.jpg", "openstreetmap_id": "node/289934269"}, "geometry": {"type": "Point", "coordinates": ["9.37764500000003", "47.422096"]}}, {"type": "Feature", "properties": {"identifier": "dbe07a1b-d05b-4e0e-929d-b3e2e2b35cb3", "name": "Tarifverbund OSTWIND", "description": "Seit dem 1. Juni 2009 ist auf dem ganzen Gebiet des Tarifverbunds der sogenannte Zonentarif g\u00fcltig. Reisende kaufen seither nicht mehr Billette von Ort zu Ort, sondern die zwischen und einschliesslich Abfahrts- und Zielort durchfahrenen Zonen. Innerhalb der Zonen ist das Billett auf Bahn und Bus g\u00fcltig. Mit einem OSTWIND-Fahrausweis reisen die Kundin:innen innerhalb der gew\u00e4hlten Zonen und der zeitlichen G\u00fcltigkeit mit allen \u00f6ffentlichen Verkehrsmitteln \u2013 wohin und so oft sie wollen.", "url": "https://www.ostwind.ch", "image": "https://sgbtpimtsoch.sos-ch-dk-2.exoscale-cdn.com/catalog/d/5/0/a/d50a65dd30b6b985b4cfdac1678129905b782b8a_160097_us_0043317.jpg", "openstreetmap_id": "way/117850184"}, "geometry": {"type": "Point", "coordinates": ["9.372061190585772", "47.4232959"]}}, {"type": "Feature", "properties": {"identifier": "e3cce468-3d0d-4a74-868f-31849e1eb8c3", "name": "Bahnticket S\u00e4ntis \u2013 der Berg", "description": "<p data-v-20c93902=\"\" class=\"rich-text-paragraph\" piano-view-event=\"false\" style=\"margin-bottom: 1rem;\"><span class=\"text-space-pre-line rich-text-text\" data-abstract-init=\"body text\" style=\"\">Vom Gipfel reicht der Blick \u00fcber sechs L\u00e4nder. So grenzenlos wie die Rundsicht sind auch die M\u00f6glichkeiten rund um S\u00e4ntis und der Schw\u00e4galp. Erlebnisse in einer der sch\u00f6nsten Naturkulissen Europas, Veranstaltungen und Sonderfahrten das ganze Jahr, gelebtes Appenzeller Brauchtum und kulturelle H\u00f6hepunkte \u2013 dies und vieles mehr wird den Besuchern geboten. Das passende kulinarische Angebot findet sich im gem\u00fctlichen Gasthaus Passh\u00f6he, im 3-Sterne-Berghotel Schw\u00e4galp oder in den Panorama-Restaurants auf dem S\u00e4ntisgipfel.</span></p><p data-v-20c93902=\"\" class=\"rich-text-paragraph\" piano-view-event=\"false\" style=\"margin-bottom: 1rem;\"><span class=\"text-space-pre-line font-weight-bold rich-text-text\" data-abstract-init=\"body text\" style=\"\">Ticket g\u00fcltig f\u00fcr:</span></p><ul><li style=\"margin-bottom: 1rem;\">10-min\u00fctige Schwebebahnfahrt auf und/oder runter vom S\u00e4ntisgipfel</li></ul>", "url": "https://saentisbahn.ch/", "image": "https://sgbtpimtsoch.sos-ch-dk-2.exoscale-cdn.com/catalog/0/4/4/f/044f8c3ade2fd86b718c8d9c5f76d38ce2885fb8_S__ntis1.jpg", "openstreetmap_id": "node/560155201"}, "geometry": {"type": "Point", "coordinates": ["9.317264556884767", "47.256397812373805"]}}]}